{
  "question": "What's the proximity of a nature reserve from Golden Gate Bridge Lookout, Sausalito, CA within a 150 kilometers radius?",
  "sql": "SELECT *, ST_Distance(ST_GeomFromText('POINT (-122.486003 37.82872)',4326)::geography, pois.geometry) AS distance FROM pois\nWHERE ST_DWithin(pois.geometry, ST_GeomFromText('POINT (-122.486003 37.82872)',4326)::geography, 150000)\nAND leisure = 'nature_reserve';\n",
  "answers": [
    {
      "id": 18353,
      "geometry": "POINT (-122.056205 36.953242)",
      "poi_name": "Monarch Eucalyptus Grove",
      "osm_id": 399499080,
      "leisure": "nature_reserve",
      "tourism": "attraction",
      "distance": 104352.93317726
    },
    {
      "id": 245304,
      "geometry": "POINT (-121.992547 36.967436)",
      "poi_name": "El Dorado Riparian Corridor",
      "osm_id": 2703052273,
      "leisure": "nature_reserve",
      "distance": 105101.82556407
    },
    {
      "id": 245305,
      "geometry": "POINT (-121.991346 36.969853)",
      "poi_name": "Whitewater Cove Riparian Corridor",
      "osm_id": 2703052277,
      "leisure": "nature_reserve",
      "distance": 104902.03293574
    },
    {
      "id": 245494,
      "geometry": "POINT (-121.837586 37.193808)",
      "poi_name": "Mockingbird Hill Entrance",
      "osm_id": 2971693963,
      "leisure": "nature_reserve",
      "opening_hours": "08:00-sunset",
      "official_name": "Almaden Quicksilver County Park",
      "distance": 90840.50951656
    },
    {
      "id": 245660,
      "geometry": "POINT (-122.457096 37.88138)",
      "poi_name": "Old Hilary's Botanical Preserve",
      "osm_id": 3301715844,
      "leisure": "nature_reserve",
      "distance": 6374.53845746
    },
    {
      "id": 245748,
      "geometry": "POINT (-121.793386 37.020641)",
      "poi_name": "Byrne-Milliron Forest",
      "osm_id": 528266571,
      "leisure": "nature_reserve",
      "distance": 108635.68376502
    },
    {
      "id": 245856,
      "geometry": "POINT (-122.512405 37.553882)",
      "poi_name": "McNee Ranch State Park",
      "osm_id": 10210362188,
      "leisure": "nature_reserve",
      "website": "https://www.stateparks.com/mcnee_ranch_state_park_in_california.html",
      "distance": 30593.19647161
    },
    {
      "id": 246605,
      "geometry": "POINT (-121.515192 37.075068)",
      "poi_name": "Coyote Lake Entrance",
      "osm_id": 1819603290,
      "leisure": "nature_reserve",
      "opening_hours": "08:00-sunset",
      "official_name": "Coyote Lake - Harvey Bear Ranch County Park",
      "distance": 119895.12389028
    },
    {
      "id": 246606,
      "geometry": "POINT (-121.577555 37.09656)",
      "poi_name": "Harvey Bear Ranch Entrance",
      "osm_id": 1823120108,
      "leisure": "nature_reserve",
      "opening_hours": "08:00-sunset",
      "official_name": "Coyote Lake - Harvey Bear Ranch County Park",
      "distance": 114289.95082088
    },
    {
      "id": 246730,
      "geometry": "POINT (-122.277725 37.766027)",
      "poi_name": "Crab Cove Marine Reserve",
      "osm_id": 2051011701,
      "leisure": "nature_reserve",
      "distance": 19619.26857155
    },
    {
      "id": 246894,
      "geometry": "POINT (-122.442198 37.611648)",
      "poi_name": "San Francisco State Fish and Game Refuge",
      "osm_id": 6575564684,
      "leisure": "nature_reserve",
      "distance": 24400.68119536
    },
    {
      "id": 247387,
      "geometry": "POINT (-122.519355 38.369104)",
      "poi_name": "Stuart Creek Run",
      "osm_id": 9008480793,
      "leisure": "nature_reserve",
      "distance": 60053.00748275
    },
    {
      "id": 248029,
      "geometry": "POINT (-122.359965 37.899844)",
      "poi_name": "Tern Nesting",
      "osm_id": 6283463921,
      "leisure": "nature_reserve",
      "distance": 13613.28437817
    },
    {
      "id": 248199,
      "geometry": "POINT (-121.614207 37.136389)",
      "poi_name": "Hill Rd Entrance",
      "osm_id": 7417226358,
      "leisure": "nature_reserve",
      "opening_hours": "6:00-22:00",
      "official_name": "Valley Water San Pedo Percolation Ponds",
      "distance": 108855.65628434
    },
    {
      "id": 248200,
      "geometry": "POINT (-121.619402 37.131996)",
      "poi_name": "San Pedro Ave Entrance",
      "osm_id": 7417226360,
      "leisure": "nature_reserve",
      "opening_hours": "6:00-22:00",
      "official_name": "Valley Water San Pedo Percolation Ponds",
      "distance": 108877.95514226
    },
    {
      "id": 262192,
      "geometry": "POINT (-122.884438 38.066591)",
      "poi_name": "Point Reyes National Seashore",
      "osm_id": 358776008,
      "leisure": "nature_reserve",
      "distance": 43857.91990326
    },
    {
      "id": 262683,
      "geometry": "POINT (-122.084416 38.511018)",
      "poi_name": "Putah Creek State Wildlife Area",
      "osm_id": 358805476,
      "leisure": "nature_reserve",
      "distance": 83511.25086064
    },
    {
      "id": 262832,
      "geometry": "POINT (-121.830234 38.02131)",
      "poi_name": "Dow Wetlands Preserve",
      "osm_id": 358821236,
      "leisure": "nature_reserve",
      "operator": "Dow",
      "website": "https://corporate.dow.com/en-us/about/locations/pittsburg/wetlands",
      "distance": 61491.37109608
    },
    {
      "id": 262885,
      "geometry": "POINT (-121.655517 38.763513)",
      "poi_name": "Fremont Weir State Wildlife Area",
      "osm_id": 358822747,
      "leisure": "nature_reserve",
      "distance": 126667.01192206
    },
    {
      "id": 262902,
      "geometry": "POINT (-121.575239 38.948229)",
      "poi_name": "Lake of the Woods State Wildlife Area",
      "osm_id": 358823252,
      "leisure": "nature_reserve",
      "distance": 147559.7115988
    },
    {
      "id": 263684,
      "geometry": "POINT (-121.738282 36.819678)",
      "poi_name": "Elkhorn Slough National Estuarine Research Reserve",
      "osm_id": 358849485,
      "leisure": "nature_reserve",
      "website": "https://www.elkhornslough.org/esnerr/",
      "distance": 130126.16824488
    },
    {
      "id": 265418,
      "geometry": "POINT (-122.056205 36.953242)",
      "poi_name": "Monarch Eucalyptus Grove",
      "osm_id": 399499080,
      "leisure": "nature_reserve",
      "tourism": "attraction",
      "distance": 104352.93317726
    },
    {
      "id": 265814,
      "geometry": "POINT (-123.451917 38.704878)",
      "poi_name": "Green Cove Seal Rookery",
      "osm_id": 7835810697,
      "leisure": "nature_reserve",
      "operator": "The Sea Ranch Association",
      "distance": 128854.27487362
    },
    {
      "id": 266074,
      "geometry": "POINT (-121.785442 36.801022)",
      "poi_name": "Sea Goddess Whale Watching",
      "osm_id": 10562026816,
      "leisure": "nature_reserve",
      "description": "Sea Goddess Whale Watching gives you a once-in-a-lifetime experience. Our whale-watching and shark tours depart from Moss Landing, at the mouth of the Monterey Bay Canyon, one of the largest underwater canyons in the world! The canyon is a nutrient-rich z",
      "opening_hours": "Mo,We,Fr,Su 07:00-20:00; Tu,Th,Sa 07:00-17:00",
      "website": "https://seagoddesswhalewatch.com/",
      "phone": "831-920-1499",
      "addr_state": "CA",
      "addr_city": "Moss Landing",
      "addr_postcode": "95039",
      "addr_street": "Sandholdt Road",
      "addr_housenumber": "7881",
      "distance": 129866.22107613
    },
    {
      "id": 266294,
      "geometry": "POINT (-121.646836 37.165685)",
      "poi_name": "Coyote Creek Trail Entrance",
      "osm_id": 7148889002,
      "leisure": "nature_reserve",
      "opening_hours": "08:00-sunset",
      "official_name": "Coyote Creek Parkway County Park",
      "distance": 104506.5775763
    },
    {
      "id": 266295,
      "geometry": "POINT (-121.630443 37.163386)",
      "poi_name": "Anderson Boat Launch Entrance",
      "osm_id": 7148942829,
      "leisure": "nature_reserve",
      "official_name": "Anderson Lake County Park",
      "distance": 105719.66426412
    },
    {
      "id": 266296,
      "geometry": "POINT (-121.631192 37.164963)",
      "poi_name": "Toyon Group Area Entrance",
      "osm_id": 7148942830,
      "leisure": "nature_reserve",
      "official_name": "Anderson Lake County Park",
      "distance": 105549.48427899
    },
    {
      "id": 266297,
      "geometry": "POINT (-121.640191 37.164557)",
      "poi_name": "Live Oak Entrance",
      "osm_id": 7148942831,
      "leisure": "nature_reserve",
      "opening_hours": "08:00-sunset",
      "official_name": "Anderson Lake County Park",
      "distance": 105012.84052956
    },
    {
      "id": 266298,
      "geometry": "POINT (-121.520179 37.070005)",
      "poi_name": "Mendoza Ranch Entrance",
      "osm_id": 7149081259,
      "leisure": "nature_reserve",
      "opening_hours": "08:00-sunset",
      "official_name": "Coyote Lake - Harvey Bear Ranch County Park",
      "distance": 119975.07680513
    },
    {
      "id": 266311,
      "geometry": "POINT (-121.726403 37.170619)",
      "poi_name": "Coyote Valley Open Space Preserve Entrance",
      "osm_id": 7159592745,
      "leisure": "nature_reserve",
      "opening_hours": "07:00-sunset",
      "official_name": "Santa Clara Valley Open Space Authority Coyote Valley Preserve",
      "distance": 99228.76535912
    },
    {
      "id": 266314,
      "geometry": "POINT (-121.695412 37.11859)",
      "poi_name": "Chesbro Reservoir Boat Launch Entrance",
      "osm_id": 7167235862,
      "leisure": "nature_reserve",
      "opening_hours": "08:00-sunset",
      "official_name": "Chesbro Reservoir County Park",
      "parking": "surface",
      "distance": 105366.9576146
    },
    {
      "id": 266315,
      "geometry": "POINT (-121.774488 37.147934)",
      "poi_name": "Casa Loma Entrance",
      "osm_id": 7167978025,
      "leisure": "nature_reserve",
      "opening_hours": "sunrise-sunset",
      "official_name": "Calero County Park",
      "distance": 98328.87364027
    },
    {
      "id": 266316,
      "geometry": "POINT (-121.77459 37.147776)",
      "poi_name": "Rancho Ca\u00f1ada del Oro Open Space Preserve Entrance",
      "osm_id": 7167978026,
      "leisure": "nature_reserve",
      "opening_hours": "07:00-sunset",
      "official_name": "Santa Clara Valley Open Space Authority Rancho Ca\u00f1ada del Oro Preserve",
      "distance": 98336.58505497
    },
    {
      "id": 266317,
      "geometry": "POINT (-121.807553 37.194612)",
      "poi_name": "Rancho San Vicente Entrance",
      "osm_id": 7170184429,
      "leisure": "nature_reserve",
      "opening_hours": "08:00-sunset",
      "official_name": "Calero County Park",
      "distance": 92470.92538548
    },
    {
      "id": 266373,
      "geometry": "POINT (-121.824734 37.174204)",
      "poi_name": "Hacienda Entrance",
      "osm_id": 7229001794,
      "leisure": "nature_reserve",
      "opening_hours": "08:00-sunset",
      "official_name": "Almaden Quicksilver County Park",
      "distance": 93251.34121375
    },
    {
      "id": 267496,
      "geometry": "POINT (-121.862346 37.175255)",
      "poi_name": "Hicks/Wood Entrance",
      "osm_id": 7600103910,
      "leisure": "nature_reserve",
      "opening_hours": "08:00-sunset",
      "official_name": "Almanden Quicksilver County Park",
      "distance": 91109.79524334
    },
    {
      "id": 267497,
      "geometry": "POINT (-121.881471 37.214754)",
      "poi_name": "McAbee Entry",
      "osm_id": 7600110978,
      "leisure": "nature_reserve",
      "opening_hours": "08:00-sunset",
      "official_name": "Almaden Quicksilver County Park",
      "distance": 86597.94870679
    }
  ],
  "answer_type": "distance",
  "question_entities": {
    "[1]": {
      "main_category": "leisure",
      "sub_category": "nature reserve"
    },
    "[2]": {
      "distance": 150000,
      "text": "150 kilometers"
    },
    "[3]": {
      "main_category": "tourism",
      "sub_category": "viewpoint",
      "display_name": "Golden Gate Bridge Lookout, Sausalito, CA",
      "geo_wkt": "POINT (-122.486003 37.82872)",
      "poi": {
        "id": 20450,
        "geometry": "POINT (-122.486003 37.82872)",
        "poi_name": "Golden Gate Bridge Lookout",
        "osm_id": 1183476394,
        "tourism": "viewpoint",
        "addr_state": "CA",
        "addr_city": "Sausalito",
        "addr_street": "Conzelman Road"
      }
    }
  },
  "id": 793,
  "type": "range+distance"
}