{
  "question": "Could you find me a restaurant within 20 kilometers from Hampton Inn & Suites, Syracuse, NY?",
  "sql": "SELECT * FROM pois\nWHERE ST_DWithin(pois.geometry, ST_GeomFromText('POINT (-76.171959 43.095141)',4326)::geography, 20000)\nAND amenity = 'restaurant';\n",
  "answers": [
    {
      "id": 32031,
      "geometry": "POINT (-76.019966 43.033009)",
      "poi_name": "King David's",
      "osm_id": 2619288193,
      "amenity": "restaurant",
      "cuisine": "greek",
      "opening_hours": "Mo-Th 11:00-21:00; Fr-Sa 11:00-22:00; Su 12:00-19:00",
      "website": "https://kingdavids.com/",
      "phone": "315 637 0485",
      "addr_state": "NY",
      "addr_city": "Fayetteville",
      "addr_postcode": "13066",
      "addr_street": "Towne Drive",
      "addr_housenumber": "317"
    },
    {
      "id": 32310,
      "geometry": "POINT (-75.977874 43.001748)",
      "poi_name": "A.W. Wander Craft Beer & Pizza",
      "osm_id": 2623908198,
      "amenity": "restaurant",
      "cuisine": "pizza",
      "wheelchair": "limited",
      "opening_hours": "Tu-Sa 16:00-23:00",
      "website": "https://www.awwander.com",
      "phone": "315-692-2026",
      "addr_state": "NY",
      "addr_city": "Manlius",
      "addr_postcode": "13104",
      "addr_street": "East Seneca Street",
      "addr_housenumber": "145"
    },
    {
      "id": 33376,
      "geometry": "POINT (-76.006188 43.029845)",
      "poi_name": "Bull & Bear Roadhouse",
      "osm_id": 2663835904,
      "amenity": "restaurant",
      "website": "https://www.bullandbearroadhouse.com/",
      "phone": "+1-315-437-2855",
      "addr_state": "NY",
      "addr_city": "Fayetteville",
      "addr_postcode": "13066",
      "addr_street": "East Genesee Street",
      "addr_housenumber": "411"
    },
    {
      "id": 42015,
      "geometry": "POINT (-76.239907 43.047081)",
      "poi_name": "Nikkou Japan",
      "osm_id": 3036377363,
      "amenity": "restaurant",
      "cuisine": "japanese",
      "website": "http://www.nikkoujapan.com/"
    },
    {
      "id": 36265,
      "geometry": "POINT (-75.98638 42.99667)",
      "poi_name": "China Cafe",
      "osm_id": 2758523931,
      "amenity": "restaurant",
      "cuisine": "chinese",
      "addr_state": "NY",
      "addr_city": "Manlius",
      "addr_postcode": "13104",
      "addr_street": "West Seneca Street",
      "addr_housenumber": "240"
    },
    {
      "id": 36266,
      "geometry": "POINT (-75.981877 43.000263)",
      "poi_name": "No. 1 Kitchen",
      "osm_id": 2758523987,
      "amenity": "restaurant",
      "cuisine": "chinese",
      "addr_state": "NY",
      "addr_city": "Manlius",
      "addr_postcode": "13104",
      "addr_street": "West Seneca Street",
      "addr_housenumber": "119"
    },
    {
      "id": 34027,
      "geometry": "POINT (-75.982273 43.003762)",
      "poi_name": "Scenic Root",
      "osm_id": 2690613597,
      "amenity": "restaurant",
      "addr_state": "NY",
      "addr_city": "Manlius",
      "addr_postcode": "13104",
      "addr_street": "Fayette Street",
      "addr_housenumber": "301"
    },
    {
      "id": 42053,
      "geometry": "POINT (-76.119656 43.042096)",
      "poi_name": "Cure",
      "osm_id": 3039996608,
      "amenity": "restaurant",
      "cuisine": "sausage",
      "addr_state": "NY",
      "addr_city": "Syracuse",
      "addr_postcode": "13210",
      "addr_street": "Westcott Street",
      "addr_housenumber": "466"
    },
    {
      "id": 44107,
      "geometry": "POINT (-76.184225 43.016221)",
      "poi_name": "Kelley's Restaurant",
      "osm_id": 3144932740,
      "amenity": "restaurant",
      "addr_state": "NY",
      "addr_city": "Onondaga",
      "addr_postcode": "13215",
      "addr_street": "Velasko Road",
      "addr_housenumber": "5076"
    },
    {
      "id": 47272,
      "geometry": "POINT (-76.003075 43.03052)",
      "poi_name": "Pasquale's Pizzeria",
      "osm_id": 3317231542,
      "amenity": "restaurant",
      "cuisine": "pizza",
      "capacity": "24",
      "takeaway": "yes",
      "delivery": "yes",
      "addr_state": "NY",
      "addr_city": "Fayetteville",
      "addr_postcode": "13066",
      "addr_street": "East Genesee Street",
      "addr_housenumber": "511"
    },
    {
      "id": 50321,
      "geometry": "POINT (-76.119217 43.041863)",
      "poi_name": "Syracuse Halal Gyro",
      "osm_id": 3477724679,
      "amenity": "restaurant",
      "cuisine": "greek;mediterranean",
      "opening_hours": "Mo-Su 10:00-22:00",
      "website": "https://www.syracusehalalgyro.com/menu",
      "addr_state": "NY",
      "addr_city": "Syracuse",
      "addr_postcode": "13210",
      "addr_street": "Westcott Street",
      "addr_housenumber": "477"
    },
    {
      "id": 50030,
      "geometry": "POINT (-76.005743 43.029512)",
      "poi_name": "Kirby's",
      "osm_id": 3462572262,
      "amenity": "restaurant",
      "cuisine": "steak_house",
      "opening_hours": "Su-Th 11:00-21:00; Fr-Sa 11:00-22:00",
      "addr_state": "NY",
      "addr_city": "Fayetteville",
      "addr_postcode": "13066",
      "addr_street": "East Genesee Street",
      "addr_housenumber": "408"
    },
    {
      "id": 50031,
      "geometry": "POINT (-76.005725 43.029292)",
      "poi_name": "Real China",
      "osm_id": 3462572268,
      "amenity": "restaurant",
      "cuisine": "chinese",
      "capacity": "4",
      "takeaway": "yes",
      "outdoor_seating": "no"
    },
    {
      "id": 50273,
      "geometry": "POINT (-76.092041 43.090268)",
      "poi_name": "Pronto Joey's",
      "osm_id": 3475673996,
      "amenity": "restaurant",
      "cuisine": "italian",
      "addr_state": "NY",
      "addr_city": "Syracuse",
      "addr_postcode": "13206",
      "addr_street": "Thompson Road",
      "addr_housenumber": "6594"
    },
    {
      "id": 57557,
      "geometry": "POINT (-76.169632 43.074056)",
      "poi_name": "The Market Diner",
      "osm_id": 5339764920,
      "amenity": "restaurant",
      "cuisine": "diner",
      "opening_hours": "Mo-Sa 05:00-21:00; Su 05:00-14:30",
      "website": "https://themarketdiner.com/",
      "internet_access": "wlan",
      "phone": "+1-315-474-5247",
      "addr_street": "Park Street",
      "addr_housenumber": "2100"
    },
    {
      "id": 58213,
      "geometry": "POINT (-76.149624 43.049769)",
      "poi_name": "The Fish Friar",
      "osm_id": 5368053090,
      "amenity": "restaurant",
      "cuisine": "seafood",
      "opening_hours": "Tu-Th 11:00-22:00; Fr-Sa 11:00-23:00; Su 16:00-21:00",
      "website": "https://www.thefishfriar.com",
      "addr_street": "East Washington Street",
      "addr_housenumber": "225-231"
    },
    {
      "id": 63131,
      "geometry": "POINT (-76.226484 43.136926)",
      "poi_name": "Ocean Sushi",
      "osm_id": 5600900222,
      "amenity": "restaurant",
      "cuisine": "sushi;japanese",
      "phone": "+1-315-622-6050",
      "addr_state": "NY",
      "addr_city": "Liverpool",
      "addr_postcode": "13090",
      "addr_street": "Oswego Road",
      "addr_housenumber": "7567"
    },
    {
      "id": 63134,
      "geometry": "POINT (-76.225574 43.139228)",
      "poi_name": "Antonio's Liverpool Pizzeria",
      "osm_id": 5600944725,
      "amenity": "restaurant",
      "cuisine": "pizza",
      "website": "https://antoniosny.com/22380",
      "phone": "+1-315-622-0045",
      "addr_state": "NY",
      "addr_city": "Liverpool",
      "addr_postcode": "13090",
      "addr_street": "Oswego Road",
      "addr_housenumber": "7608"
    },
    {
      "id": 63135,
      "geometry": "POINT (-76.225384 43.13892)",
      "poi_name": "Twin Trees",
      "osm_id": 5600944726,
      "amenity": "restaurant",
      "cuisine": "pizza;italian",
      "website": "https://www.twintreespizza.com/Default.aspx",
      "phone": "+1-315-652-2700",
      "addr_state": "NY",
      "addr_city": "Liverpool",
      "addr_postcode": "13090",
      "addr_street": "Oswego Road",
      "addr_housenumber": "7608"
    },
    {
      "id": 63136,
      "geometry": "POINT (-76.225762 43.13941)",
      "poi_name": "Bayberry Fish Cove",
      "osm_id": 5600944732,
      "amenity": "restaurant",
      "cuisine": "seafood;fish",
      "website": "https://www.facebook.com/FishCoveBayberryPlaza/",
      "phone": "+1-315-652-1454",
      "addr_state": "NY",
      "addr_city": "Liverpool",
      "addr_postcode": "13090",
      "addr_street": "Oswego Road",
      "addr_housenumber": "7608"
    },
    {
      "id": 63235,
      "geometry": "POINT (-76.234984 43.161734)",
      "poi_name": "Pies Guys Pizzeria",
      "osm_id": 5605568060,
      "amenity": "restaurant",
      "website": "https://piesguyspizzeria.com/",
      "phone": "+1-315-652-7777",
      "addr_state": "NY",
      "addr_city": "Liverpool",
      "addr_postcode": "13090",
      "addr_street": "Oswego Road",
      "addr_housenumber": "8075"
    },
    {
      "id": 63236,
      "geometry": "POINT (-76.23487 43.161647)",
      "poi_name": "China Garden",
      "osm_id": 5605568065,
      "amenity": "restaurant",
      "cuisine": "chinese;asian",
      "phone": "+1-315-652-6677",
      "addr_state": "NY",
      "addr_city": "Liverpool",
      "addr_postcode": "13090",
      "addr_street": "Oswego Road",
      "addr_housenumber": "8075"
    },
    {
      "id": 63137,
      "geometry": "POINT (-76.225847 43.139558)",
      "poi_name": "China Wong",
      "osm_id": 5600944735,
      "amenity": "restaurant",
      "cuisine": "chinese",
      "phone": "+1-315-622-4567",
      "addr_state": "NY",
      "addr_city": "Liverpool",
      "addr_postcode": "13090",
      "addr_street": "Oswego Road",
      "addr_housenumber": "7608"
    },
    {
      "id": 64228,
      "geometry": "POINT (-76.131886 43.05086)",
      "poi_name": "Mello Velo Cafe",
      "osm_id": 5645672778,
      "amenity": "restaurant",
      "opening_hours": "Mo-Sa 10:00-21:00;Su 10:00-17:00",
      "website": "https://www.mellovelobicycles.com/cafe/",
      "phone": "+1-315-307-3104",
      "outdoor_seating": "yes",
      "addr_city": "Syracuse",
      "addr_postcode": "13210",
      "addr_street": "Canal Street",
      "addr_housenumber": "790"
    },
    {
      "id": 69866,
      "geometry": "POINT (-76.268829 43.040165)",
      "poi_name": "Adelita's Cocina",
      "osm_id": 11334753900,
      "amenity": "restaurant",
      "cuisine": "tex-mex",
      "website": "https://www.adelitascocina.com",
      "phone": "+1-315-320-7779",
      "addr_state": "NY",
      "addr_city": "Camillus",
      "addr_postcode": "13031",
      "addr_street": "West Genesee Street",
      "addr_housenumber": "5241"
    },
    {
      "id": 67315,
      "geometry": "POINT (-76.173951 43.069727)",
      "poi_name": "Aloha Crab",
      "osm_id": 11232766065,
      "amenity": "restaurant",
      "cuisine": "seafood"
    },
    {
      "id": 67317,
      "geometry": "POINT (-76.173683 43.069441)",
      "poi_name": "Koto Japanese Steakhouse",
      "osm_id": 11232766067,
      "amenity": "restaurant",
      "cuisine": "japanese"
    },
    {
      "id": 67318,
      "geometry": "POINT (-76.171698 43.068014)",
      "poi_name": "Texas De Brazil",
      "osm_id": 11232766069,
      "amenity": "restaurant",
      "cuisine": "steak_house"
    },
    {
      "id": 67319,
      "geometry": "POINT (-76.171628 43.067865)",
      "poi_name": "P.F. Chang's",
      "osm_id": 11232766070,
      "amenity": "restaurant",
      "cuisine": "asian",
      "official_name": "P.F. Chang's China Bistro"
    },
    {
      "id": 67320,
      "geometry": "POINT (-76.171623 43.06723)",
      "poi_name": "Poke Noodle",
      "osm_id": 11232766071,
      "amenity": "restaurant",
      "cuisine": "noodle"
    },
    {
      "id": 67321,
      "geometry": "POINT (-76.171602 43.068347)",
      "poi_name": "Dave & Buster's",
      "osm_id": 11232766073,
      "amenity": "restaurant",
      "cuisine": "american",
      "leisure": "amusement_arcade"
    },
    {
      "id": 67322,
      "geometry": "POINT (-76.172616 43.070366)",
      "poi_name": "Johnny Rockets",
      "osm_id": 11232766077,
      "amenity": "restaurant",
      "cuisine": "burger"
    },
    {
      "id": 67853,
      "geometry": "POINT (-75.966563 43.046325)",
      "poi_name": "Yards Grille",
      "osm_id": 11250875794,
      "amenity": "restaurant",
      "website": "https://yardsgrille.com/",
      "phone": "1-315-632-6015",
      "outdoor_seating": "yes",
      "addr_state": "NY",
      "addr_city": "Fayetteville",
      "addr_postcode": "13066",
      "addr_street": "Green Lakes Park Drive",
      "addr_housenumber": "5648"
    },
    {
      "id": 69352,
      "geometry": "POINT (-76.270468 43.055499)",
      "poi_name": "Red Robin",
      "osm_id": 11302065553,
      "amenity": "restaurant",
      "cuisine": "burger",
      "official_name": "Red Robin Gourmet Burgers and Brews",
      "addr_state": "NY",
      "addr_city": "Camillus",
      "addr_postcode": "13031",
      "addr_street": "Township Boulevard",
      "addr_housenumber": "160"
    },
    {
      "id": 69353,
      "geometry": "POINT (-76.268992 43.055731)",
      "poi_name": "LongHorn Steakhouse",
      "osm_id": 11302065554,
      "amenity": "restaurant",
      "cuisine": "steak_house",
      "addr_state": "NY",
      "addr_city": "Camillus",
      "addr_postcode": "13031",
      "addr_street": "Township Boulevard",
      "addr_housenumber": "140"
    },
    {
      "id": 69764,
      "geometry": "POINT (-76.015273 43.029039)",
      "poi_name": "Papa Gallo",
      "osm_id": 11330010875,
      "amenity": "restaurant",
      "cuisine": "mexican",
      "website": "http://www.papagallorestaurant.com",
      "phone": "315 632 4789",
      "addr_state": "NY",
      "addr_city": "Fayetteville",
      "addr_postcode": "13066",
      "addr_street": "West Genesee Street",
      "addr_housenumber": "205"
    },
    {
      "id": 69768,
      "geometry": "POINT (-76.014871 43.029592)",
      "poi_name": "J.P. Mulligan's",
      "osm_id": 11330152650,
      "amenity": "restaurant",
      "addr_state": "NY",
      "addr_city": "Fayetteville",
      "addr_postcode": "13066",
      "addr_street": "West Genesee Street",
      "addr_housenumber": "202"
    },
    {
      "id": 69868,
      "geometry": "POINT (-76.154766 43.052183)",
      "poi_name": "Apizza Regionale",
      "osm_id": 11334835811,
      "amenity": "restaurant",
      "cuisine": "pizza",
      "website": "https://www.apizzaregionale.com",
      "addr_state": "NY",
      "addr_city": "Syracuse",
      "addr_postcode": "13202",
      "addr_street": "West Genesee Street",
      "addr_housenumber": "260"
    },
    {
      "id": 83640,
      "geometry": "POINT (-76.154035 43.047855)",
      "poi_name": "Nick's Tomato Pie",
      "osm_id": 1756324695,
      "amenity": "restaurant",
      "cuisine": "pizza"
    },
    {
      "id": 82583,
      "geometry": "POINT (-76.066114 43.035366)",
      "poi_name": "Dosa Grill",
      "osm_id": 1704600617,
      "amenity": "restaurant",
      "cuisine": "indian",
      "opening_hours": "Mo-Th 11:30-14:30, 16:30-21:00; Fr-Sa 11:30-14:30, 16:30-22:00",
      "website": "https://www.syracusedosagrill.com/",
      "phone": "315 445 5555",
      "addr_state": "NY",
      "addr_city": "Syracuse",
      "addr_postcode": "13214",
      "addr_street": "East Genesee Street",
      "addr_housenumber": "4467"
    },
    {
      "id": 83170,
      "geometry": "POINT (-76.019067 43.034007)",
      "poi_name": "Bonefish Grill",
      "osm_id": 1732554208,
      "amenity": "restaurant",
      "cuisine": "seafood",
      "opening_hours": "Mo-Th 11:00-22:30; Fr-Sa 11:00-23:30; Su 10:00-22:00",
      "website": "https://www.bonefishgrill.com/locations/ny/fayetteville",
      "phone": "315 637 0491",
      "addr_state": "NY",
      "addr_city": "Fayetteville",
      "addr_postcode": "13066",
      "addr_street": "Towne Drive",
      "addr_housenumber": "600"
    },
    {
      "id": 83171,
      "geometry": "POINT (-76.019082 43.034287)",
      "poi_name": "Red Robin",
      "osm_id": 1732554212,
      "amenity": "restaurant",
      "cuisine": "burger",
      "opening_hours": "Su-Th 11:00-21:00; Fr-Sa 11:00-22:00",
      "website": "https://www.redrobin.com/",
      "phone": "315 637 6790",
      "official_name": "Red Robin Gourmet Burgers and Brews",
      "addr_state": "NY",
      "addr_city": "Fayetteville",
      "addr_postcode": "13066",
      "addr_street": "Towne Drive",
      "addr_housenumber": "610"
    },
    {
      "id": 82320,
      "geometry": "POINT (-76.154678 43.052561)",
      "poi_name": "Dinosaur BBQ",
      "osm_id": 1694014652,
      "amenity": "restaurant",
      "cuisine": "american",
      "opening_hours": "Mo-We 11:00-23:00; Th 11:00-24:00; Fr-Sa 11:00-1:00; Su 12:00-22:00",
      "website": "https://www.dinosaurbarbque.com/syracuse/",
      "phone": "+1-315-476-4937",
      "addr_state": "NY",
      "addr_city": "Syracuse",
      "addr_postcode": "13202",
      "addr_street": "West Willow Street",
      "addr_housenumber": "246"
    },
    {
      "id": 82537,
      "geometry": "POINT (-76.064889 43.037646)",
      "poi_name": "Scotch 'n Sirloin",
      "osm_id": 1700995755,
      "amenity": "restaurant",
      "opening_hours": "Mo-Th 17:00-21:30; Fr-Sa 17:00-22:00; Su 16:30-20:30; Jul-Aug Su off",
      "website": "https://www.scotchnsirloin.com/",
      "phone": "315 446 1771",
      "addr_state": "NY",
      "addr_city": "DeWitt",
      "addr_postcode": "13214",
      "addr_street": "Erie Boulevard East",
      "addr_housenumber": "3687"
    },
    {
      "id": 83652,
      "geometry": "POINT (-76.114247 43.080588)",
      "poi_name": "No Name Diner",
      "osm_id": 1757496372,
      "amenity": "restaurant"
    },
    {
      "id": 88595,
      "geometry": "POINT (-76.263825 42.993075)",
      "poi_name": "The Garden Caf\u00e9\nat Crazy Daisies",
      "osm_id": 8787544609,
      "amenity": "restaurant",
      "opening_hours": "Mo-Fr 11:00-20:00, Sa 09:30-21:00, Su 09:30-18:00",
      "website": "https://crazydaisiesflowers.com/garden-cafe/",
      "phone": "+1315-498-5525",
      "addr_state": "NY",
      "addr_city": "Syracuse",
      "addr_postcode": "13215",
      "addr_street": "Kasson Road",
      "addr_housenumber": "4693"
    },
    {
      "id": 84020,
      "geometry": "POINT (-76.001985 43.074673)",
      "poi_name": "Trappers II",
      "osm_id": 1774216278,
      "amenity": "restaurant"
    },
    {
      "id": 84021,
      "geometry": "POINT (-76.000628 43.069461)",
      "poi_name": "Parkway Pizza",
      "osm_id": 1774218604,
      "amenity": "restaurant",
      "cuisine": "pizza"
    },
    {
      "id": 84023,
      "geometry": "POINT (-76.045624 43.060024)",
      "poi_name": "Trapper's",
      "osm_id": 1774230925,
      "amenity": "restaurant",
      "cuisine": "american"
    },
    {
      "id": 83706,
      "geometry": "POINT (-75.982702 43.003946)",
      "poi_name": "Good Time Sushi",
      "osm_id": 1761186212,
      "amenity": "restaurant",
      "cuisine": "sushi",
      "opening_hours": "Mo-Th 11:30-14:30, 16:30-21:00; Fr-Sa 11:30-14:30, 16:30-21:30; Su off",
      "website": "https://goodtimesushi.com",
      "addr_state": "NY",
      "addr_city": "Manlius",
      "addr_postcode": "13104",
      "addr_street": "Fayette Street",
      "addr_housenumber": "301"
    },
    {
      "id": 88553,
      "geometry": "POINT (-75.985933 42.996873)",
      "poi_name": "The Daily Diner",
      "osm_id": 8787440023,
      "amenity": "restaurant",
      "cuisine": "diner",
      "opening_hours": "Mo-Su 07:00-14:00",
      "website": "https://www.eatdailydiner.com",
      "phone": "+1-315-692-2218",
      "addr_state": "NY",
      "addr_city": "Manlius",
      "addr_postcode": "13104",
      "addr_street": "West Seneca Street",
      "addr_housenumber": "240"
    },
    {
      "id": 88559,
      "geometry": "POINT (-76.139526 43.23345)",
      "poi_name": "The Brick House Cafe",
      "osm_id": 8787454235,
      "amenity": "restaurant",
      "addr_state": "NY",
      "addr_city": "Brewerton",
      "addr_postcode": "13029",
      "addr_street": "Brewerton Road",
      "addr_housenumber": "9570"
    },
    {
      "id": 88560,
      "geometry": "POINT (-76.140838 43.23898)",
      "poi_name": "Rosie's Corner",
      "osm_id": 8787456224,
      "amenity": "restaurant",
      "cuisine": "pizza",
      "addr_state": "NY",
      "addr_city": "Brewerton",
      "addr_postcode": "13029",
      "addr_street": "Brewerton Road",
      "addr_housenumber": "9689"
    },
    {
      "id": 88561,
      "geometry": "POINT (-76.132325 43.232128)",
      "poi_name": "Brewer Union Cafe",
      "osm_id": 8787458020,
      "amenity": "restaurant",
      "addr_state": "NY",
      "addr_city": "Brewerton",
      "addr_postcode": "13029",
      "addr_street": "Miller Road",
      "addr_housenumber": "5771"
    },
    {
      "id": 88562,
      "geometry": "POINT (-76.257255 43.177573)",
      "poi_name": "Gardenview Diner",
      "osm_id": 8787471812,
      "amenity": "restaurant",
      "addr_state": "NY",
      "addr_city": "Liverpool",
      "addr_postcode": "13090",
      "addr_street": "Oswego Road",
      "addr_housenumber": "8395"
    },
    {
      "id": 88563,
      "geometry": "POINT (-76.21731 43.186574)",
      "poi_name": "Euclid Restaurant",
      "osm_id": 8787474359,
      "amenity": "restaurant",
      "addr_state": "NY",
      "addr_city": "Clay",
      "addr_postcode": "13041",
      "addr_street": "Route 31",
      "addr_housenumber": "4285"
    },
    {
      "id": 88564,
      "geometry": "POINT (-76.140366 43.238115)",
      "poi_name": "Top This Pizza",
      "osm_id": 8787477730,
      "amenity": "restaurant",
      "cuisine": "pizza",
      "addr_state": "NY",
      "addr_city": "Brewerton",
      "addr_postcode": "13029",
      "addr_street": "Brewerton Road",
      "addr_housenumber": "9664"
    },
    {
      "id": 88566,
      "geometry": "POINT (-76.024625 43.028591)",
      "poi_name": "Arad Evans Inn",
      "osm_id": 8787499859,
      "amenity": "restaurant",
      "website": "https://www.aradevansinn.com",
      "addr_state": "NY",
      "addr_city": "Fayetteville",
      "addr_postcode": "13066",
      "addr_street": "East Genesee Street",
      "addr_housenumber": "7206"
    },
    {
      "id": 88567,
      "geometry": "POINT (-76.137683 43.232265)",
      "poi_name": "Bear Creek Restaurant",
      "osm_id": 8787510812,
      "amenity": "restaurant",
      "addr_state": "NY",
      "addr_city": "Brewerton",
      "addr_postcode": "13029",
      "addr_street": "Bartel Road",
      "addr_housenumber": "5480"
    },
    {
      "id": 88569,
      "geometry": "POINT (-76.332552 43.159038)",
      "poi_name": "Pizza Man",
      "osm_id": 8787515577,
      "amenity": "restaurant",
      "cuisine": "pizza",
      "addr_state": "NY",
      "addr_city": "Baldwinsville",
      "addr_postcode": "13027",
      "addr_street": "Oswego Street",
      "addr_housenumber": "50"
    },
    {
      "id": 88571,
      "geometry": "POINT (-76.135469 43.041726)",
      "poi_name": "Royal Indian Grill",
      "osm_id": 8787516888,
      "amenity": "restaurant",
      "cuisine": "indian",
      "addr_state": "NY",
      "addr_city": "Syracuse",
      "addr_postcode": "13210",
      "addr_street": "Marshall Street",
      "addr_housenumber": "147"
    },
    {
      "id": 88572,
      "geometry": "POINT (-76.332878 43.158884)",
      "poi_name": "Angry Garlic",
      "osm_id": 8787518015,
      "amenity": "restaurant",
      "addr_state": "NY",
      "addr_city": "Baldwinsville",
      "addr_postcode": "13027",
      "addr_street": "Oswego Street",
      "addr_housenumber": "29"
    },
    {
      "id": 88573,
      "geometry": "POINT (-76.135578 43.04173)",
      "poi_name": "Taste of Asia Thai & Vietnamese Cuisine",
      "osm_id": 8787518527,
      "amenity": "restaurant",
      "cuisine": "asian",
      "addr_state": "NY",
      "addr_city": "Syracuse",
      "addr_postcode": "13210",
      "addr_street": "Marshall Street",
      "addr_housenumber": "143"
    },
    {
      "id": 88575,
      "geometry": "POINT (-76.135742 43.04173)",
      "poi_name": "Panda West",
      "osm_id": 8787519054,
      "amenity": "restaurant",
      "cuisine": "asian",
      "addr_state": "NY",
      "addr_city": "Syracuse",
      "addr_postcode": "13210",
      "addr_street": "Marshall Street",
      "addr_housenumber": "135"
    },
    {
      "id": 88576,
      "geometry": "POINT (-76.136171 43.041734)",
      "poi_name": "Moghual Indian Grill",
      "osm_id": 8787519291,
      "amenity": "restaurant",
      "cuisine": "indian",
      "addr_state": "NY",
      "addr_city": "Syracuse",
      "addr_postcode": "13210",
      "addr_street": "Marshall Street",
      "addr_housenumber": "121"
    },
    {
      "id": 88579,
      "geometry": "POINT (-76.155696 43.047867)",
      "poi_name": "Margarita's Mexican Cantina",
      "osm_id": 8787520498,
      "amenity": "restaurant",
      "cuisine": "mexican",
      "opening_hours": "Mo-We 11:00-22:00; Th 11:00-23:00; Fr-Sa 11:00-24:00; Su 11:00-21:00",
      "website": "https://margaritasmexicancantina.com/",
      "phone": "+13152995790",
      "addr_state": "NY",
      "addr_city": "Syracuse",
      "addr_postcode": "13202",
      "addr_street": "Walton Street",
      "addr_housenumber": "203"
    },
    {
      "id": 88581,
      "geometry": "POINT (-76.135009 43.041727)",
      "poi_name": "Acropolis Pizza House",
      "osm_id": 8787521812,
      "amenity": "restaurant",
      "cuisine": "pizza",
      "addr_state": "NY",
      "addr_city": "Syracuse",
      "addr_postcode": "13210",
      "addr_street": "Marshall Street",
      "addr_housenumber": "167"
    },
    {
      "id": 88582,
      "geometry": "POINT (-76.127621 43.14388)",
      "poi_name": "Vietnamese Noodle House",
      "osm_id": 8787521973,
      "amenity": "restaurant",
      "website": "https://vietnoodlehouse.com/",
      "phone": "+1-315-396-0766",
      "addr_state": "NY",
      "addr_city": "Syracuse",
      "addr_postcode": "13212",
      "addr_street": "North Main Street",
      "addr_housenumber": "709"
    },
    {
      "id": 88583,
      "geometry": "POINT (-76.272192 43.055473)",
      "poi_name": "Indian Grill",
      "osm_id": 8787522134,
      "amenity": "restaurant",
      "cuisine": "indian",
      "website": "http://indiangrillcamillus.com",
      "phone": "+1-315-991-4344",
      "addr_state": "NY",
      "addr_city": "Camillus",
      "addr_postcode": "13031",
      "addr_street": "Township Boulevard",
      "addr_housenumber": "200"
    },
    {
      "id": 88587,
      "geometry": "POINT (-76.135173 43.041726)",
      "poi_name": "Bleu Monkey Cafe",
      "osm_id": 8787523901,
      "amenity": "restaurant",
      "cuisine": "japanese",
      "addr_state": "NY",
      "addr_city": "Syracuse",
      "addr_postcode": "13210",
      "addr_street": "Marshall Street",
      "addr_housenumber": "163"
    },
    {
      "id": 88588,
      "geometry": "POINT (-76.135414 43.041727)",
      "poi_name": "Mediterranean Combo",
      "osm_id": 8787523977,
      "amenity": "restaurant",
      "addr_state": "NY",
      "addr_city": "Syracuse",
      "addr_postcode": "13210",
      "addr_street": "Marshall Street",
      "addr_housenumber": "149"
    },
    {
      "id": 88590,
      "geometry": "POINT (-76.140704 43.236494)",
      "poi_name": "Cafe Bella Luna",
      "osm_id": 8787537371,
      "amenity": "restaurant",
      "cuisine": "italian",
      "addr_state": "NY",
      "addr_city": "Brewerton",
      "addr_postcode": "13029",
      "addr_street": "Brewerton Road",
      "addr_housenumber": "9633"
    },
    {
      "id": 88591,
      "geometry": "POINT (-76.163402 43.057358)",
      "poi_name": "The Preserve At 405",
      "osm_id": 8787537913,
      "amenity": "restaurant",
      "addr_state": "NY",
      "addr_city": "Syracuse",
      "addr_postcode": "13204",
      "addr_street": "Spencer Street",
      "addr_housenumber": "405"
    },
    {
      "id": 88592,
      "geometry": "POINT (-76.241477 43.167655)",
      "poi_name": "Bull and Bear Roadhouse",
      "osm_id": 8787537939,
      "amenity": "restaurant",
      "addr_state": "NY",
      "addr_city": "Liverpool",
      "addr_postcode": "13090",
      "addr_street": "Oswego Road",
      "addr_housenumber": "8201"
    },
    {
      "id": 88596,
      "geometry": "POINT (-76.236878 43.086641)",
      "poi_name": "Suzie's Cafe",
      "osm_id": 8787558928,
      "amenity": "restaurant",
      "addr_state": "NY",
      "addr_city": "Syracuse",
      "addr_postcode": "13209",
      "addr_street": "State Fair Boulevard",
      "addr_housenumber": "764"
    },
    {
      "id": 88597,
      "geometry": "POINT (-76.137914 43.233353)",
      "poi_name": "Lin Li Chinese Restaurant",
      "osm_id": 8787560505,
      "amenity": "restaurant",
      "cuisine": "chinese",
      "addr_state": "NY",
      "addr_city": "Brewerton",
      "addr_postcode": "13029",
      "addr_street": "Bartel Road",
      "addr_housenumber": "5501"
    },
    {
      "id": 88598,
      "geometry": "POINT (-76.140412 43.238922)",
      "poi_name": "Dailey's Pour House",
      "osm_id": 8787572698,
      "amenity": "restaurant",
      "addr_state": "NY",
      "addr_city": "Brewerton",
      "addr_postcode": "13029",
      "addr_street": "Brewerton Road",
      "addr_housenumber": "9686"
    },
    {
      "id": 88599,
      "geometry": "POINT (-76.243071 43.169297)",
      "poi_name": "Hope Cafe",
      "osm_id": 8787589093,
      "amenity": "restaurant",
      "cuisine": "peruvian",
      "addr_state": "NY",
      "addr_city": "Liverpool",
      "addr_postcode": "13090",
      "addr_street": "Oswego Road",
      "addr_housenumber": "8223"
    },
    {
      "id": 94095,
      "geometry": "POINT (-76.095616 43.069537)",
      "poi_name": "Goodie's Mediterranean Grill & Cuisine",
      "osm_id": 2206001090,
      "amenity": "restaurant",
      "cuisine": "mediterranean",
      "opening_hours": "Mo-Th 11:00-14:15, 16:30-20:45; Fr 11:00-14:15, 16:30-21:45; Sa 12:00-21:45; Su off",
      "website": "https://goodiesmediterraneansyracuse.com/",
      "phone": "+1-315-433-1003",
      "addr_state": "NY",
      "addr_city": "Syracuse",
      "addr_postcode": "13206",
      "addr_street": "James Street",
      "addr_housenumber": "3605"
    },
    {
      "id": 91721,
      "geometry": "POINT (-76.274756 43.039485)",
      "poi_name": "Cam's Pizzeria",
      "osm_id": 2085324545,
      "amenity": "restaurant",
      "cuisine": "pizza",
      "website": "http://camspizzeria.com/locations/camillus.html",
      "addr_state": "NY",
      "addr_city": "Camillus",
      "addr_postcode": "13031",
      "addr_street": "Kasson Road",
      "addr_housenumber": "112"
    },
    {
      "id": 92453,
      "geometry": "POINT (-76.073345 43.055516)",
      "poi_name": "Empire Buffet",
      "osm_id": 2121751093,
      "amenity": "restaurant",
      "cuisine": "chinese",
      "opening_hours": "Mo-Su 11:00-21:30; Fr,Sa 11:00-22:00",
      "website": "https://www.empirebuffetdewitt.com/",
      "phone": "315 251 1888",
      "addr_state": "NY",
      "addr_city": "Dewitt",
      "addr_postcode": "13214",
      "addr_street": "Erie Boulevard East",
      "addr_housenumber": "3179"
    },
    {
      "id": 92030,
      "geometry": "POINT (-76.116613 43.080914)",
      "poi_name": "Hammi's BBQ",
      "osm_id": 2101753551,
      "amenity": "restaurant",
      "website": "http://www.hammisbbq.com/",
      "addr_state": "NY",
      "addr_city": "Salina",
      "addr_postcode": "13206",
      "addr_street": "New Court Avenue",
      "addr_housenumber": "3712"
    },
    {
      "id": 92041,
      "geometry": "POINT (-76.088749 43.07916)",
      "poi_name": "Nick's Pizza",
      "osm_id": 2102111623,
      "amenity": "restaurant",
      "cuisine": "pizza",
      "phone": "315 463 6425"
    },
    {
      "id": 92276,
      "geometry": "POINT (-76.241013 43.051264)",
      "poi_name": "Coppertop Tavern",
      "osm_id": 2109385712,
      "amenity": "restaurant",
      "website": "http://www.coppertoptavern.com/ordereze/default.aspx"
    },
    {
      "id": 107376,
      "geometry": "POINT (-76.078786 43.065324)",
      "poi_name": "Al's Village Diner",
      "osm_id": 3557381489,
      "amenity": "restaurant"
    },
    {
      "id": 94639,
      "geometry": "POINT (-76.141959 43.124961)",
      "poi_name": "China Wok",
      "osm_id": 6371542031,
      "amenity": "restaurant",
      "cuisine": "chinese",
      "website": "https://www.chinawok628.com/"
    },
    {
      "id": 95549,
      "geometry": "POINT (-76.143438 43.11855)",
      "poi_name": "Julie's Diner",
      "osm_id": 6401649924,
      "amenity": "restaurant"
    },
    {
      "id": 97705,
      "geometry": "POINT (-76.132888 43.048602)",
      "poi_name": "Chorung Korean Restaurant",
      "osm_id": 6489675494,
      "amenity": "restaurant"
    },
    {
      "id": 97715,
      "geometry": "POINT (-76.156242 43.048089)",
      "poi_name": "Pita Dream",
      "osm_id": 6490674666,
      "amenity": "restaurant",
      "cuisine": "mediterranean",
      "opening_hours": "Mo-Th 11:00-20:00; Fr-Sa 11:00-21:00; Su 12:00-18:00",
      "website": "https://www.pitadream.com/",
      "phone": "+1-315-802-7797",
      "addr_state": "NY",
      "addr_city": "Syracuse",
      "addr_postcode": "13202",
      "addr_street": "Walton Street",
      "addr_housenumber": "214"
    },
    {
      "id": 94571,
      "geometry": "POINT (-76.141217 43.124967)",
      "poi_name": "Utica Pizza Co",
      "osm_id": 6368861768,
      "amenity": "restaurant",
      "cuisine": "pizza",
      "website": "http://uticapizzacompany.com/",
      "phone": "(315) 214-3060"
    },
    {
      "id": 95975,
      "geometry": "POINT (-76.150167 43.050605)",
      "poi_name": "Water Street Bagel",
      "osm_id": 6417168486,
      "amenity": "restaurant",
      "opening_hours": "Tu-Fr 07:00-14:00; Su 08:00-14:00; Sa 08:00-14:00",
      "website": "https://www.waterstreetbagelco.com/",
      "phone": "315-802-6925",
      "addr_city": "Syracuse",
      "addr_postcode": "13202",
      "addr_street": "East Water Street",
      "addr_housenumber": "239"
    },
    {
      "id": 112769,
      "geometry": "POINT (-76.085739 43.055083)",
      "poi_name": "AT Sushi",
      "osm_id": 3804217344,
      "amenity": "restaurant",
      "cuisine": "sushi",
      "addr_state": "NY",
      "addr_city": "Syracuse",
      "addr_postcode": "13224",
      "addr_street": "Erie Boulevard East",
      "addr_housenumber": "3010"
    },
    {
      "id": 108760,
      "geometry": "POINT (-76.142237 43.052156)",
      "poi_name": "Red Olive",
      "osm_id": 3634364827,
      "amenity": "restaurant"
    },
    {
      "id": 110054,
      "geometry": "POINT (-76.119381 43.040399)",
      "poi_name": "Las Delicias",
      "osm_id": 3684869437,
      "amenity": "restaurant",
      "cuisine": "hispanic",
      "building": "yes",
      "opening_hours": "Mo-Sa 11:00-21:30",
      "website": "http://las-delicias.com",
      "takeaway": "yes",
      "delivery": "yes",
      "addr_state": "NY",
      "addr_city": "Syracuse",
      "addr_postcode": "13210",
      "addr_street": "Westcott Street",
      "addr_housenumber": "552"
    },
    {
      "id": 112083,
      "geometry": "POINT (-76.150942 43.049295)",
      "poi_name": "Otro Cinco",
      "osm_id": 3780311407,
      "amenity": "restaurant",
      "cuisine": "spanish",
      "opening_hours": "Mo-Fr 10:00-22:00; Sa 16:00-22:00; Su 11:00-22:00",
      "addr_state": "NY",
      "addr_city": "Syracuse",
      "addr_postcode": "13202",
      "addr_street": "South Warren Street",
      "addr_housenumber": "206"
    },
    {
      "id": 112517,
      "geometry": "POINT (-76.153421 43.048019)",
      "poi_name": "Modern Malt",
      "osm_id": 3794361242,
      "amenity": "restaurant",
      "cuisine": "diner",
      "opening_hours": "Mo-We 07:00-22:00; Th-Fr 07:00-04:00; Sa 00:00-04:00,08:00-04:00; Su 00:00-04:00,08:00-16:00",
      "addr_state": "NY",
      "addr_city": "Syracuse",
      "addr_postcode": "13202",
      "addr_street": "South Clinton Street",
      "addr_housenumber": "325"
    },
    {
      "id": 111561,
      "geometry": "POINT (-76.156884 43.058586)",
      "poi_name": "The Spaghetti Warehouse",
      "osm_id": 3754917308,
      "amenity": "restaurant",
      "opening_hours": "Mo-Su 11:00-22:00; Fr,Sa 11:00-23:00",
      "addr_state": "NY",
      "addr_city": "Syracuse",
      "addr_postcode": "13204",
      "addr_street": "North Clinton Street",
      "addr_housenumber": "689"
    },
    {
      "id": 112770,
      "geometry": "POINT (-76.085953 43.055077)",
      "poi_name": "Shawarma Paradise",
      "osm_id": 3804217352,
      "amenity": "restaurant",
      "cuisine": "middle_eastern",
      "website": "https://www.shawarmaparadiseny.com",
      "phone": "+1-315-565-5333",
      "takeaway": "yes",
      "addr_state": "NY",
      "addr_city": "Syracuse",
      "addr_postcode": "13224",
      "addr_street": "Erie Boulevard East",
      "addr_housenumber": "3006"
    },
    {
      "id": 118166,
      "geometry": "POINT (-76.170993 43.051787)",
      "poi_name": "Strada Mia",
      "osm_id": 9029654109,
      "amenity": "restaurant",
      "cuisine": "italian",
      "website": "http://stradamia313.com/"
    },
    {
      "id": 115042,
      "geometry": "POINT (-76.270417 43.056559)",
      "poi_name": "Mitsuba",
      "osm_id": 3907533366,
      "amenity": "restaurant",
      "cuisine": "japanese",
      "addr_state": "NY",
      "addr_city": "Camillus",
      "addr_postcode": "13031",
      "addr_street": "Township Boulevard"
    },
    {
      "id": 112962,
      "geometry": "POINT (-76.09693 43.055139)",
      "poi_name": "Secret Garden",
      "osm_id": 3812746456,
      "amenity": "restaurant",
      "cuisine": "korean;japanese",
      "opening_hours": "Su-Th 11:30-22:00; Fr-Sa 11:30-23:00",
      "website": "https://www.biwonsyracuse.com/secret-garden.html",
      "phone": "+1-315-449-3333",
      "addr_state": "NY",
      "addr_city": "Syracuse",
      "addr_postcode": "13224",
      "addr_street": "Erie Boulevard East",
      "addr_housenumber": "2731"
    },
    {
      "id": 112983,
      "geometry": "POINT (-76.096246 43.054173)",
      "poi_name": "Red Chili Restaurant",
      "osm_id": 3813249357,
      "amenity": "restaurant",
      "cuisine": "chinese",
      "opening_hours": "Mo-Th 11:00-22:00; Fr,Sa 11:00-22:30; Su 11:30-22:00",
      "takeaway": "yes",
      "delivery": "yes",
      "addr_state": "NY",
      "addr_city": "Syracuse",
      "addr_postcode": "13224",
      "addr_street": "Erie Boulevard East",
      "addr_housenumber": "2740"
    },
    {
      "id": 118936,
      "geometry": "POINT (-76.153406 43.048354)",
      "poi_name": "Funk 'n Waffles",
      "osm_id": 9072143681,
      "amenity": "restaurant"
    },
    {
      "id": 118937,
      "geometry": "POINT (-76.141036 43.048674)",
      "poi_name": "XO Taco",
      "osm_id": 9072143689,
      "amenity": "restaurant",
      "cuisine": "mexican",
      "opening_hours": "Mo off;Tu-Th 11:30-14:30, 16:00-22:00;Fr 11:30-14:30, 16:00-23:00;Sa 11:00-15:00, 16:00-23:00, Su off",
      "website": "https://www.xotaco.com/",
      "phone": "+1--315-303-1699"
    },
    {
      "id": 126960,
      "geometry": "POINT (-76.129694 43.039738)",
      "poi_name": "Ernie Davis Dining Hall",
      "osm_id": 8014856821,
      "amenity": "restaurant"
    },
    {
      "id": 124556,
      "geometry": "POINT (-76.012504 43.030016)",
      "poi_name": "Avicolli's Coal Fire",
      "osm_id": 6920059199,
      "amenity": "restaurant",
      "cuisine": "italian",
      "opening_hours": "Tu-Th 11:00-22:00; Fr-Sa 11:00-23:00; Su 12:00-22:00",
      "website": "https://www.avicolliscoalfire.com/",
      "phone": "+1-315-637-5800",
      "outdoor_seating": "yes",
      "addr_state": "NY",
      "addr_city": "Fayetteville",
      "addr_postcode": "13066",
      "addr_street": "Limestone Plaza",
      "addr_housenumber": "104"
    },
    {
      "id": 124558,
      "geometry": "POINT (-76.018151 43.02876)",
      "poi_name": "The Craftsman Wood Grille & Tap House",
      "osm_id": 6920059207,
      "amenity": "restaurant",
      "opening_hours": "Mo-Th 11:00-24:00; Fr,Sa 11:00-01:00; Su 10:00-24:00",
      "website": "https://www.craftsmanwoodgrilletaphouse.com/",
      "phone": "+1-315-637-9999",
      "outdoor_seating": "yes",
      "addr_state": "NY",
      "addr_city": "Fayetteville",
      "addr_postcode": "13066",
      "addr_street": "East Genesee Street",
      "addr_housenumber": "7300"
    },
    {
      "id": 126455,
      "geometry": "POINT (-76.144997 43.097281)",
      "poi_name": "Thai Love NY",
      "osm_id": 7004005585,
      "amenity": "restaurant",
      "opening_hours": "Mo-Fr 11:00-21:00; Sa 12:00-21:00; Su 12:00-20:00",
      "website": "https://thailoveny.com/",
      "phone": "+13159285659",
      "addr_city": "Syracuse",
      "addr_postcode": "13211",
      "addr_street": "LeMoyne Avenue",
      "addr_housenumber": "2822"
    },
    {
      "id": 125938,
      "geometry": "POINT (-76.119976 43.041566)",
      "poi_name": "Saint Urban",
      "osm_id": 6981429557,
      "amenity": "restaurant",
      "cuisine": "new_american"
    },
    {
      "id": 137891,
      "geometry": "POINT (-76.245249 43.185909)",
      "poi_name": "Friendly's",
      "osm_id": 6119882964,
      "amenity": "restaurant",
      "cuisine": "american",
      "addr_state": "NY",
      "addr_city": "Liverpool",
      "addr_postcode": "13090",
      "addr_street": "State Route 31",
      "addr_housenumber": "3873"
    },
    {
      "id": 145810,
      "geometry": "POINT (-76.151534 43.050248)",
      "poi_name": "Eden",
      "osm_id": 7390544363,
      "amenity": "restaurant",
      "cuisine": "american",
      "website": "https://www.edencny.com/",
      "addr_state": "NY",
      "addr_city": "Syracuse",
      "addr_postcode": "13202",
      "addr_street": "East Genesee Street",
      "addr_housenumber": "118"
    },
    {
      "id": 140264,
      "geometry": "POINT (-76.06515 43.044848)",
      "poi_name": "Blaze Pizza",
      "osm_id": 6238015013,
      "amenity": "restaurant",
      "cuisine": "pizza",
      "addr_state": "NY",
      "addr_city": "Syracuse",
      "addr_postcode": "13214",
      "addr_street": "Widewaters Parkway",
      "addr_housenumber": "5743"
    },
    {
      "id": 141430,
      "geometry": "POINT (-76.227931 43.185207)",
      "poi_name": "Gino & Joe's Pizza",
      "osm_id": 6284481908,
      "amenity": "restaurant",
      "cuisine": "pizza",
      "addr_state": "NY",
      "addr_city": "Clay",
      "addr_postcode": "13041",
      "addr_street": "State Route 31",
      "addr_housenumber": "4160"
    },
    {
      "id": 141785,
      "geometry": "POINT (-76.074112 43.051661)",
      "poi_name": "Mitsuba",
      "osm_id": 6297479165,
      "amenity": "restaurant",
      "cuisine": "ramen;noodle",
      "opening_hours": "Mo-Th 11:00-21:00; Fr-Sa 11:00-22:00; Su 12:00-20:30",
      "website": "https://www.mitsuba.net/",
      "phone": "+1-315-373-0038",
      "addr_postcode": "13214",
      "addr_street": "Erie Boulevard East",
      "addr_housenumber": "3206"
    },
    {
      "id": 145811,
      "geometry": "POINT (-76.151398 43.050199)",
      "poi_name": "Maxwells",
      "osm_id": 7390544364,
      "amenity": "restaurant",
      "cuisine": "pub",
      "website": "https://www.maxwellssyracuse.com/",
      "addr_state": "NY",
      "addr_city": "Syracuse",
      "addr_postcode": "13202",
      "addr_street": "East Genesee Street",
      "addr_housenumber": "122"
    },
    {
      "id": 149965,
      "geometry": "POINT (-76.228249 43.082054)",
      "poi_name": "Daniella's Steak House",
      "osm_id": 4035977602,
      "amenity": "restaurant",
      "cuisine": "steak_house"
    },
    {
      "id": 148258,
      "geometry": "POINT (-75.975149 43.155685)",
      "poi_name": "Bridgeport Diner",
      "osm_id": 3940218242,
      "amenity": "restaurant",
      "cuisine": "american",
      "delivery": "no"
    },
    {
      "id": 148580,
      "geometry": "POINT (-76.240447 43.046232)",
      "poi_name": "Pizza Hut",
      "osm_id": 3964975379,
      "amenity": "restaurant",
      "cuisine": "pizza"
    },
    {
      "id": 153274,
      "geometry": "POINT (-76.153299 43.002739)",
      "poi_name": "Luigi's",
      "osm_id": 4188800196,
      "amenity": "restaurant",
      "cuisine": "pizza"
    },
    {
      "id": 153004,
      "geometry": "POINT (-76.144917 43.098209)",
      "poi_name": "King Seafood Restaurant",
      "osm_id": 4172327149,
      "amenity": "restaurant",
      "cuisine": "seafood"
    },
    {
      "id": 150923,
      "geometry": "POINT (-75.980654 43.176891)",
      "poi_name": "Fisher Bay Restaurant",
      "osm_id": 4073660883,
      "amenity": "restaurant",
      "opening_hours": "Mo-We 16:00-21:00; Th-Sa 12:00-21:00; Su 12:00-20:00",
      "website": "http://fisherbayrestaurant.com/",
      "phone": "+1 315 633 2244",
      "addr_state": "NY",
      "addr_city": "Bridgeport",
      "addr_postcode": "13030",
      "addr_street": "Barrett Lane",
      "addr_housenumber": "303"
    },
    {
      "id": 152792,
      "geometry": "POINT (-76.003665 43.030664)",
      "poi_name": "Gino's Cheese Steak & Onion",
      "osm_id": 4161591289,
      "amenity": "restaurant",
      "cuisine": "sandwich",
      "addr_state": "NY",
      "addr_city": "Fayetteville",
      "addr_postcode": "13066",
      "addr_street": "East Genesee Street"
    },
    {
      "id": 155536,
      "geometry": "POINT (-76.203283 43.101337)",
      "poi_name": "appeThaizing",
      "osm_id": 4289198321,
      "amenity": "restaurant",
      "cuisine": "thai",
      "takeaway": "yes",
      "addr_street": "1st Street",
      "addr_housenumber": "105"
    },
    {
      "id": 154656,
      "geometry": "POINT (-76.142434 43.019762)",
      "poi_name": "LeTeak's Soul Food",
      "osm_id": 4249845244,
      "amenity": "restaurant"
    },
    {
      "id": 153383,
      "geometry": "POINT (-76.35175 43.151828)",
      "poi_name": "Pizza Hut",
      "osm_id": 4194152485,
      "amenity": "restaurant",
      "cuisine": "pizza"
    },
    {
      "id": 168311,
      "geometry": "POINT (-76.155389 43.04831)",
      "poi_name": "Pastabilities",
      "osm_id": 379522070,
      "amenity": "restaurant",
      "opening_hours": "Mo-Th 11:30-14:30,17:00-22:00; Fr,Sa 11:30-14:30,16:00-22:00; Su 16:00-22:00",
      "addr_state": "NY",
      "addr_city": "Syracuse",
      "addr_postcode": "13202",
      "addr_street": "South Franklin Street",
      "addr_housenumber": "311"
    },
    {
      "id": 165445,
      "geometry": "POINT (-76.136831 43.041438)",
      "poi_name": "Varsity Pizza",
      "osm_id": 9535978865,
      "amenity": "restaurant",
      "cuisine": "pizza"
    },
    {
      "id": 168312,
      "geometry": "POINT (-76.154538 43.047608)",
      "poi_name": "Bistro Elephant",
      "osm_id": 379522094,
      "amenity": "restaurant",
      "cuisine": "steak_house",
      "opening_hours": "Mo-Sa 17:00-23:30",
      "addr_state": "NY",
      "addr_city": "Syracuse",
      "addr_postcode": "13202",
      "addr_street": "West Jefferson Street",
      "addr_housenumber": "238"
    },
    {
      "id": 168767,
      "geometry": "POINT (-76.071198 43.051563)",
      "poi_name": "All Night Egg Plant",
      "osm_id": 2277759930,
      "amenity": "restaurant",
      "opening_hours": "Mo-Th 07:00-22:00; Fr-Sa 07:00-01:00; Su 07:00-16:00",
      "phone": "315 446 8178",
      "addr_state": "NY",
      "addr_city": "East Syracuse",
      "addr_postcode": "13057",
      "addr_street": "Bridge Street",
      "addr_housenumber": "5781"
    },
    {
      "id": 168429,
      "geometry": "POINT (-75.980591 43.000906)",
      "poi_name": "Dave's Diner",
      "osm_id": 2255905155,
      "amenity": "restaurant",
      "cuisine": "american",
      "addr_state": "NY",
      "addr_city": "Manlius",
      "addr_postcode": "13104",
      "addr_street": "West Seneca Street",
      "addr_housenumber": "119"
    },
    {
      "id": 168603,
      "geometry": "POINT (-76.137587 43.046773)",
      "poi_name": "Phoebe's",
      "osm_id": 2271930665,
      "amenity": "restaurant",
      "website": "https://phoebessyracuse.com/",
      "phone": "315 475 5154",
      "addr_state": "NY",
      "addr_city": "Syracuse",
      "addr_postcode": "13210",
      "addr_street": "East Genesee Street",
      "addr_housenumber": "900"
    },
    {
      "id": 168533,
      "geometry": "POINT (-76.11916 43.041406)",
      "poi_name": "Mom's Diner",
      "osm_id": 2266506307,
      "amenity": "restaurant",
      "cuisine": "diner",
      "opening_hours": "Mo-Fr 07:00-15:00; Sa-Su 07:30-15:00",
      "phone": "+1-315-477-0141",
      "addr_state": "NY",
      "addr_city": "Syracuse",
      "addr_postcode": "13210",
      "addr_street": "Westcott Street",
      "addr_housenumber": "501"
    },
    {
      "id": 168769,
      "geometry": "POINT (-76.154999 43.048608)",
      "poi_name": "bc Restaurant",
      "osm_id": 2277759933,
      "amenity": "restaurant",
      "website": "http://www.bcrestaurant.com",
      "phone": "315 701 0636",
      "addr_state": "NY",
      "addr_city": "Syracuse",
      "addr_postcode": "13202",
      "addr_street": "West Fayette Street",
      "addr_housenumber": "247"
    },
    {
      "id": 168770,
      "geometry": "POINT (-76.135082 43.046721)",
      "poi_name": "1060 Restaurant",
      "osm_id": 2277759934,
      "amenity": "restaurant",
      "website": "http://www.1060restaurant.com/",
      "phone": "315 476 9000",
      "addr_state": "NY",
      "addr_city": "Syracuse",
      "addr_postcode": "13210",
      "addr_street": "East Genesee Street",
      "addr_housenumber": "1060"
    },
    {
      "id": 182595,
      "geometry": "POINT (-76.129492 43.135197)",
      "poi_name": "Grotto",
      "osm_id": 10896490563,
      "amenity": "restaurant",
      "cuisine": "american"
    },
    {
      "id": 170375,
      "geometry": "POINT (-76.136294 43.052078)",
      "poi_name": "Oompa Loompyas",
      "osm_id": 2334057852,
      "amenity": "restaurant",
      "cuisine": "filipino",
      "delivery": "yes",
      "addr_state": "NY",
      "addr_city": "Syracuse",
      "addr_postcode": "13203",
      "addr_street": "Burnet Avenue",
      "addr_housenumber": "600"
    },
    {
      "id": 175754,
      "geometry": "POINT (-76.07708 43.003502)",
      "poi_name": "Ruston's Diner",
      "osm_id": 2536677012,
      "amenity": "restaurant",
      "cuisine": "diner",
      "opening_hours": "Tu-Su 05:00-14:00",
      "website": "https://rustonsdiner.com",
      "phone": "+1-315-469-1200",
      "takeaway": "yes",
      "addr_state": "NY",
      "addr_city": "Jamesville",
      "addr_postcode": "13078",
      "addr_street": "Jamesville Toll Road",
      "addr_housenumber": "6407"
    },
    {
      "id": 179486,
      "geometry": "POINT (-76.144311 43.270339)",
      "poi_name": "R Diner",
      "osm_id": 10764945405,
      "amenity": "restaurant"
    },
    {
      "id": 179487,
      "geometry": "POINT (-76.131968 43.239926)",
      "poi_name": "916 Riverside",
      "osm_id": 10764945416,
      "amenity": "restaurant"
    },
    {
      "id": 179488,
      "geometry": "POINT (-76.132876 43.240861)",
      "poi_name": "Jake's Grub & Grog",
      "osm_id": 10764945417,
      "amenity": "restaurant"
    },
    {
      "id": 179489,
      "geometry": "POINT (-76.15019 43.241806)",
      "poi_name": "Wild Horse Bar & Grill",
      "osm_id": 10764945428,
      "amenity": "restaurant"
    },
    {
      "id": 180366,
      "geometry": "POINT (-76.259702 43.177794)",
      "poi_name": "Clay Oven Indian Restaurant",
      "osm_id": 10798271138,
      "amenity": "restaurant",
      "cuisine": "indian"
    },
    {
      "id": 169705,
      "geometry": "POINT (-76.119152 43.041304)",
      "poi_name": "Munjed's Middle-Eastern Cafe",
      "osm_id": 2316215010,
      "amenity": "restaurant",
      "website": "https://www.munjeds.net/",
      "phone": "+1-315-425-0366",
      "addr_state": "NY",
      "addr_city": "Syracuse",
      "addr_postcode": "13210",
      "addr_street": "Westcott Street",
      "addr_housenumber": "505"
    },
    {
      "id": 175396,
      "geometry": "POINT (-76.194029 43.031585)",
      "poi_name": "Limp Lizard",
      "osm_id": 2519264625,
      "amenity": "restaurant",
      "website": "http://www.cnysmartsites.com/limplizard/syracuse.html",
      "phone": "315 472 7831",
      "addr_state": "NY",
      "addr_city": "Syracuse",
      "addr_postcode": "13219",
      "addr_street": "Onondaga Boulevard",
      "addr_housenumber": "4628"
    },
    {
      "id": 179868,
      "geometry": "POINT (-76.107672 43.174934)",
      "poi_name": "Sapori",
      "osm_id": 10780138902,
      "amenity": "restaurant",
      "cuisine": "italian"
    },
    {
      "id": 180108,
      "geometry": "POINT (-76.119454 43.17391)",
      "poi_name": "Kim's Family Diner",
      "osm_id": 10790955280,
      "amenity": "restaurant"
    },
    {
      "id": 180110,
      "geometry": "POINT (-76.116128 43.147084)",
      "poi_name": "Modern Malt",
      "osm_id": 10790984868,
      "amenity": "restaurant"
    },
    {
      "id": 181071,
      "geometry": "POINT (-76.28563 43.216878)",
      "poi_name": "Li's Garden",
      "osm_id": 10830971095,
      "amenity": "restaurant",
      "cuisine": "chinese"
    },
    {
      "id": 181072,
      "geometry": "POINT (-76.285097 43.216256)",
      "poi_name": "Our Family To Yours",
      "osm_id": 10830971097,
      "amenity": "restaurant"
    },
    {
      "id": 181073,
      "geometry": "POINT (-76.284827 43.215844)",
      "poi_name": "Basil Thai Cuisine",
      "osm_id": 10830971098,
      "amenity": "restaurant",
      "cuisine": "thai"
    },
    {
      "id": 228188,
      "geometry": "POINT (-76.071371 43.064124)",
      "poi_name": "Twin Trees",
      "osm_id": 4333161183,
      "amenity": "restaurant",
      "cuisine": "pizza",
      "opening_hours": "Mo-Th 11:00-22:00; Fr-Sa 11:00-23:00; Su 16:00-22:00",
      "takeaway": "yes",
      "delivery": "yes",
      "addr_state": "NY",
      "addr_city": "East Syracuse",
      "addr_postcode": "13057",
      "addr_street": "West Manlius Street",
      "addr_housenumber": "102"
    },
    {
      "id": 202306,
      "geometry": "POINT (-76.108043 43.068722)",
      "poi_name": "Sinbad",
      "osm_id": 7020594885,
      "amenity": "restaurant",
      "opening_hours": "Mo-Th 11:00-14:30,16:30-21:00; Fr 15:00-21:00; Sa 11:00-21:00",
      "website": "https://sinbadsweets.net",
      "phone": "+13155655655",
      "addr_city": "Syracuse",
      "addr_postcode": "13206",
      "addr_street": "James St.",
      "addr_housenumber": "2727"
    },
    {
      "id": 207903,
      "geometry": "POINT (-76.142594 43.076637)",
      "poi_name": "Dang's Cafe",
      "osm_id": 4966673429,
      "amenity": "restaurant",
      "cuisine": "vietnamese",
      "addr_state": "NY",
      "addr_city": "Syracuse",
      "addr_postcode": "13208",
      "addr_street": "Butternut Street",
      "addr_housenumber": "1828"
    },
    {
      "id": 211304,
      "geometry": "POINT (-76.153827 43.071142)",
      "poi_name": "The Taste of Africa",
      "osm_id": 5152628189,
      "amenity": "restaurant",
      "takeaway": "yes"
    },
    {
      "id": 222819,
      "geometry": "POINT (-76.142537 43.110999)",
      "poi_name": "Flaming Grill Buffet",
      "osm_id": 11036314980,
      "amenity": "restaurant"
    },
    {
      "id": 222822,
      "geometry": "POINT (-76.146352 43.095062)",
      "poi_name": "Dee's Diner",
      "osm_id": 11036336809,
      "amenity": "restaurant"
    },
    {
      "id": 226761,
      "geometry": "POINT (-76.172748 43.067536)",
      "poi_name": "Margaritaville",
      "osm_id": 11167359815,
      "amenity": "restaurant",
      "website": "https://www.margaritavillesyracuse.com",
      "addr_state": "NY",
      "addr_city": "Syracuse",
      "addr_postcode": "13204",
      "addr_street": "Destiny USA Drive",
      "addr_housenumber": "1"
    },
    {
      "id": 228066,
      "geometry": "POINT (-76.304409 43.039365)",
      "poi_name": "The Green Gate",
      "osm_id": 4328909912,
      "amenity": "restaurant"
    },
    {
      "id": 228622,
      "geometry": "POINT (-76.19387 43.057992)",
      "poi_name": "Twin Trees Too!",
      "osm_id": 4349386103,
      "amenity": "restaurant",
      "addr_state": "NY",
      "addr_city": "Syracuse",
      "addr_postcode": "13204",
      "addr_street": "Milton Avenue",
      "addr_housenumber": "1029"
    },
    {
      "id": 230231,
      "geometry": "POINT (-76.131103 43.052177)",
      "poi_name": "Angottis Family Restaurant",
      "osm_id": 4418513464,
      "amenity": "restaurant",
      "cuisine": "italian",
      "addr_state": "NY",
      "addr_city": "Syracuse",
      "addr_postcode": "13203",
      "addr_street": "Burnet Avenue",
      "addr_housenumber": "725"
    },
    {
      "id": 228689,
      "geometry": "POINT (-76.18586 43.052648)",
      "poi_name": "Brooklyn Pickle",
      "osm_id": 4351940491,
      "amenity": "restaurant",
      "addr_state": "NY",
      "addr_city": "Syracuse",
      "addr_postcode": "13204",
      "addr_street": "West Genesee Street",
      "addr_housenumber": "1600"
    },
    {
      "id": 228793,
      "geometry": "POINT (-76.143393 43.004743)",
      "poi_name": "Ruby's Soul Food",
      "osm_id": 4355042298,
      "amenity": "restaurant",
      "cuisine": "soul_food",
      "addr_state": "NY",
      "addr_city": "Syracuse",
      "addr_postcode": "13205",
      "addr_street": "South Salina Street",
      "addr_housenumber": "4418"
    },
    {
      "id": 236401,
      "geometry": "POINT (-76.156283 43.047888)",
      "poi_name": "Sakana-Ya Sushi Bar",
      "osm_id": 5792738370,
      "amenity": "restaurant",
      "cuisine": "sushi",
      "opening_hours": "Mo-Sa 11:30-22:00",
      "website": "https://syracusesushi.com/",
      "phone": "+13154750117",
      "addr_state": "NY",
      "addr_city": "Syracuse",
      "addr_postcode": "13202",
      "addr_street": "Walton Street",
      "addr_housenumber": "215"
    },
    {
      "id": 230569,
      "geometry": "POINT (-76.270604 43.115845)",
      "poi_name": "Marcella's",
      "osm_id": 4432056225,
      "amenity": "restaurant",
      "cuisine": "italian",
      "internet_access": "wlan"
    },
    {
      "id": 233370,
      "geometry": "POINT (-76.150044 43.061673)",
      "poi_name": "Mi Casita Restaurant",
      "osm_id": 4570827900,
      "amenity": "restaurant",
      "addr_state": "NY",
      "addr_city": "Syracuse",
      "addr_postcode": "13208",
      "addr_street": "Lodi Street",
      "addr_housenumber": "1614"
    },
    {
      "id": 237455,
      "geometry": "POINT (-76.220574 43.127996)",
      "poi_name": "China 88",
      "osm_id": 5832556419,
      "amenity": "restaurant",
      "cuisine": "chinese;asian",
      "website": "https://china88liverpool.com/default.aspx",
      "phone": "+1-315-451-8866",
      "addr_state": "NY",
      "addr_city": "Liverpool",
      "addr_postcode": "13090",
      "addr_street": "Oswego Road",
      "addr_housenumber": "7421"
    },
    {
      "id": 237456,
      "geometry": "POINT (-76.220645 43.128171)",
      "poi_name": "Bangkok Thai Restaurant",
      "osm_id": 5832556422,
      "amenity": "restaurant",
      "cuisine": "asian;thai",
      "website": "https://www.facebook.com/bangkokliverpool",
      "phone": "+1-315-451-4621",
      "addr_state": "NY",
      "addr_city": "Liverpool",
      "addr_postcode": "13090",
      "addr_street": "Oswego Road",
      "addr_housenumber": "7421"
    },
    {
      "id": 237457,
      "geometry": "POINT (-76.22062 43.128111)",
      "poi_name": "Canale's Italian Take Out",
      "osm_id": 5832556423,
      "amenity": "restaurant",
      "cuisine": "italian",
      "phone": "+1-315-701-4323",
      "addr_state": "NY",
      "addr_city": "Liverpool",
      "addr_postcode": "13090",
      "addr_street": "Oswego Road",
      "addr_housenumber": "7421"
    },
    {
      "id": 240073,
      "geometry": "POINT (-76.11848 43.081253)",
      "poi_name": "Fusion Diner & Cakery",
      "osm_id": 5954552885,
      "amenity": "restaurant",
      "cuisine": "coffee_shop;diner;french;spanish;international;italian_pizza;mexican;regional;crepe;curry;breakfast;deli;friture;burger;ice_cream;pasta;hotdog;pizza;chicken;sausage;sandwich;noodle;cake;pancake;savory_pancakes;tea;tapas;local;bagel",
      "opening_hours": "Tu-Fr 06:00-14:00, 16:00-21:00; Sa 07:00-14:00, 16:00-21:00; Su 07:00-14:00",
      "website": "https://fusiondinerandcakery.wixsite.com/fusiondinercakery",
      "phone": "3152185547",
      "addr_state": "NY",
      "addr_city": "Syracuse",
      "addr_postcode": "13206",
      "addr_street": "Court Street",
      "addr_housenumber": "3600"
    },
    {
      "id": 238187,
      "geometry": "POINT (-76.150627 43.050715)",
      "poi_name": "The Sweet Praxis",
      "osm_id": 5866058891,
      "amenity": "restaurant",
      "cuisine": "american",
      "wheelchair": "yes",
      "opening_hours": "Tu-Fr 07:00-17:30; Sa 08:00-15:00",
      "website": "https://www.thesweetpraxis.com/",
      "internet_access": "wlan",
      "phone": "+1 315 216 7797",
      "toilets": "yes",
      "addr_state": "NY",
      "addr_city": "Syracuse",
      "addr_postcode": "13202",
      "addr_street": "East Water Street",
      "addr_housenumber": "203"
    },
    {
      "id": 238188,
      "geometry": "POINT (-76.151178 43.050666)",
      "poi_name": "Prontofresh",
      "osm_id": 5866077809,
      "amenity": "restaurant",
      "cuisine": "italian",
      "addr_state": "NY",
      "addr_city": "Syracuse",
      "addr_postcode": "13202",
      "addr_street": "East Water Street",
      "addr_housenumber": "133"
    },
    {
      "id": 238189,
      "geometry": "POINT (-76.15102 43.050692)",
      "poi_name": "Nikos",
      "osm_id": 5866077811,
      "amenity": "restaurant",
      "cuisine": "italian",
      "addr_state": "NY",
      "addr_city": "Syracuse",
      "addr_postcode": "13202",
      "addr_street": "East Water Street",
      "addr_housenumber": "135"
    },
    {
      "id": 239533,
      "geometry": "POINT (-76.131588 43.083678)",
      "poi_name": "Gee Gee's",
      "osm_id": 5924988660,
      "amenity": "restaurant"
    },
    {
      "id": 241088,
      "geometry": "POINT (-76.012361 43.030353)",
      "poi_name": "Kyoko's",
      "osm_id": 6005794238,
      "amenity": "restaurant",
      "cuisine": "japanese",
      "capacity": "24",
      "takeaway": "yes",
      "outdoor_seating": "no"
    }
  ],
  "answer_type": "name",
  "question_entities": {
    "[1]": {
      "main_category": "amenity",
      "sub_category": "restaurant"
    },
    "[2]": {
      "distance": 20000,
      "text": "20 kilometers"
    },
    "[3]": {
      "main_category": "tourism",
      "sub_category": "hotel",
      "display_name": "Hampton Inn & Suites, Syracuse, NY",
      "geo_wkt": "POINT (-76.171959 43.095141)",
      "poi": {
        "id": 23017,
        "geometry": "POINT (-76.171959 43.095141)",
        "poi_name": "Hampton Inn & Suites",
        "osm_id": 5002280087,
        "tourism": "hotel",
        "addr_state": "NY",
        "addr_city": "Syracuse",
        "addr_postcode": "13212",
        "addr_street": "Buckley Road",
        "addr_housenumber": "1305"
      }
    }
  },
  "id": 838,
  "type": "range+name"
}