{
  "question": "Within a radius of 30 kilometers, where can I find  a restaurant on the path leading to Alley Cat, Baltimore, MD from River Deck, Edgewater, MD?",
  "sql": "WITH\n    angle AS (SELECT degrees(ST_Azimuth(ST_GeomFromText('POINT (-76.540922 38.941815)',4326)::geography, ST_GeomFromText('POINT (-76.630413 39.3315)',4326)::geography)) AS value)\nSELECT * FROM pois,angle\nWHERE amenity = 'restaurant'\nAND ST_DWithin(pois.geometry, ST_GeomFromText('POINT (-76.540922 38.941815)',4326)::geography, 30000)\nAND (degrees(ST_Azimuth(ST_GeomFromText('POINT (-76.540922 38.941815)',4326)::geography, pois.geometry)) BETWEEN angle.value - 22.5 AND angle.value + 22.5);\n",
  "answers": [
    {
      "id": 32919,
      "geometry": "POINT (-76.544811 39.074131)",
      "poi_name": "Severna Park Tavern",
      "osm_id": 2641659684,
      "amenity": "restaurant",
      "cuisine": "american",
      "opening_hours": "Mo-Th 11:00-21:30; Fr,Sa 11:00-23:00; Su 11:00-21:00",
      "website": "http://www.woodfirebackroom.com/",
      "addr_city": "Severna Park",
      "addr_postcode": "21146",
      "addr_street": "Governor Ritchie Highway",
      "addr_housenumber": "580 P",
      "value": 349.8881790168291
    },
    {
      "id": 57703,
      "geometry": "POINT (-76.564543 39.100483)",
      "poi_name": "Ginza",
      "osm_id": 5347337195,
      "amenity": "restaurant",
      "cuisine": "japanese",
      "addr_state": "MD",
      "addr_city": "Severna Park",
      "addr_postcode": "21146",
      "addr_street": "Governor Ritchie Highway",
      "addr_housenumber": "147F",
      "value": 349.8881790168291
    },
    {
      "id": 56532,
      "geometry": "POINT (-76.54104 38.976245)",
      "poi_name": "Basmati Indian Restaurant",
      "osm_id": 10240207340,
      "amenity": "restaurant",
      "cuisine": "indian",
      "opening_hours": "Mo-Su 11:30-14:30,16:00-21:00",
      "website": "http://www.basmatiindiancuisinemd.com/",
      "phone": "+14102666533",
      "addr_state": "MD",
      "addr_city": "Annapolis",
      "addr_postcode": "21401",
      "addr_street": "Solomons Island Road",
      "addr_housenumber": "2444",
      "value": 349.8881790168291
    },
    {
      "id": 39143,
      "geometry": "POINT (-76.542127 38.981135)",
      "poi_name": "Tuscan Prime Italian Chophouse & Dolce Bar",
      "osm_id": 2906017858,
      "amenity": "restaurant",
      "cuisine": "italian",
      "addr_state": "MD",
      "addr_city": "Annapolis",
      "addr_postcode": "21401",
      "addr_street": "Towne Centre Boulevard",
      "addr_housenumber": "1905",
      "value": 349.8881790168291
    },
    {
      "id": 42752,
      "geometry": "POINT (-76.587392 39.124498)",
      "poi_name": "Founders Tavern & Grille",
      "osm_id": 3076955827,
      "amenity": "restaurant",
      "website": "https://www.founderstavernandgrille.com/",
      "addr_state": "MD",
      "addr_city": "Pasadena",
      "addr_postcode": "21122",
      "addr_street": "Ritchie Highway",
      "addr_housenumber": "8125",
      "value": 349.8881790168291
    },
    {
      "id": 55095,
      "geometry": "POINT (-76.543874 38.978564)",
      "poi_name": "House of Hunan",
      "osm_id": 10171585313,
      "amenity": "restaurant",
      "cuisine": "chinese",
      "opening_hours": "Mo-Th 11:30-22:00; Sa 12:30-23:00; Fr 11:30-23:00; Su 12:30-22:00",
      "outdoor_seating": "no",
      "addr_state": "MD",
      "addr_city": "Annapolis",
      "addr_postcode": "21401",
      "addr_street": "Forest Drive",
      "addr_housenumber": "2311",
      "value": 349.8881790168291
    },
    {
      "id": 55098,
      "geometry": "POINT (-76.545658 38.980411)",
      "poi_name": "LEBTAV",
      "osm_id": 10171606393,
      "amenity": "restaurant",
      "cuisine": "lebanese",
      "addr_state": "MD",
      "addr_city": "Annapolis",
      "addr_postcode": "21401",
      "addr_street": "Forest Drive",
      "addr_housenumber": "2335",
      "value": 349.8881790168291
    },
    {
      "id": 55099,
      "geometry": "POINT (-76.542306 38.979283)",
      "poi_name": "Jalapenos",
      "osm_id": 10171606395,
      "amenity": "restaurant",
      "cuisine": "mexican",
      "addr_state": "MD",
      "addr_city": "Annapolis",
      "addr_postcode": "21401",
      "addr_street": "Forest Drive",
      "addr_housenumber": "85",
      "value": 349.8881790168291
    },
    {
      "id": 55100,
      "geometry": "POINT (-76.542401 38.9787)",
      "poi_name": "Seafood Palace Buffet",
      "osm_id": 10171606397,
      "amenity": "restaurant",
      "cuisine": "seafood",
      "addr_state": "MD",
      "addr_city": "Annapolis",
      "addr_postcode": "21401",
      "addr_street": "Forest Plaza",
      "addr_housenumber": "81",
      "value": 349.8881790168291
    },
    {
      "id": 55408,
      "geometry": "POINT (-76.543085 38.990096)",
      "poi_name": "The Cheesecake Factory",
      "osm_id": 10186060972,
      "amenity": "restaurant",
      "cuisine": "american",
      "addr_state": "MD",
      "addr_city": "Annapolis",
      "addr_postcode": "21401",
      "addr_street": "Annapolis Mall Road",
      "addr_housenumber": "1872",
      "value": 349.8881790168291
    },
    {
      "id": 57705,
      "geometry": "POINT (-76.565858 39.101938)",
      "poi_name": "Pascal's Chophouse",
      "osm_id": 5347337197,
      "amenity": "restaurant",
      "website": "https://www.pascalschophouse.com/",
      "addr_state": "MD",
      "addr_city": "Severna Park",
      "addr_postcode": "21146",
      "addr_street": "Governor Ritchie Highway",
      "addr_housenumber": "139A",
      "value": 349.8881790168291
    },
    {
      "id": 57706,
      "geometry": "POINT (-76.564598 39.100544)",
      "poi_name": "Squisito",
      "osm_id": 5347337200,
      "amenity": "restaurant",
      "cuisine": "italian",
      "addr_state": "MD",
      "addr_city": "Severna Park",
      "addr_postcode": "21146",
      "addr_street": "Governor Ritchie Highway",
      "addr_housenumber": "147E",
      "value": 349.8881790168291
    },
    {
      "id": 68491,
      "geometry": "POINT (-76.582545 39.083007)",
      "poi_name": "Szechuan Inn",
      "osm_id": 11271172883,
      "amenity": "restaurant",
      "cuisine": "asian;chinese;sushi;japanese",
      "opening_hours": "Mo-Su 11:00-22:00",
      "website": "https://www.szechuaninnmd.com/",
      "phone": "410-544-0227",
      "addr_state": "MD",
      "addr_city": "Severna Park",
      "addr_postcode": "21146",
      "addr_street": "Benfield Road",
      "addr_housenumber": "558",
      "value": 349.8881790168291
    },
    {
      "id": 88944,
      "geometry": "POINT (-76.639992 39.198527)",
      "poi_name": "Italia's Corner Caf\u00e9",
      "osm_id": 8810029413,
      "amenity": "restaurant",
      "cuisine": "italian",
      "website": "https://italiascornercafe.com/",
      "phone": "+1-410-684-3817",
      "takeaway": "yes",
      "outdoor_seating": "yes",
      "addr_state": "MD",
      "addr_city": "Glen Burnie",
      "addr_postcode": "21061",
      "addr_street": "Baltimore Annapolis Boulevard",
      "addr_housenumber": "7089",
      "value": 349.8881790168291
    },
    {
      "id": 88945,
      "geometry": "POINT (-76.639995 39.198748)",
      "poi_name": "The Birdcage",
      "osm_id": 8810029414,
      "amenity": "restaurant",
      "cuisine": "american",
      "website": "http://thebirdcage.us/",
      "phone": "+1-410-760-2337",
      "addr_state": "MD",
      "addr_city": "Glen Burnie",
      "addr_postcode": "21061",
      "addr_street": "Baltimore Annapolis Boulevard",
      "addr_housenumber": "7089",
      "value": 349.8881790168291
    },
    {
      "id": 93361,
      "geometry": "POINT (-76.580919 39.081024)",
      "poi_name": "Little Carmine's N.Y. Pizza Kitchen",
      "osm_id": 2161019250,
      "amenity": "restaurant",
      "cuisine": "pizza",
      "phone": "+1-410-432-6160",
      "addr_state": "MD",
      "addr_city": "Severna Park",
      "addr_postcode": "21146",
      "addr_street": "Benfield Road",
      "addr_housenumber": "523",
      "value": 349.8881790168291
    },
    {
      "id": 93528,
      "geometry": "POINT (-76.546337 39.075645)",
      "poi_name": "Kyoto Restaurant",
      "osm_id": 2169457085,
      "amenity": "restaurant",
      "cuisine": "sushi;hibachi;japanese",
      "opening_hours": "Tu-Su 15:30-21:00",
      "website": "http://www.kyotomd.com/",
      "phone": "410-647-4500",
      "addr_state": "MD",
      "addr_city": "Severna Park",
      "addr_postcode": "21146",
      "addr_street": "Governor Ritchie Highway",
      "addr_housenumber": "568 C",
      "value": 349.8881790168291
    },
    {
      "id": 110589,
      "geometry": "POINT (-76.544998 38.980712)",
      "poi_name": "Buffalo Wild Wings",
      "osm_id": 3709878004,
      "amenity": "restaurant",
      "cuisine": "wings",
      "wheelchair": "yes",
      "opening_hours": "Su-Th 11:00-23:00, Fr,Sa 11:00-01:00",
      "internet_access": "wlan",
      "outdoor_seating": "no",
      "addr_state": "MD",
      "addr_city": "Annapolis",
      "addr_postcode": "21401",
      "addr_street": "Forest Drive",
      "addr_housenumber": "2337",
      "value": 349.8881790168291
    },
    {
      "id": 110591,
      "geometry": "POINT (-76.543698 38.981286)",
      "poi_name": "Pei Wei",
      "osm_id": 3709878020,
      "amenity": "restaurant",
      "cuisine": "asian",
      "addr_city": "Annapolis",
      "value": 349.8881790168291
    },
    {
      "id": 112986,
      "geometry": "POINT (-76.670767 39.16194)",
      "poi_name": "Ficini Pizza & Wings",
      "osm_id": 3813330918,
      "amenity": "restaurant",
      "cuisine": "pizza",
      "website": "www.ficinipizza.com",
      "addr_state": "MD",
      "addr_city": "Glen Burnie",
      "addr_postcode": "21061",
      "addr_street": "Dorsey Road",
      "addr_housenumber": "2301",
      "value": 349.8881790168291
    },
    {
      "id": 127385,
      "geometry": "POINT (-76.551016 39.081566)",
      "poi_name": "Romilo's",
      "osm_id": 8062638940,
      "amenity": "restaurant",
      "cuisine": "pizza;burger;american",
      "opening_hours": "Mo-Su 10:00-22:00",
      "website": "romilosresaurant.com",
      "phone": "+1 (410) 544 6188",
      "addr_state": "MD",
      "addr_city": "Severna Park",
      "addr_postcode": "21146",
      "addr_street": "Governor Ritchie Highway",
      "addr_housenumber": "478",
      "value": 349.8881790168291
    },
    {
      "id": 115586,
      "geometry": "POINT (-76.566171 39.098618)",
      "poi_name": "Carini's Pizza",
      "osm_id": 8904571618,
      "amenity": "restaurant",
      "cuisine": "pizza",
      "addr_city": "Severna Park",
      "addr_postcode": "21146",
      "addr_street": "Ritchie Highway",
      "addr_housenumber": "160",
      "value": 349.8881790168291
    },
    {
      "id": 119131,
      "geometry": "POINT (-76.547408 39.073024)",
      "poi_name": "Squisito",
      "osm_id": 9083211011,
      "amenity": "restaurant",
      "website": "https://squisitopizzaandpasta.com",
      "addr_city": "Severna Park",
      "addr_postcode": "21146",
      "addr_street": "Baltimore Annapolis Boulevard",
      "addr_housenumber": "548",
      "value": 349.8881790168291
    },
    {
      "id": 121329,
      "geometry": "POINT (-76.623558 39.096761)",
      "poi_name": "Ledo Pizza",
      "osm_id": 6753909313,
      "amenity": "restaurant",
      "cuisine": "pizza;pasta",
      "addr_state": "MD",
      "addr_city": "Millersville",
      "addr_postcode": "21108",
      "addr_street": "Veterans Highway",
      "addr_housenumber": "8531",
      "value": 349.8881790168291
    },
    {
      "id": 116275,
      "geometry": "POINT (-76.632021 39.11698)",
      "poi_name": "China Gourmet",
      "osm_id": 8934435781,
      "amenity": "restaurant",
      "cuisine": "chinese",
      "addr_city": "Millersville",
      "addr_postcode": "21108",
      "addr_street": "Old Mill Road",
      "addr_housenumber": "685",
      "value": 349.8881790168291
    },
    {
      "id": 116276,
      "geometry": "POINT (-76.632251 39.116959)",
      "poi_name": "Sushi-Q 3",
      "osm_id": 8934435783,
      "amenity": "restaurant",
      "cuisine": "sushi",
      "website": "https://www.sushiqmd.com",
      "addr_city": "Millersville",
      "addr_postcode": "21108",
      "addr_street": "Old Mill Road",
      "addr_housenumber": "691",
      "value": 349.8881790168291
    },
    {
      "id": 116277,
      "geometry": "POINT (-76.632763 39.118524)",
      "poi_name": "Lee's Szechuan Restaurant",
      "osm_id": 8934435791,
      "amenity": "restaurant",
      "cuisine": "chinese",
      "website": "https://www.leesszechuan.com/",
      "phone": "+1 410 987 6111",
      "addr_city": "Millersville",
      "addr_postcode": "21108",
      "addr_street": "Old Mill Road",
      "addr_housenumber": "672",
      "value": 349.8881790168291
    },
    {
      "id": 127386,
      "geometry": "POINT (-76.550726 39.081725)",
      "poi_name": "Ming's Cafe",
      "osm_id": 8062688509,
      "amenity": "restaurant",
      "cuisine": "chinese",
      "opening_hours": "Mo-Su 11:30-21:30",
      "website": "https://mingscafe.net/",
      "phone": "+1 410-544-9991",
      "addr_state": "MD",
      "addr_city": "Severna Park",
      "addr_postcode": "21146",
      "addr_street": "Governor Ritchie Highway",
      "addr_housenumber": "480",
      "value": 349.8881790168291
    },
    {
      "id": 127387,
      "geometry": "POINT (-76.550584 39.0818)",
      "poi_name": "Life Pho",
      "osm_id": 8062699820,
      "amenity": "restaurant",
      "cuisine": "thai",
      "opening_hours": "Mo-Su 11:00-20:00",
      "phone": "+1 (410) 544 8884",
      "addr_state": "MD",
      "addr_city": "Severna Park",
      "addr_postcode": "21146",
      "addr_street": "Governor Ritchie Highway",
      "addr_housenumber": "484",
      "value": 349.8881790168291
    },
    {
      "id": 127391,
      "geometry": "POINT (-76.54573 39.075398)",
      "poi_name": "Bejing Carryout",
      "osm_id": 8062886177,
      "amenity": "restaurant",
      "cuisine": "chinese",
      "opening_hours": "Mo-Su 11:00-21:00",
      "website": "bejingcarryout.com",
      "phone": "+1 (410) 544 5550",
      "addr_state": "MD",
      "addr_city": "Severna Park",
      "addr_postcode": "21146",
      "addr_street": "Governor Ritchie Highway",
      "addr_housenumber": "574",
      "value": 349.8881790168291
    },
    {
      "id": 134059,
      "geometry": "POINT (-76.614084 39.189641)",
      "poi_name": "Sardi's Pollo A La Brasa",
      "osm_id": 10028181326,
      "amenity": "restaurant",
      "cuisine": "peruvian",
      "addr_state": "MD",
      "addr_city": "Glen Burnie",
      "addr_postcode": "21061",
      "addr_street": "Ritchie Highway",
      "addr_housenumber": "6734",
      "value": 349.8881790168291
    },
    {
      "id": 134073,
      "geometry": "POINT (-76.611448 39.191464)",
      "poi_name": "Bonefish Grill",
      "osm_id": 10028548888,
      "amenity": "restaurant",
      "cuisine": "seafood",
      "addr_state": "MD",
      "addr_city": "Glen Burnie",
      "addr_postcode": "21061",
      "addr_street": "Ritchie Highway",
      "addr_housenumber": "6730",
      "value": 349.8881790168291
    },
    {
      "id": 137365,
      "geometry": "POINT (-76.638194 39.179663)",
      "poi_name": "Willy's Kitchen",
      "osm_id": 6095910106,
      "amenity": "restaurant",
      "opening_hours": "Mo 06:30-13:30; Tu-Fr 06:30-20:00; Sa 07:00-20:00; Su 07:30-20:00",
      "website": "https://willyskitchenandcatering.com/",
      "phone": "+1 410-761-8001",
      "addr_state": "MD",
      "addr_city": "Glen Burnie",
      "addr_postcode": "21061",
      "addr_street": "Baltimore Annapolis Boulevard",
      "addr_housenumber": "7271",
      "value": 349.8881790168291
    },
    {
      "id": 153044,
      "geometry": "POINT (-76.582983 39.082223)",
      "poi_name": "Rivera's",
      "osm_id": 4173618242,
      "amenity": "restaurant",
      "cuisine": "mexican",
      "addr_state": "MD",
      "addr_city": "Severna Park",
      "addr_postcode": "21146",
      "addr_street": "Benfield Road",
      "addr_housenumber": "594",
      "value": 349.8881790168291
    },
    {
      "id": 231377,
      "geometry": "POINT (-76.632403 39.116945)",
      "poi_name": "A-1 Pizza",
      "osm_id": 4465818727,
      "amenity": "restaurant",
      "cuisine": "pizza",
      "addr_state": "MD",
      "addr_city": "Millersville",
      "addr_postcode": "21108",
      "addr_street": "Old Mill Road",
      "addr_housenumber": "695",
      "value": 349.8881790168291
    },
    {
      "id": 200494,
      "geometry": "POINT (-76.618288 39.153582)",
      "poi_name": "Sunset Restaurant",
      "osm_id": 589547681,
      "amenity": "restaurant",
      "addr_state": "MD",
      "addr_city": "Glen Burnie",
      "addr_postcode": "21061",
      "addr_street": "Greenway Road Southeast",
      "addr_housenumber": "635",
      "value": 349.8881790168291
    },
    {
      "id": 228759,
      "geometry": "POINT (-76.545995 38.980248)",
      "poi_name": "Chuck E. Cheese",
      "osm_id": 4354428150,
      "amenity": "restaurant",
      "cuisine": "pizza",
      "leisure": "amusement_arcade",
      "website": "https://locations.chuckecheese.com/us/md/annapolis/2333-a-forest-dr.",
      "addr_state": "MD",
      "addr_city": "Annapolis",
      "addr_postcode": "21401",
      "addr_street": "Forest Drive",
      "addr_housenumber": "2333",
      "value": 349.8881790168291
    },
    {
      "id": 202381,
      "geometry": "POINT (-76.55757 38.975377)",
      "poi_name": "Squisito",
      "osm_id": 7022455982,
      "amenity": "restaurant",
      "cuisine": "italian",
      "addr_state": "MD",
      "addr_city": "Annapolis",
      "addr_postcode": "21401",
      "addr_street": "Riva Road",
      "addr_housenumber": "2625",
      "value": 349.8881790168291
    },
    {
      "id": 208889,
      "geometry": "POINT (-76.615346 39.192446)",
      "poi_name": "Pho' 98",
      "osm_id": 5010364461,
      "amenity": "restaurant",
      "cuisine": "vietnamese",
      "addr_city": "Glen Burnie",
      "addr_postcode": "21061",
      "addr_street": "Ritchie Highway",
      "addr_housenumber": "6714 B",
      "value": 349.8881790168291
    },
    {
      "id": 228755,
      "geometry": "POINT (-76.541028 38.980067)",
      "poi_name": "Neo Pizza & Taphouse",
      "osm_id": 4354428031,
      "amenity": "restaurant",
      "cuisine": "pizza",
      "addr_state": "MD",
      "addr_city": "Annapolis",
      "addr_postcode": "21401",
      "addr_street": "Harker Place",
      "addr_housenumber": "220",
      "value": 349.8881790168291
    },
    {
      "id": 239341,
      "geometry": "POINT (-76.629748 39.151896)",
      "poi_name": "PizzaExpress",
      "osm_id": 5917797326,
      "amenity": "restaurant",
      "cuisine": "pizza",
      "website": "https://www.pizza-express-menu.com/",
      "phone": "+1-410-766-3800",
      "takeaway": "yes",
      "delivery": "yes",
      "addr_state": "MD",
      "addr_city": "Glen Burnie",
      "addr_postcode": "21061",
      "addr_street": "Aquahart Road",
      "addr_housenumber": "13",
      "value": 349.8881790168291
    },
    {
      "id": 243094,
      "geometry": "POINT (-76.640083 39.133164)",
      "poi_name": "Fortune Cooky",
      "osm_id": 7624318174,
      "amenity": "restaurant",
      "cuisine": "chinese",
      "addr_state": "MD",
      "addr_city": "Glen Burnie",
      "addr_postcode": "21061",
      "addr_street": "Crain Highway South",
      "addr_housenumber": "7978",
      "value": 349.8881790168291
    }
  ],
  "answer_type": "loc",
  "question_entities": {
    "[2]": {
      "distance": 30000,
      "text": "30 kilometers"
    },
    "[3]": {
      "main_category": "tourism",
      "sub_category": "viewpoint",
      "display_name": "River Deck, Edgewater, MD",
      "geo_wkt": "POINT (-76.540922 38.941815)",
      "poi": {
        "id": 11905,
        "geometry": "POINT (-76.540922 38.941815)",
        "poi_name": "River Deck",
        "osm_id": 6080459896,
        "description": "View of the South River",
        "tourism": "viewpoint",
        "addr_state": "MD",
        "addr_city": "Edgewater",
        "addr_postcode": "21037",
        "addr_street": "Londontown Road",
        "addr_housenumber": "839"
      }
    },
    "[4]": {
      "main_category": "tourism",
      "sub_category": "gallery",
      "display_name": "Alley Cat, Baltimore, MD",
      "geo_wkt": "POINT (-76.630413 39.3315)",
      "poi": {
        "id": 26659,
        "geometry": "POINT (-76.630413 39.3315)",
        "poi_name": "Alley Cat",
        "osm_id": 5967693495,
        "tourism": "gallery",
        "addr_state": "MD",
        "addr_city": "Baltimore",
        "addr_postcode": "21211",
        "addr_street": "West 36th Street",
        "addr_housenumber": "826 1/2"
      }
    },
    "[1]": {
      "main_category": "amenity",
      "sub_category": "restaurant"
    }
  },
  "id": 1201,
  "type": "range:towards+loc"
}