{
  "question": "Where can I find restaurant heading towards Hendersons Arena, GA from Atlanta Marriott Perimeter Center, Atlanta, GA, within a radius of 10 kilometers?",
  "sql": "WITH\n    angle AS (SELECT degrees(ST_Azimuth(ST_GeomFromText('POINT (-84.344625 33.917559)',4326)::geography, ST_GeomFromText('POINT (-84.5221 33.6101)',4326)::geography)) AS value)\nSELECT * FROM pois,angle\nWHERE amenity = 'restaurant'\nAND ST_DWithin(pois.geometry, ST_GeomFromText('POINT (-84.344625 33.917559)',4326)::geography, 10000)\nAND (degrees(ST_Azimuth(ST_GeomFromText('POINT (-84.344625 33.917559)',4326)::geography, pois.geometry)) BETWEEN angle.value - 22.5 AND angle.value + 22.5);\n",
  "answers": [
    {
      "id": 39572,
      "geometry": "POINT (-84.380894 33.889934)",
      "poi_name": "Cibo e Beve",
      "osm_id": 2928753841,
      "amenity": "restaurant",
      "opening_hours": "Mo-Th 11:30-22:00; Fr 11:30-23:00; Sa 17:00-23:00; Su 16:00-22:00",
      "website": "https://www.ciboatlanta.com/",
      "phone": "+1 (404) 250-8988",
      "addr_state": "GA",
      "addr_city": "Atlanta",
      "addr_postcode": "30342",
      "addr_street": "Roswell Road",
      "addr_housenumber": "4969",
      "value": 205.7884557328793
    },
    {
      "id": 36008,
      "geometry": "POINT (-84.368568 33.846564)",
      "poi_name": "Bistro Niko",
      "osm_id": 2744416357,
      "amenity": "restaurant",
      "cuisine": "french",
      "phone": "+1 404 233 5993",
      "addr_state": "GA",
      "addr_city": "Atlanta",
      "addr_postcode": "30326",
      "addr_street": "Peachtree Road",
      "addr_housenumber": "3344",
      "value": 205.7884557328793
    },
    {
      "id": 39573,
      "geometry": "POINT (-84.380864 33.890419)",
      "poi_name": "Food 101",
      "osm_id": 2928753842,
      "amenity": "restaurant",
      "opening_hours": "Mo-Th 11:30-14:30, 17:30-22:00; Fr 11:30-14:30, 17:30-23:00; Sa 17:30-23:00; Su 11:00-15:00, 17:30-22:00",
      "website": "http://www.food101atlanta.com/",
      "phone": "+1 (404) 497-9700",
      "addr_state": "GA",
      "addr_city": "Atlanta",
      "addr_postcode": "30342",
      "addr_street": "Roswell Road",
      "addr_housenumber": "4969",
      "value": 205.7884557328793
    },
    {
      "id": 43455,
      "geometry": "POINT (-84.362789 33.848239)",
      "poi_name": "The Cheesecake Factory",
      "osm_id": 3113556129,
      "amenity": "restaurant",
      "cuisine": "american",
      "opening_hours": "Mo-Th 11:00-23:00, Fr-Sa 11:00-00:30, Su 10:00-23:00",
      "website": "https://locations.thecheesecakefactory.com/ga/atlanta-176.html",
      "phone": "+1-404-816-2555",
      "takeaway": "yes",
      "outdoor_seating": "patio",
      "addr_state": "GA",
      "addr_city": "Atlanta",
      "addr_postcode": "30326",
      "addr_street": "Peachtree Road Northeast",
      "addr_housenumber": "3393",
      "value": 205.7884557328793
    },
    {
      "id": 76047,
      "geometry": "POINT (-84.362893 33.852994)",
      "poi_name": "Earl of Sandwich",
      "osm_id": 9758222479,
      "amenity": "restaurant",
      "cuisine": "sandwich",
      "addr_state": "GA",
      "addr_city": "Atlanta",
      "addr_postcode": "30326",
      "addr_street": "Peachtree Road Northeast",
      "addr_housenumber": "3500",
      "value": 205.7884557328793
    },
    {
      "id": 76049,
      "geometry": "POINT (-84.361757 33.831991)",
      "poi_name": "Eclipse di Luna",
      "osm_id": 9758274200,
      "amenity": "restaurant",
      "cuisine": "tapas",
      "addr_state": "GA",
      "addr_city": "Atlanta",
      "addr_postcode": "30324",
      "addr_street": "Miami Circle Northeast",
      "addr_housenumber": "764",
      "value": 205.7884557328793
    },
    {
      "id": 76051,
      "geometry": "POINT (-84.356823 33.830884)",
      "poi_name": "Sushi Kiku",
      "osm_id": 9758287729,
      "amenity": "restaurant",
      "cuisine": "sushi",
      "addr_state": "GA",
      "addr_city": "Atlanta",
      "addr_postcode": "30324",
      "addr_street": "Lenox Road",
      "addr_housenumber": "2770",
      "value": 205.7884557328793
    },
    {
      "id": 76052,
      "geometry": "POINT (-84.356228 33.830594)",
      "poi_name": "Toast on Lenox",
      "osm_id": 9758287730,
      "amenity": "restaurant",
      "addr_state": "GA",
      "addr_city": "Atlanta",
      "addr_postcode": "30324",
      "addr_street": "Lenox Road",
      "addr_housenumber": "2770",
      "value": 205.7884557328793
    },
    {
      "id": 76054,
      "geometry": "POINT (-84.38102 33.840003)",
      "poi_name": "Velvet Taco",
      "osm_id": 9758328879,
      "amenity": "restaurant",
      "cuisine": "mexican",
      "addr_state": "GA",
      "addr_city": "Atlanta",
      "addr_postcode": "30305",
      "addr_street": "West Paces Ferry Road Northwest",
      "addr_housenumber": "77",
      "value": 205.7884557328793
    },
    {
      "id": 121763,
      "geometry": "POINT (-84.374461 33.846445)",
      "poi_name": "Jason's Deli",
      "osm_id": 6778604794,
      "amenity": "restaurant",
      "cuisine": "sandwich",
      "opening_hours": "Mo-Su 10:00-22:00",
      "website": "https://www.jasonsdeli.com/restaurants/buckhead-deli",
      "phone": "+1-404-231-3333",
      "addr_state": "GA",
      "addr_city": "Atlanta",
      "addr_postcode": "30305",
      "addr_street": "Piedmont Road Northeast",
      "addr_housenumber": "3330",
      "value": 205.7884557328793
    },
    {
      "id": 140894,
      "geometry": "POINT (-84.381476 33.858369)",
      "poi_name": "Bar Taco",
      "osm_id": 6266313286,
      "amenity": "restaurant",
      "cuisine": "mexican",
      "internet_access": "wlan",
      "addr_state": "GA",
      "addr_city": "Atlanta",
      "addr_postcode": "30342",
      "addr_street": "Roswell Road",
      "addr_housenumber": "3802",
      "value": 205.7884557328793
    },
    {
      "id": 126817,
      "geometry": "POINT (-84.364299 33.851592)",
      "poi_name": "New York Prime",
      "osm_id": 8001331411,
      "amenity": "restaurant",
      "cuisine": "steak_house;seafood",
      "website": "https://newyorkprime.com/location/Atlanta-GA/",
      "phone": "+14048460644",
      "addr_state": "GA",
      "addr_city": "Atlanta",
      "addr_postcode": "30326",
      "addr_street": "Peachtree Road Northeast",
      "addr_housenumber": "3424",
      "value": 205.7884557328793
    },
    {
      "id": 165126,
      "geometry": "POINT (-84.381779 33.858358)",
      "poi_name": "Karma Farm",
      "osm_id": 9519346614,
      "amenity": "restaurant",
      "addr_city": "Atlanta",
      "addr_postcode": "30342",
      "addr_street": "Roswell Road",
      "addr_housenumber": "3794",
      "value": 205.7884557328793
    },
    {
      "id": 140892,
      "geometry": "POINT (-84.381079 33.859915)",
      "poi_name": "Superica",
      "osm_id": 6266308586,
      "amenity": "restaurant",
      "cuisine": "mexican",
      "wheelchair": "yes",
      "opening_hours": "Mo-Th 11:00-15:00,17:00-22:00, Fr 11:00-15:00,17:00-23:00, Sa 10:00-23:00, Su 10:00-22:00",
      "website": "http://www.superica.com/buckhead/",
      "phone": "+1-678-705-1235",
      "addr_state": "GA",
      "addr_city": "Atlanta",
      "addr_postcode": "30342",
      "addr_street": "Roswell Road",
      "addr_housenumber": "3850",
      "value": 205.7884557328793
    },
    {
      "id": 157384,
      "geometry": "POINT (-84.367357 33.848172)",
      "poi_name": "Maggiano's Little Italy",
      "osm_id": 4705937286,
      "amenity": "restaurant",
      "cuisine": "american;italian",
      "opening_hours": "Mo-Th 11:00-22:00; Fr-Sa 11:00-23:00; Su 11:00-21:00",
      "website": "https://locations.maggianos.com/georgia/atlanta/30326/3368-peachtree-rd-",
      "phone": "+1 (404) 816-9650",
      "takeaway": "yes",
      "outdoor_seating": "yes",
      "delivery": "yes",
      "addr_state": "GA",
      "addr_city": "Atlanta",
      "addr_postcode": "30326",
      "addr_street": "Peachtree Road",
      "addr_housenumber": "3368",
      "value": 205.7884557328793
    },
    {
      "id": 156202,
      "geometry": "POINT (-84.382452 33.835702)",
      "poi_name": "Brio",
      "osm_id": 4643468352,
      "amenity": "restaurant",
      "cuisine": "italian",
      "addr_state": "GA",
      "addr_city": "Atlanta",
      "addr_postcode": "30305",
      "addr_street": "Peachtree Road",
      "addr_housenumber": "2964",
      "value": 205.7884557328793
    },
    {
      "id": 156204,
      "geometry": "POINT (-84.381718 33.835493)",
      "poi_name": "Raja Indian",
      "osm_id": 4643468363,
      "amenity": "restaurant",
      "cuisine": "indian",
      "addr_state": "GA",
      "addr_city": "Atlanta",
      "addr_postcode": "30305",
      "addr_street": "Peachtree Road",
      "addr_housenumber": "2955",
      "value": 205.7884557328793
    },
    {
      "id": 156563,
      "geometry": "POINT (-84.383696 33.834348)",
      "poi_name": "Canton Buddha",
      "osm_id": 4664879359,
      "amenity": "restaurant",
      "cuisine": "chinese",
      "addr_state": "GA",
      "addr_city": "Atlanta",
      "addr_postcode": "30305",
      "addr_street": "Peachtree Road",
      "addr_housenumber": "2900",
      "value": 205.7884557328793
    },
    {
      "id": 156567,
      "geometry": "POINT (-84.380425 33.839752)",
      "poi_name": "Your Pie",
      "osm_id": 4664879369,
      "amenity": "restaurant",
      "cuisine": "pizza",
      "addr_state": "GA",
      "addr_city": "Atlanta",
      "addr_postcode": "30305",
      "addr_street": "West Paces Ferry Road Northwest",
      "addr_housenumber": "5",
      "value": 205.7884557328793
    },
    {
      "id": 156568,
      "geometry": "POINT (-84.380715 33.839222)",
      "poi_name": "King + Duke",
      "osm_id": 4664879370,
      "amenity": "restaurant",
      "cuisine": "american",
      "addr_state": "GA",
      "addr_city": "Atlanta",
      "addr_postcode": "30305",
      "addr_street": "Peachtree Road",
      "addr_housenumber": "3060",
      "value": 205.7884557328793
    },
    {
      "id": 156570,
      "geometry": "POINT (-84.381041 33.837361)",
      "poi_name": "American Cut",
      "osm_id": 4664879373,
      "amenity": "restaurant",
      "cuisine": "steak_house",
      "addr_state": "GA",
      "addr_city": "Atlanta",
      "addr_postcode": "30305",
      "addr_street": "Peachtree Road",
      "addr_housenumber": "3035",
      "value": 205.7884557328793
    },
    {
      "id": 156571,
      "geometry": "POINT (-84.380378 33.837694)",
      "poi_name": "Le Bilboquet",
      "osm_id": 4664879374,
      "amenity": "restaurant",
      "cuisine": "french",
      "addr_state": "GA",
      "addr_city": "Atlanta",
      "addr_postcode": "30305",
      "addr_street": "Peachtree Road",
      "addr_housenumber": "3035",
      "value": 205.7884557328793
    },
    {
      "id": 210711,
      "geometry": "POINT (-84.382784 33.856664)",
      "poi_name": "JINYA Ramen Bar",
      "osm_id": 5115722740,
      "amenity": "restaurant",
      "cuisine": "ramen",
      "capacity": "50",
      "takeaway": "yes",
      "delivery": "no",
      "addr_state": "GA",
      "addr_city": "Atlanta",
      "addr_postcode": "30342",
      "addr_street": "Roswell Road",
      "addr_housenumber": "3714",
      "value": 205.7884557328793
    },
    {
      "id": 223714,
      "geometry": "POINT (-84.375972 33.836158)",
      "poi_name": "Basil's Restaurant & Tapas Bar",
      "osm_id": 11061716402,
      "amenity": "restaurant",
      "cuisine": "restaurant",
      "opening_hours": "Mo-Su 11:30-21:30",
      "website": "https://basils.net",
      "phone": "+1-404-233-9755",
      "addr_state": "GA",
      "addr_city": "Atlanta",
      "addr_postcode": "30305",
      "addr_street": "Grandview Avenue Northeast",
      "addr_housenumber": "2985",
      "value": 205.7884557328793
    },
    {
      "id": 221427,
      "geometry": "POINT (-84.363225 33.854244)",
      "poi_name": "Nobu",
      "osm_id": 10977757610,
      "amenity": "restaurant",
      "cuisine": "sushi;asian",
      "website": "https://www.noburestaurants.com/atlanta/home/",
      "phone": "+1-470-945-8800",
      "addr_state": "GA",
      "addr_city": "Atlanta",
      "addr_postcode": "30326",
      "addr_street": "Peachtree Road Northeast",
      "addr_housenumber": "3520",
      "value": 205.7884557328793
    },
    {
      "id": 234681,
      "geometry": "POINT (-84.383469 33.83694)",
      "poi_name": "Sophie's Uptown",
      "osm_id": 4631404113,
      "amenity": "restaurant",
      "cuisine": "deli",
      "addr_city": "Atlanta",
      "addr_postcode": "30305",
      "addr_street": "Pharr Road Northwest",
      "addr_housenumber": "54",
      "value": 205.7884557328793
    },
    {
      "id": 234682,
      "geometry": "POINT (-84.382936 33.836965)",
      "poi_name": "The Cookie Studio",
      "osm_id": 4631404114,
      "amenity": "restaurant",
      "cuisine": "bakery",
      "addr_city": "Atlanta",
      "addr_postcode": "30305",
      "addr_street": "Pharr Road Northwest",
      "addr_housenumber": "30",
      "value": 205.7884557328793
    },
    {
      "id": 244792,
      "geometry": "POINT (-84.36307 33.85029)",
      "poi_name": "Trade Root Restaurant & Lounge",
      "osm_id": 7741648135,
      "amenity": "restaurant",
      "cuisine": "mediterranean",
      "building": "yes",
      "opening_hours": "Mo-Su 06:30-22:00",
      "website": "https://www.marriott.com/hotels/hotel-information/restaurant/details/atllu-the-whitley-a-luxury-collection-hotel-atlanta-buckhead/6368505/",
      "phone": "+1 404-240-7035",
      "addr_state": "GA",
      "addr_city": "Atlanta",
      "addr_street": "Peachtree Road Northeast",
      "addr_housenumber": "3434",
      "value": 205.7884557328793
    },
    {
      "id": 234762,
      "geometry": "POINT (-84.372885 33.847405)",
      "poi_name": "Twin Peaks",
      "osm_id": 5735182021,
      "amenity": "restaurant",
      "cuisine": "american",
      "website": "http://twinpeaksrestaurant.com",
      "phone": "+1 404-961-8946",
      "addr_state": "GA",
      "addr_city": "Atlanta",
      "addr_postcode": "30305",
      "addr_street": "Piedmont Road Northeast",
      "addr_housenumber": "3365",
      "value": 205.7884557328793
    }
  ],
  "answer_type": "loc",
  "question_entities": {
    "[2]": {
      "distance": 10000,
      "text": "10 kilometers"
    },
    "[3]": {
      "main_category": "tourism",
      "sub_category": "hotel",
      "display_name": "Atlanta Marriott Perimeter Center, Atlanta, GA",
      "geo_wkt": "POINT (-84.344625 33.917559)",
      "poi": {
        "id": 27193,
        "geometry": "POINT (-84.344625 33.917559)",
        "poi_name": "Atlanta Marriott Perimeter Center",
        "osm_id": 7741476734,
        "tourism": "hotel",
        "wheelchair": "yes",
        "website": "https://www.marriott.com/hotels/travel/atlpc-atlanta-marriott-perimeter-center/",
        "internet_access": "yes",
        "phone": "+1-770-394-6500",
        "addr_state": "GA",
        "addr_city": "Atlanta",
        "addr_postcode": "30346",
        "addr_street": "Perimeter Center Parkway NE",
        "addr_housenumber": "246"
      }
    },
    "[4]": {
      "main_category": "leisure",
      "sub_category": "stadium",
      "display_name": "Hendersons Arena, GA",
      "geo_wkt": "POINT (-84.5221 33.6101)",
      "poi": {
        "id": 265382,
        "geometry": "POINT (-84.5221 33.6101)",
        "poi_name": "Hendersons Arena",
        "osm_id": 367915659,
        "leisure": "stadium",
        "addr_state": "GA"
      }
    },
    "[1]": {
      "main_category": "amenity",
      "sub_category": "restaurant"
    }
  },
  "id": 1286,
  "type": "range:towards+loc"
}