{
  "question": "Is it possible for you to discover a steak house that is situated within 170 kilometers of Central Florida Zoo & Botanical Gardens, Sanford, FL?",
  "sql": "SELECT * FROM pois\nWHERE ST_DWithin(pois.geometry, ST_GeomFromText('POINT (-81.314867 28.825462)',4326)::geography, 170000)\nAND amenity = 'restaurant'\nAND cuisine ILIKE '%steak_house%';\n",
  "answers": [
    {
      "id": 28534,
      "geometry": "POINT (-81.581138 28.419554)",
      "poi_name": "Cinderella's Royal Table",
      "osm_id": 490262818,
      "amenity": "restaurant",
      "cuisine": "steak_house",
      "wheelchair": "yes",
      "website": "https://disneyworld.disney.go.com/dining/magic-kingdom/cinderella-royal-table/"
    },
    {
      "id": 31960,
      "geometry": "POINT (-82.524542 27.95856)",
      "poi_name": "LongHorn Steakhouse",
      "osm_id": 2615637685,
      "amenity": "restaurant",
      "cuisine": "steak_house",
      "addr_city": "Tampa",
      "addr_street": "North West Shore Boulevard"
    },
    {
      "id": 50897,
      "geometry": "POINT (-82.505974 27.98753)",
      "poi_name": "Landers Steakhouse",
      "osm_id": 493885557,
      "amenity": "restaurant",
      "cuisine": "steak_house"
    },
    {
      "id": 57968,
      "geometry": "POINT (-81.371028 28.592972)",
      "poi_name": "4 Rivers Smokehouse",
      "osm_id": 5357911021,
      "amenity": "restaurant",
      "cuisine": "steak_house",
      "website": "https://4rsmokehouse.com/",
      "addr_postcode": "32789",
      "addr_street": "Fairbanks Avenue",
      "addr_housenumber": "1600 W"
    },
    {
      "id": 57679,
      "geometry": "POINT (-81.484107 27.488327)",
      "poi_name": "Cody's",
      "osm_id": 5346225654,
      "amenity": "restaurant",
      "cuisine": "steak_house",
      "addr_state": "FL",
      "addr_city": "Sebring",
      "addr_postcode": "33870",
      "addr_street": "US 27 North",
      "addr_housenumber": "521"
    },
    {
      "id": 81218,
      "geometry": "POINT (-81.296201 28.918158)",
      "poi_name": "Texas Roadhouse",
      "osm_id": 1614949257,
      "amenity": "restaurant",
      "cuisine": "steak_house"
    },
    {
      "id": 64561,
      "geometry": "POINT (-81.550703 30.194127)",
      "poi_name": "LongHorn Steakhouse",
      "osm_id": 5658816189,
      "amenity": "restaurant",
      "cuisine": "steak_house"
    },
    {
      "id": 74338,
      "geometry": "POINT (-81.310914 28.458316)",
      "poi_name": "LongHorn Steakhouse",
      "osm_id": 9676278671,
      "amenity": "restaurant",
      "cuisine": "steak_house",
      "website": "https://longhornsteakhouse.com/",
      "phone": "407 438 2082",
      "addr_city": "Orlando",
      "addr_postcode": "32812",
      "addr_street": "Orlando Gateway Circle",
      "addr_housenumber": "5449"
    },
    {
      "id": 84264,
      "geometry": "POINT (-82.525265 27.943987)",
      "poi_name": "Shula's Steak House",
      "osm_id": 1782241227,
      "amenity": "restaurant",
      "cuisine": "steak_house",
      "addr_state": "FL",
      "addr_city": "Tampa",
      "addr_postcode": "33609",
      "addr_street": "West Kennedy Boulevard",
      "addr_housenumber": "4860"
    },
    {
      "id": 81846,
      "geometry": "POINT (-80.853435 28.548483)",
      "poi_name": "Durango's",
      "osm_id": 1668185117,
      "amenity": "restaurant",
      "cuisine": "steak_house"
    },
    {
      "id": 82540,
      "geometry": "POINT (-81.591336 28.334135)",
      "poi_name": "Sizzler",
      "osm_id": 1701521076,
      "amenity": "restaurant",
      "cuisine": "steak_house",
      "wheelchair": "yes",
      "addr_state": "FL",
      "addr_city": "Kissimmee",
      "addr_postcode": "34741",
      "addr_street": "West Irlo Bronson Memorial Highway",
      "addr_housenumber": "7602"
    },
    {
      "id": 85873,
      "geometry": "POINT (-82.772437 28.019692)",
      "poi_name": "Spoto's",
      "osm_id": 1905066006,
      "amenity": "restaurant",
      "cuisine": "steak_house"
    },
    {
      "id": 85532,
      "geometry": "POINT (-82.614484 28.475968)",
      "poi_name": "Cody's Roadhouse",
      "osm_id": 1878598069,
      "amenity": "restaurant",
      "cuisine": "steak_house",
      "takeaway": "yes",
      "outdoor_seating": "no",
      "addr_city": "Springhill",
      "addr_postcode": "34606",
      "addr_street": "Commercial Way",
      "addr_housenumber": "3101"
    },
    {
      "id": 99998,
      "geometry": "POINT (-81.466138 28.472632)",
      "poi_name": "Bigfire",
      "osm_id": 6571050391,
      "amenity": "restaurant",
      "cuisine": "chicken;steak_house;burger;sandwich",
      "phone": "(407) 224-3663",
      "addr_state": "FL",
      "addr_city": "Orlando",
      "addr_postcode": "32819",
      "addr_street": "Universal Boulevard",
      "addr_housenumber": "6000"
    },
    {
      "id": 100935,
      "geometry": "POINT (-81.399265 28.453963)",
      "poi_name": "La Granja",
      "osm_id": 6605073792,
      "amenity": "restaurant",
      "cuisine": "seafood;chicken;steak_house",
      "addr_street": "South Orange Blossom Trail"
    },
    {
      "id": 106421,
      "geometry": "POINT (-81.434161 28.306259)",
      "poi_name": "Osaka Japanese Steak House",
      "osm_id": 8678360948,
      "amenity": "restaurant",
      "cuisine": "steak_house"
    },
    {
      "id": 104224,
      "geometry": "POINT (-81.344393 28.553732)",
      "poi_name": "LongHorn Steakhouse",
      "osm_id": 8555552959,
      "amenity": "restaurant",
      "cuisine": "steak_house"
    },
    {
      "id": 105734,
      "geometry": "POINT (-80.872032 28.919225)",
      "poi_name": "Elliott's Steakhouse",
      "osm_id": 8641520094,
      "amenity": "restaurant",
      "cuisine": "steak_house",
      "opening_hours": "Mo-Su 11:00-21:00",
      "phone": "(386) 847-8828",
      "addr_city": "Edgewater",
      "addr_postcode": "32141",
      "addr_street": "South Ridgewood Avenue",
      "addr_housenumber": "4170"
    },
    {
      "id": 113515,
      "geometry": "POINT (-80.593904 28.138198)",
      "poi_name": "Texas Roadhouse",
      "osm_id": 3837218168,
      "amenity": "restaurant",
      "cuisine": "steak_house",
      "website": "https://www.texasroadhouse.com/",
      "phone": "+13217733220",
      "addr_state": "FL",
      "addr_street": "East Eau Gallie Boulevard"
    },
    {
      "id": 168444,
      "geometry": "POINT (-81.484076 28.450519)",
      "poi_name": "Ruth's Chris",
      "osm_id": 2256206772,
      "amenity": "restaurant",
      "cuisine": "steak_house",
      "internet_access": "no",
      "delivery": "no"
    },
    {
      "id": 124143,
      "geometry": "POINT (-81.59024 28.564505)",
      "poi_name": "Matthews Steakhouse",
      "osm_id": 6901071139,
      "amenity": "restaurant",
      "cuisine": "steak_house",
      "wheelchair": "yes"
    },
    {
      "id": 142153,
      "geometry": "POINT (-82.327268 27.875168)",
      "poi_name": "Ruth's Steakhouse",
      "osm_id": 6304630521,
      "amenity": "restaurant",
      "cuisine": "steak_house",
      "opening_hours": "Mo-Sa 07:00-21:00; Su 07:00-19:00",
      "phone": "+1 (813) 677-3620",
      "outdoor_seating": "no",
      "addr_state": "FL",
      "addr_city": "Riverview",
      "addr_postcode": "33578",
      "addr_street": "US 301",
      "addr_housenumber": "7409"
    },
    {
      "id": 144924,
      "geometry": "POINT (-80.632926 27.999813)",
      "poi_name": "Texas Roadhouse",
      "osm_id": 7295136463,
      "amenity": "restaurant",
      "cuisine": "steak_house",
      "wheelchair": "yes",
      "takeaway": "no",
      "outdoor_seating": "yes",
      "delivery": "no",
      "addr_state": "FL",
      "addr_city": "Palm Bay",
      "addr_postcode": "32907",
      "addr_street": "Malabar Road Northeast",
      "addr_housenumber": "1181"
    },
    {
      "id": 118619,
      "geometry": "POINT (-81.385564 28.664649)",
      "poi_name": "Omaha Steakhouse Orlando",
      "osm_id": 9054969925,
      "amenity": "restaurant",
      "cuisine": "steak_house",
      "opening_hours": "Mo-Su 16:00-21:00",
      "website": "https://www.omahasteakhouseorlando.com/",
      "phone": "+14075713457",
      "addr_state": "FL",
      "addr_city": "Altamonte Springs",
      "addr_postcode": "32701",
      "addr_street": "Shorecrest Drive",
      "addr_housenumber": "225"
    },
    {
      "id": 118972,
      "geometry": "POINT (-82.527073 28.53286)",
      "poi_name": "Fujiyama Japanese Steakhouse",
      "osm_id": 9074814875,
      "amenity": "restaurant",
      "cuisine": "steak_house",
      "addr_city": "Brooksville",
      "addr_postcode": "34613",
      "addr_street": "Cortez Boulevard",
      "addr_housenumber": "12070"
    },
    {
      "id": 124206,
      "geometry": "POINT (-81.58264 28.551461)",
      "poi_name": "Four Rivers Steakhouse",
      "osm_id": 6903947041,
      "amenity": "restaurant",
      "cuisine": "steak_house"
    },
    {
      "id": 193630,
      "geometry": "POINT (-81.485042 28.450711)",
      "poi_name": "Steak On Fire | Steak Up",
      "osm_id": 1549958534,
      "amenity": "restaurant",
      "cuisine": "brazilian;steak_house",
      "wheelchair": "yes",
      "opening_hours": "Fr-Sa 11:00-22:00; Su-Th 11:00-21:00",
      "takeaway": "yes",
      "addr_state": "FL",
      "addr_city": "Orlando",
      "addr_postcode": "32819",
      "addr_street": "West Sand Lake Road",
      "addr_housenumber": "7541"
    },
    {
      "id": 168878,
      "geometry": "POINT (-81.529139 28.553262)",
      "poi_name": "Texas Roadhouse",
      "osm_id": 2283523207,
      "amenity": "restaurant",
      "cuisine": "steak_house",
      "wheelchair": "yes",
      "internet_access": "no",
      "takeaway": "no",
      "outdoor_seating": "yes",
      "delivery": "no",
      "addr_city": "Orlando"
    },
    {
      "id": 184032,
      "geometry": "POINT (-81.310746 28.470958)",
      "poi_name": "Texas Roadhouse",
      "osm_id": 7768405479,
      "amenity": "restaurant",
      "cuisine": "steak_house"
    },
    {
      "id": 186021,
      "geometry": "POINT (-81.613308 28.346278)",
      "poi_name": "LongHorn Steakhouse",
      "osm_id": 7903473923,
      "amenity": "restaurant",
      "cuisine": "steak_house",
      "opening_hours": "Mo-Su 11:00-23:00",
      "website": "https://longhornsteakhouse.com/",
      "phone": "14073901084",
      "addr_state": "FL",
      "addr_city": "Kissimmee",
      "addr_postcode": "34747",
      "addr_street": "Bronson Highway",
      "addr_housenumber": "8150"
    },
    {
      "id": 214397,
      "geometry": "POINT (-81.748891 30.154311)",
      "poi_name": "Texas Roadhouse",
      "osm_id": 5271259023,
      "amenity": "restaurant",
      "cuisine": "steak_house",
      "website": "https://www.texasroadhouse.com/restaurant-locations/florida/orange-park",
      "phone": "+1 904-213-1000",
      "addr_state": "FL",
      "addr_city": "Orange Park",
      "addr_postcode": "32073",
      "addr_street": "Blanding Boulevard",
      "addr_housenumber": "550"
    },
    {
      "id": 201188,
      "geometry": "POINT (-81.195139 29.47731)",
      "poi_name": "The Great American Grill",
      "osm_id": 616814479,
      "amenity": "restaurant",
      "cuisine": "steak_house"
    },
    {
      "id": 202150,
      "geometry": "POINT (-82.436339 28.055109)",
      "poi_name": "LongHorn Steakhouse",
      "osm_id": 683877988,
      "amenity": "restaurant",
      "cuisine": "steak_house",
      "addr_state": "FL",
      "addr_city": "Tampa",
      "addr_postcode": "33612",
      "addr_street": "E Fowler Ave",
      "addr_housenumber": "2110"
    },
    {
      "id": 205695,
      "geometry": "POINT (-81.393342 30.255412)",
      "poi_name": "LongHorn Steakhouse",
      "osm_id": 7178268018,
      "amenity": "restaurant",
      "cuisine": "steak_house"
    },
    {
      "id": 226102,
      "geometry": "POINT (-82.21564 27.842274)",
      "poi_name": "Hunt + Gather",
      "osm_id": 11148796803,
      "amenity": "restaurant",
      "cuisine": "steak_house",
      "opening_hours": "We-Th 16:00-21:00; Fr 16:00-22:00; Sa 11:00-22:00; Su 11:00-21:00",
      "website": "https://huntandgatherfishhawk.com/",
      "phone": "+1-813-315-8590",
      "addr_state": "FL",
      "addr_city": "Lithia",
      "addr_postcode": "33547",
      "addr_street": "Churchview Drive",
      "addr_housenumber": "16132"
    },
    {
      "id": 244178,
      "geometry": "POINT (-81.359348 28.752963)",
      "poi_name": "LongHorn Steakhouse",
      "osm_id": 7706122910,
      "amenity": "restaurant",
      "cuisine": "steak_house"
    },
    {
      "id": 233052,
      "geometry": "POINT (-81.958641 28.013705)",
      "poi_name": "Tokyo Steak House",
      "osm_id": 4554919045,
      "amenity": "restaurant",
      "cuisine": "steak_house",
      "website": "http://lakelandsteakrestaurant.com",
      "phone": "863-688-2288",
      "addr_state": "FL",
      "addr_city": "Lakeland",
      "addr_postcode": "33803",
      "addr_street": "S Florida Ave",
      "addr_housenumber": "2607"
    },
    {
      "id": 229015,
      "geometry": "POINT (-81.365572 28.605638)",
      "poi_name": "Fleming's Prime Steakhouse & Wine Bar",
      "osm_id": 4362935496,
      "amenity": "restaurant",
      "cuisine": "steak_house",
      "website": "https://www.flemingssteakhouse.com/",
      "phone": "+1 407 6999463",
      "addr_street": "Orlando Avenue",
      "addr_housenumber": "933"
    },
    {
      "id": 239551,
      "geometry": "POINT (-81.693885 30.311171)",
      "poi_name": "The Keg",
      "osm_id": 5926180146,
      "amenity": "restaurant",
      "cuisine": "steak_house"
    }
  ],
  "answer_type": "name",
  "question_entities": {
    "[1]": {
      "main_category": "amenity",
      "sub_category": "restaurant",
      "poi_filter_desc": "steak house",
      "poi_filter_sql": "cuisine ILIKE '%steak_house%'"
    },
    "[2]": {
      "distance": 170000,
      "text": "170 kilometers"
    },
    "[3]": {
      "main_category": "tourism",
      "sub_category": "zoo",
      "display_name": "Central Florida Zoo & Botanical Gardens, Sanford, FL",
      "geo_wkt": "POINT (-81.314867 28.825462)",
      "poi": {
        "id": 9137,
        "geometry": "POINT (-81.314867 28.825462)",
        "poi_name": "Central Florida Zoo & Botanical Gardens",
        "osm_id": 3683164539,
        "tourism": "zoo",
        "fee": "yes",
        "addr_state": "FL",
        "addr_city": "Sanford",
        "addr_postcode": "32771",
        "addr_street": "W Seminole Blvd",
        "addr_housenumber": "3755"
      }
    }
  },
  "id": 576,
  "type": "range:non_spat_filter+name"
}