{
  "question": "Within 70 kilometers, which fast food restaurant can I find from Indian Run Falls Park - Observation Deck B, Dublin, OH on the way to Denison Biological Reserve / Polly Anderson Field Station, Granville, OH?",
  "sql": "WITH\n    angle AS (SELECT degrees(ST_Azimuth(ST_GeomFromText('POINT (-83.120136 40.100971)',4326)::geography, ST_GeomFromText('POINT (-82.52007 40.084033)',4326)::geography)) AS value)\nSELECT * FROM pois,angle\nWHERE amenity = 'fast_food'\nAND ST_DWithin(pois.geometry, ST_GeomFromText('POINT (-83.120136 40.100971)',4326)::geography, 70000)\nAND (degrees(ST_Azimuth(ST_GeomFromText('POINT (-83.120136 40.100971)',4326)::geography, pois.geometry)) BETWEEN angle.value - 22.5 AND angle.value + 22.5);\n",
  "answers": [
    {
      "id": 28834,
      "geometry": "POINT (-82.976053 40.060037)",
      "poi_name": "Mr. Hero",
      "osm_id": 8262665980,
      "amenity": "fast_food",
      "cuisine": "sandwich;burger",
      "opening_hours": "Su 11:00-19:00,Mo-Sa 10:30-21:00",
      "website": "https://www.mrhero.com/",
      "phone": "614-412-2882",
      "drive_through": "yes",
      "outdoor_seating": "no",
      "delivery": "no",
      "addr_state": "OH",
      "addr_city": "Columbus",
      "addr_postcode": "43229",
      "addr_street": "Morse Road",
      "addr_housenumber": "1627",
      "value": 91.91157680693101
    },
    {
      "id": 64933,
      "geometry": "POINT (-82.862047 40.066112)",
      "poi_name": "Subway",
      "osm_id": 5678443200,
      "amenity": "fast_food",
      "cuisine": "sandwich",
      "takeaway": "yes",
      "value": 91.91157680693101
    },
    {
      "id": 39465,
      "geometry": "POINT (-82.67554 40.002656)",
      "poi_name": "Subway",
      "osm_id": 2923426957,
      "amenity": "fast_food",
      "cuisine": "sandwich",
      "opening_hours": "07:00-23:00",
      "phone": "+1-740-927-0068",
      "takeaway": "yes",
      "addr_city": "Pataskala",
      "addr_postcode": "43062",
      "addr_street": "West Broad Street",
      "addr_housenumber": "35",
      "value": 91.91157680693101
    },
    {
      "id": 39466,
      "geometry": "POINT (-82.673626 40.002938)",
      "poi_name": "Wendy's",
      "osm_id": 2923497250,
      "amenity": "fast_food",
      "cuisine": "burger",
      "phone": "+1-740-927-2514",
      "takeaway": "yes",
      "drive_through": "yes",
      "addr_city": "Pataskala",
      "addr_postcode": "43062",
      "addr_street": "East Broad Street",
      "addr_housenumber": "45",
      "value": 91.91157680693101
    },
    {
      "id": 39468,
      "geometry": "POINT (-82.67087 40.003367)",
      "poi_name": "Taco Bell",
      "osm_id": 2923564734,
      "amenity": "fast_food",
      "cuisine": "tex-mex",
      "operator": "Yum! Brands",
      "website": "https://locations.tacobell.com/oh/pataskala/155-e--broad-street.html",
      "takeaway": "yes",
      "addr_city": "Pataskala",
      "addr_postcode": "43062",
      "addr_street": "East Broad Street",
      "addr_housenumber": "155",
      "value": 91.91157680693101
    },
    {
      "id": 39469,
      "geometry": "POINT (-82.670484 40.00343)",
      "poi_name": "KFC",
      "osm_id": 2923564735,
      "amenity": "fast_food",
      "cuisine": "chicken",
      "website": "https://locations.kfc.com/oh/pataskala/165-east-broad-street",
      "phone": "+1-740-927-2088",
      "takeaway": "yes",
      "addr_city": "Pataskala",
      "addr_postcode": "43062",
      "addr_street": "East Broad Street",
      "addr_housenumber": "165",
      "value": 91.91157680693101
    },
    {
      "id": 44049,
      "geometry": "POINT (-82.9226 40.147804)",
      "poi_name": "Subway",
      "osm_id": 3141190828,
      "amenity": "fast_food",
      "cuisine": "sandwich",
      "takeaway": "yes",
      "addr_postcode": "43082",
      "addr_street": "North State Street",
      "addr_housenumber": "7447",
      "value": 91.91157680693101
    },
    {
      "id": 61882,
      "geometry": "POINT (-82.923839 40.094399)",
      "poi_name": "Subway",
      "osm_id": 5540898626,
      "amenity": "fast_food",
      "cuisine": "sandwich",
      "opening_hours": "Mo-Fr 09:00-20:30; Sa 09:30-20:30; Su 11:00-19:30",
      "takeaway": "yes",
      "drive_through": "no",
      "outdoor_seating": "no",
      "delivery": "no",
      "value": 91.91157680693101
    },
    {
      "id": 61883,
      "geometry": "POINT (-82.924602 40.092808)",
      "poi_name": "Domino's",
      "osm_id": 5540898627,
      "amenity": "fast_food",
      "cuisine": "pizza",
      "opening_hours": "Su-Th 10:00-24:00, Fr-Sa 10:00-01:00",
      "phone": "+1-614-891-3030",
      "takeaway": "yes",
      "drive_through": "no",
      "outdoor_seating": "no",
      "delivery": "yes",
      "addr_state": "OH",
      "addr_city": "Westerville",
      "addr_postcode": "43081",
      "addr_street": "Westerville Road",
      "addr_housenumber": "5864",
      "value": 91.91157680693101
    },
    {
      "id": 41170,
      "geometry": "POINT (-82.960693 40.146265)",
      "poi_name": "Five Guys",
      "osm_id": 3003790033,
      "amenity": "fast_food",
      "cuisine": "burger",
      "takeaway": "yes",
      "official_name": "Five Guys Burgers and Fries",
      "addr_postcode": "43240",
      "addr_street": "Polaris Parkway",
      "addr_housenumber": "2134",
      "value": 91.91157680693101
    },
    {
      "id": 64942,
      "geometry": "POINT (-82.8624 40.053701)",
      "poi_name": "Jersey Mike's Subs",
      "osm_id": 5678739678,
      "amenity": "fast_food",
      "cuisine": "sandwich",
      "takeaway": "yes",
      "value": 91.91157680693101
    },
    {
      "id": 64943,
      "geometry": "POINT (-82.86239 40.053845)",
      "poi_name": "Smoothie King",
      "osm_id": 5678739679,
      "amenity": "fast_food",
      "cuisine": "juice",
      "takeaway": "yes",
      "value": 91.91157680693101
    },
    {
      "id": 64947,
      "geometry": "POINT (-82.867284 40.051706)",
      "poi_name": "Subway",
      "osm_id": 5678739686,
      "amenity": "fast_food",
      "cuisine": "sandwich",
      "takeaway": "yes",
      "value": 91.91157680693101
    },
    {
      "id": 64957,
      "geometry": "POINT (-82.877575 40.018948)",
      "poi_name": "Subway",
      "osm_id": 5678739852,
      "amenity": "fast_food",
      "cuisine": "sandwich",
      "takeaway": "yes",
      "value": 91.91157680693101
    },
    {
      "id": 64959,
      "geometry": "POINT (-82.867015 40.018682)",
      "poi_name": "Firehouse Subs",
      "osm_id": 5678739864,
      "amenity": "fast_food",
      "cuisine": "sandwich",
      "takeaway": "yes",
      "value": 91.91157680693101
    },
    {
      "id": 64960,
      "geometry": "POINT (-82.867052 40.019389)",
      "poi_name": "Panera Bread",
      "osm_id": 5678739866,
      "amenity": "fast_food",
      "cuisine": "sandwich",
      "takeaway": "yes",
      "value": 91.91157680693101
    },
    {
      "id": 64962,
      "geometry": "POINT (-82.866854 40.019951)",
      "poi_name": "Smashburger",
      "osm_id": 5678739868,
      "amenity": "fast_food",
      "cuisine": "burger",
      "takeaway": "yes",
      "value": 91.91157680693101
    },
    {
      "id": 64963,
      "geometry": "POINT (-82.86688 40.019672)",
      "poi_name": "Chipotle",
      "osm_id": 5678739869,
      "amenity": "fast_food",
      "cuisine": "mexican",
      "takeaway": "yes",
      "official_name": "Chipotle Mexican Grill",
      "value": 91.91157680693101
    },
    {
      "id": 65743,
      "geometry": "POINT (-82.955668 40.04809)",
      "poi_name": "Michoacana",
      "osm_id": 5711248300,
      "amenity": "fast_food",
      "cuisine": "mexican",
      "shop": "convenience",
      "addr_state": "OH",
      "addr_city": "Columbus",
      "addr_postcode": "43224",
      "addr_street": "Cleveland Avenue",
      "addr_housenumber": "3881",
      "value": 91.91157680693101
    },
    {
      "id": 65744,
      "geometry": "POINT (-82.955158 40.048558)",
      "poi_name": "Terita's Pizza",
      "osm_id": 5711248301,
      "amenity": "fast_food",
      "cuisine": "pizza",
      "addr_state": "OH",
      "addr_city": "Columbus",
      "addr_postcode": "43224",
      "addr_street": "Cleveland Avenue",
      "addr_housenumber": "3905",
      "value": 91.91157680693101
    },
    {
      "id": 65819,
      "geometry": "POINT (-82.965515 40.087331)",
      "poi_name": "Chipotle",
      "osm_id": 5714360223,
      "amenity": "fast_food",
      "cuisine": "mexican",
      "takeaway": "yes",
      "official_name": "Chipotle Mexican Grill",
      "value": 91.91157680693101
    },
    {
      "id": 69783,
      "geometry": "POINT (-82.482512 40.055353)",
      "poi_name": "Arby's",
      "osm_id": 11331195180,
      "amenity": "fast_food",
      "cuisine": "sandwich",
      "opening_hours": "Mo-Su 10:00-22:00",
      "website": "https://locations.arbys.com/oh/newark/100-speedway-dr.html",
      "phone": "(740) 522-8350",
      "takeaway": "yes",
      "drive_through": "yes",
      "addr_state": "OH",
      "addr_city": "Newark",
      "addr_postcode": "43055",
      "addr_street": "Speedway Drive",
      "addr_housenumber": "100",
      "value": 91.91157680693101
    },
    {
      "id": 115427,
      "geometry": "POINT (-82.912325 40.054409)",
      "poi_name": "Dragon Donuts",
      "osm_id": 8894205332,
      "amenity": "fast_food",
      "cuisine": "donut",
      "value": 91.91157680693101
    },
    {
      "id": 71772,
      "geometry": "POINT (-82.431508 40.051372)",
      "poi_name": "WingStreet",
      "osm_id": 11401129027,
      "amenity": "fast_food",
      "cuisine": "wings",
      "takeaway": "yes",
      "addr_state": "OH",
      "addr_city": "Newark",
      "addr_postcode": "43055",
      "addr_street": "West Main Street",
      "addr_housenumber": "744",
      "value": 91.91157680693101
    },
    {
      "id": 95158,
      "geometry": "POINT (-82.921084 40.148483)",
      "poi_name": "China Express",
      "osm_id": 6388012448,
      "amenity": "fast_food",
      "cuisine": "chinese",
      "value": 91.91157680693101
    },
    {
      "id": 95159,
      "geometry": "POINT (-82.920953 40.148416)",
      "poi_name": "Domino's",
      "osm_id": 6388012450,
      "amenity": "fast_food",
      "cuisine": "pizza",
      "value": 91.91157680693101
    },
    {
      "id": 95160,
      "geometry": "POINT (-82.920119 40.149089)",
      "poi_name": "Jersey Mike's Subs",
      "osm_id": 6388012457,
      "amenity": "fast_food",
      "cuisine": "sandwich",
      "value": 91.91157680693101
    },
    {
      "id": 112759,
      "geometry": "POINT (-82.969953 40.059796)",
      "poi_name": "Wingstop",
      "osm_id": 3803863325,
      "amenity": "fast_food",
      "cuisine": "wings",
      "takeaway": "yes",
      "addr_state": "OH",
      "addr_city": "Columbus",
      "addr_postcode": "43229",
      "addr_street": "Morse Road",
      "addr_housenumber": "1823",
      "value": 91.91157680693101
    },
    {
      "id": 112760,
      "geometry": "POINT (-82.96946 40.059794)",
      "poi_name": "Jimmy John's",
      "osm_id": 3803863326,
      "amenity": "fast_food",
      "cuisine": "sandwich",
      "takeaway": "yes",
      "drive_through": "yes",
      "official_name": "Jimmy John's Gourmet Sandwiches",
      "addr_state": "OH",
      "addr_city": "Columbus",
      "addr_postcode": "43229",
      "addr_street": "Morse Road",
      "addr_housenumber": "1839",
      "value": 91.91157680693101
    },
    {
      "id": 69861,
      "geometry": "POINT (-82.430839 40.057585)",
      "poi_name": "Marco's Pizza",
      "osm_id": 11334704970,
      "amenity": "fast_food",
      "cuisine": "pizza",
      "takeaway": "yes",
      "value": 91.91157680693101
    },
    {
      "id": 98051,
      "geometry": "POINT (-82.921322 40.14716)",
      "poi_name": "Wendy's",
      "osm_id": 6505319083,
      "amenity": "fast_food",
      "cuisine": "burger",
      "takeaway": "yes",
      "drive_through": "yes",
      "value": 91.91157680693101
    },
    {
      "id": 98053,
      "geometry": "POINT (-82.922087 40.147058)",
      "poi_name": "Jimmy John's",
      "osm_id": 6505322086,
      "amenity": "fast_food",
      "cuisine": "sandwich",
      "takeaway": "yes",
      "value": 91.91157680693101
    },
    {
      "id": 98054,
      "geometry": "POINT (-82.922238 40.146278)",
      "poi_name": "Panda Express",
      "osm_id": 6505322930,
      "amenity": "fast_food",
      "cuisine": "chinese",
      "takeaway": "yes",
      "value": 91.91157680693101
    },
    {
      "id": 98055,
      "geometry": "POINT (-82.922799 40.146243)",
      "poi_name": "Chipotle",
      "osm_id": 6505327485,
      "amenity": "fast_food",
      "cuisine": "mexican",
      "takeaway": "yes",
      "official_name": "Chipotle Mexican Grill",
      "value": 91.91157680693101
    },
    {
      "id": 98056,
      "geometry": "POINT (-82.922589 40.145595)",
      "poi_name": "Panera Bread",
      "osm_id": 6505327487,
      "amenity": "fast_food",
      "cuisine": "sandwich",
      "takeaway": "yes",
      "value": 91.91157680693101
    },
    {
      "id": 109321,
      "geometry": "POINT (-82.991383 40.090138)",
      "poi_name": "Subway",
      "osm_id": 3657484427,
      "amenity": "fast_food",
      "cuisine": "sandwich",
      "takeaway": "yes",
      "value": 91.91157680693101
    },
    {
      "id": 109323,
      "geometry": "POINT (-82.994206 40.086851)",
      "poi_name": "Domino's",
      "osm_id": 3657504694,
      "amenity": "fast_food",
      "cuisine": "pizza",
      "takeaway": "yes",
      "value": 91.91157680693101
    },
    {
      "id": 124055,
      "geometry": "POINT (-82.971478 40.061994)",
      "poi_name": "China Buffet",
      "osm_id": 6898576647,
      "amenity": "fast_food",
      "cuisine": "chinese",
      "value": 91.91157680693101
    },
    {
      "id": 119930,
      "geometry": "POINT (-82.783007 39.988179)",
      "poi_name": "Subway",
      "osm_id": 9128234262,
      "amenity": "fast_food",
      "cuisine": "sandwich",
      "takeaway": "yes",
      "value": 91.91157680693101
    },
    {
      "id": 120558,
      "geometry": "POINT (-83.089212 40.094463)",
      "poi_name": "Panera Bread",
      "osm_id": 6710880623,
      "amenity": "fast_food",
      "cuisine": "sandwich;bakery",
      "takeaway": "yes",
      "value": 91.91157680693101
    },
    {
      "id": 120559,
      "geometry": "POINT (-83.092291 40.093538)",
      "poi_name": "Five Guys",
      "osm_id": 6710880643,
      "amenity": "fast_food",
      "cuisine": "burger",
      "takeaway": "yes",
      "official_name": "Five Guys Burgers and Fries",
      "value": 91.91157680693101
    },
    {
      "id": 120560,
      "geometry": "POINT (-83.092156 40.093362)",
      "poi_name": "MOD Pizza",
      "osm_id": 6710880646,
      "amenity": "fast_food",
      "cuisine": "pizza",
      "takeaway": "yes",
      "value": 91.91157680693101
    },
    {
      "id": 120561,
      "geometry": "POINT (-83.092169 40.093459)",
      "poi_name": "Penn Station",
      "osm_id": 6710880647,
      "amenity": "fast_food",
      "cuisine": "sandwich",
      "takeaway": "yes",
      "value": 91.91157680693101
    },
    {
      "id": 123041,
      "geometry": "POINT (-82.931448 40.126789)",
      "poi_name": "Cardinal Pizza",
      "osm_id": 6833266513,
      "amenity": "fast_food",
      "cuisine": "pizza",
      "addr_state": "OH",
      "addr_city": "Westerville",
      "addr_postcode": "43081",
      "addr_street": "East Main Street",
      "addr_housenumber": "10",
      "value": 91.91157680693101
    },
    {
      "id": 123020,
      "geometry": "POINT (-82.931868 40.12709)",
      "poi_name": "Whit's Frozen Custard",
      "osm_id": 6831980892,
      "amenity": "fast_food",
      "cuisine": "ice_cream",
      "addr_state": "OH",
      "addr_city": "Westerville",
      "addr_postcode": "43081",
      "addr_street": "North State Street",
      "addr_housenumber": "46",
      "value": 91.91157680693101
    },
    {
      "id": 123023,
      "geometry": "POINT (-82.931373 40.12573)",
      "poi_name": "Schneider's Bakery",
      "osm_id": 6831980902,
      "amenity": "fast_food",
      "cuisine": "donut",
      "opening_hours": "Mo,Sa 06:00-15:00; Tu-Fr 06:00-18:00",
      "drive_through": "no",
      "outdoor_seating": "no",
      "addr_state": "OH",
      "addr_city": "Westerville",
      "addr_postcode": "43081",
      "addr_street": "South State Street",
      "addr_housenumber": "6",
      "value": 91.91157680693101
    },
    {
      "id": 124056,
      "geometry": "POINT (-82.974404 40.061551)",
      "poi_name": "Papa John's",
      "osm_id": 6898576648,
      "amenity": "fast_food",
      "cuisine": "pizza",
      "takeaway": "yes",
      "addr_state": "OH",
      "addr_city": "Columbus",
      "addr_postcode": "43229",
      "addr_street": "Morse Road",
      "addr_housenumber": "1692",
      "value": 91.91157680693101
    },
    {
      "id": 125926,
      "geometry": "POINT (-82.825536 40.08932)",
      "poi_name": "Jimmy John's",
      "osm_id": 6981324743,
      "amenity": "fast_food",
      "cuisine": "sandwich",
      "takeaway": "yes",
      "official_name": "Jimmy John's Gourmet Sandwiches",
      "value": 91.91157680693101
    },
    {
      "id": 125554,
      "geometry": "POINT (-82.907293 40.055744)",
      "poi_name": "Zoup!",
      "osm_id": 6964948870,
      "amenity": "fast_food",
      "cuisine": "soup;sandwich",
      "takeaway": "yes",
      "value": 91.91157680693101
    },
    {
      "id": 125558,
      "geometry": "POINT (-82.91673 40.054263)",
      "poi_name": "Cafe Zoupas",
      "osm_id": 6964985483,
      "amenity": "fast_food",
      "cuisine": "soup",
      "value": 91.91157680693101
    },
    {
      "id": 125561,
      "geometry": "POINT (-82.916279 40.058479)",
      "poi_name": "Panera Bread",
      "osm_id": 6965046552,
      "amenity": "fast_food",
      "cuisine": "sandwich;bakery",
      "takeaway": "yes",
      "value": 91.91157680693101
    },
    {
      "id": 125562,
      "geometry": "POINT (-82.915812 40.060228)",
      "poi_name": "Papa John's",
      "osm_id": 6965046584,
      "amenity": "fast_food",
      "cuisine": "pizza",
      "takeaway": "yes",
      "value": 91.91157680693101
    },
    {
      "id": 125851,
      "geometry": "POINT (-82.927209 40.111499)",
      "poi_name": "Panera Bread",
      "osm_id": 6978650408,
      "amenity": "fast_food",
      "cuisine": "sandwich",
      "takeaway": "yes",
      "value": 91.91157680693101
    },
    {
      "id": 125852,
      "geometry": "POINT (-82.925416 40.111461)",
      "poi_name": "Smashburger",
      "osm_id": 6978650412,
      "amenity": "fast_food",
      "cuisine": "burger",
      "takeaway": "yes",
      "value": 91.91157680693101
    },
    {
      "id": 124299,
      "geometry": "POINT (-82.984923 40.06027)",
      "poi_name": "Little Caesars",
      "osm_id": 6910214373,
      "amenity": "fast_food",
      "cuisine": "pizza",
      "website": "https://littlecaesars.com/en-us/store/10416/",
      "takeaway": "yes",
      "addr_state": "OH",
      "addr_city": "Columbus",
      "addr_postcode": "43229",
      "addr_street": "Morse Road",
      "addr_housenumber": "1277",
      "value": 91.91157680693101
    },
    {
      "id": 124300,
      "geometry": "POINT (-82.984949 40.061719)",
      "poi_name": "Yogi's Hoagies",
      "osm_id": 6910214400,
      "amenity": "fast_food",
      "cuisine": "pizza",
      "value": 91.91157680693101
    },
    {
      "id": 124302,
      "geometry": "POINT (-82.98612 40.059689)",
      "poi_name": "Subway",
      "osm_id": 6910214465,
      "amenity": "fast_food",
      "cuisine": "sandwich",
      "takeaway": "yes",
      "addr_state": "OH",
      "addr_city": "Columbus",
      "addr_postcode": "43229",
      "addr_street": "Morse Road",
      "addr_housenumber": "1251",
      "value": 91.91157680693101
    },
    {
      "id": 124303,
      "geometry": "POINT (-82.981053 40.061126)",
      "poi_name": "Grandad's Pizza",
      "osm_id": 6910214487,
      "amenity": "fast_food",
      "cuisine": "pizza",
      "addr_state": "OH",
      "addr_city": "Columbus",
      "addr_postcode": "43229",
      "addr_street": "Morse Road",
      "addr_housenumber": "1418",
      "value": 91.91157680693101
    },
    {
      "id": 125854,
      "geometry": "POINT (-82.924338 40.106963)",
      "poi_name": "Rapid Fired Pizza",
      "osm_id": 6978663264,
      "amenity": "fast_food",
      "cuisine": "pizza",
      "value": 91.91157680693101
    },
    {
      "id": 126314,
      "geometry": "POINT (-82.701482 40.145582)",
      "poi_name": "Creno's Pizza",
      "osm_id": 6993598267,
      "amenity": "fast_food",
      "cuisine": "pizza",
      "value": 91.91157680693101
    },
    {
      "id": 126316,
      "geometry": "POINT (-82.686528 40.152425)",
      "poi_name": "Subway",
      "osm_id": 6993598424,
      "amenity": "fast_food",
      "cuisine": "sandwich",
      "takeaway": "yes",
      "value": 91.91157680693101
    },
    {
      "id": 126317,
      "geometry": "POINT (-82.686128 40.152948)",
      "poi_name": "Johnstown Family Restaurant",
      "osm_id": 6993598426,
      "amenity": "fast_food",
      "value": 91.91157680693101
    },
    {
      "id": 131283,
      "geometry": "POINT (-82.960566 40.146289)",
      "poi_name": "Firehouse Subs",
      "osm_id": 9908004028,
      "amenity": "fast_food",
      "cuisine": "sandwich",
      "takeaway": "yes",
      "value": 91.91157680693101
    },
    {
      "id": 126501,
      "geometry": "POINT (-82.427191 40.083491)",
      "poi_name": "Chipotle",
      "osm_id": 7006732709,
      "amenity": "fast_food",
      "cuisine": "mexican",
      "takeaway": "yes",
      "official_name": "Chipotle Mexican Grill",
      "value": 91.91157680693101
    },
    {
      "id": 126502,
      "geometry": "POINT (-82.442784 40.03125)",
      "poi_name": "KFC",
      "osm_id": 7006775886,
      "amenity": "fast_food",
      "cuisine": "chicken",
      "website": "https://locations.kfc.com/oh/heath/780-south-30th-street",
      "takeaway": "yes",
      "value": 91.91157680693101
    },
    {
      "id": 126503,
      "geometry": "POINT (-82.434465 40.034416)",
      "poi_name": "Five Guys",
      "osm_id": 7006775918,
      "amenity": "fast_food",
      "cuisine": "burger",
      "takeaway": "yes",
      "official_name": "Five Guys Burgers and Fries",
      "value": 91.91157680693101
    },
    {
      "id": 126506,
      "geometry": "POINT (-82.429878 40.037029)",
      "poi_name": "Papa John's",
      "osm_id": 7006775936,
      "amenity": "fast_food",
      "cuisine": "pizza",
      "takeaway": "yes",
      "value": 91.91157680693101
    },
    {
      "id": 126507,
      "geometry": "POINT (-82.430504 40.037923)",
      "poi_name": "Fazoli's",
      "osm_id": 7006775939,
      "amenity": "fast_food",
      "cuisine": "italian",
      "takeaway": "yes",
      "value": 91.91157680693101
    },
    {
      "id": 126509,
      "geometry": "POINT (-82.429939 40.03841)",
      "poi_name": "Chipotle",
      "osm_id": 7006775941,
      "amenity": "fast_food",
      "cuisine": "mexican",
      "takeaway": "yes",
      "official_name": "Chipotle Mexican Grill",
      "value": 91.91157680693101
    },
    {
      "id": 126510,
      "geometry": "POINT (-82.429368 40.03754)",
      "poi_name": "Arby's",
      "osm_id": 7006775942,
      "amenity": "fast_food",
      "cuisine": "sandwich",
      "takeaway": "yes",
      "value": 91.91157680693101
    },
    {
      "id": 126511,
      "geometry": "POINT (-82.429068 40.037832)",
      "poi_name": "Wendy's",
      "osm_id": 7006775943,
      "amenity": "fast_food",
      "cuisine": "burger",
      "takeaway": "yes",
      "value": 91.91157680693101
    },
    {
      "id": 126514,
      "geometry": "POINT (-82.449449 40.02374)",
      "poi_name": "Taco Bell",
      "osm_id": 7006775946,
      "amenity": "fast_food",
      "cuisine": "tex-mex",
      "website": "https://locations.tacobell.com/oh/heath/1021-hebron-rd.html",
      "takeaway": "yes",
      "value": 91.91157680693101
    },
    {
      "id": 126515,
      "geometry": "POINT (-82.449456 40.023366)",
      "poi_name": "Jimmy John's",
      "osm_id": 7006775947,
      "amenity": "fast_food",
      "cuisine": "sandwich",
      "takeaway": "yes",
      "official_name": "Jimmy John's Gourmet Sandwiches",
      "value": 91.91157680693101
    },
    {
      "id": 126516,
      "geometry": "POINT (-82.448187 40.021328)",
      "poi_name": "Subway",
      "osm_id": 7006775950,
      "amenity": "fast_food",
      "cuisine": "sandwich",
      "takeaway": "yes",
      "value": 91.91157680693101
    },
    {
      "id": 143388,
      "geometry": "POINT (-82.400446 40.057989)",
      "poi_name": "Wendy's",
      "osm_id": 6338896410,
      "amenity": "fast_food",
      "cuisine": "burger",
      "takeaway": "yes",
      "drive_through": "yes",
      "value": 91.91157680693101
    },
    {
      "id": 136521,
      "geometry": "POINT (-82.968957 40.059843)",
      "poi_name": "Chipotle",
      "osm_id": 11587842379,
      "amenity": "fast_food",
      "cuisine": "mexican",
      "takeaway": "yes",
      "official_name": "Chipotle Mexican Grill",
      "addr_state": "OH",
      "addr_city": "Columbus",
      "addr_postcode": "43229",
      "addr_street": "Morse Road",
      "addr_housenumber": "1851",
      "value": 91.91157680693101
    },
    {
      "id": 136522,
      "geometry": "POINT (-82.968859 40.059838)",
      "poi_name": "Charleys Philly Steaks",
      "osm_id": 11587842380,
      "amenity": "fast_food",
      "cuisine": "sandwich",
      "website": "https://www.charleys.com/",
      "takeaway": "yes",
      "drive_through": "yes",
      "wikidata": "Q1066777",
      "addr_state": "OH",
      "addr_city": "Columbus",
      "addr_postcode": "43229",
      "addr_street": "Morse Road",
      "addr_housenumber": "1855",
      "value": 91.91157680693101
    },
    {
      "id": 133474,
      "geometry": "POINT (-82.950225 40.11013)",
      "poi_name": "Subway",
      "osm_id": 9995570628,
      "amenity": "fast_food",
      "cuisine": "sandwich",
      "takeaway": "yes",
      "drive_through": "yes",
      "addr_state": "OH",
      "addr_city": "Columbus",
      "addr_postcode": "43229",
      "addr_street": "Schrock Road",
      "addr_housenumber": "2455",
      "value": 91.91157680693101
    },
    {
      "id": 143389,
      "geometry": "POINT (-82.402624 40.058531)",
      "poi_name": "Subway",
      "osm_id": 6338896417,
      "amenity": "fast_food",
      "cuisine": "sandwich",
      "takeaway": "yes",
      "value": 91.91157680693101
    },
    {
      "id": 214744,
      "geometry": "POINT (-83.018952 40.066767)",
      "poi_name": "Raising Cane's",
      "osm_id": 5280020788,
      "amenity": "fast_food",
      "cuisine": "chicken",
      "takeaway": "yes",
      "official_name": "Raising Cane's Chicken Fingers",
      "value": 91.91157680693101
    },
    {
      "id": 155033,
      "geometry": "POINT (-83.113589 40.099738)",
      "poi_name": "Domino's",
      "osm_id": 4267001770,
      "amenity": "fast_food",
      "cuisine": "pizza",
      "takeaway": "yes",
      "value": 91.91157680693101
    },
    {
      "id": 155041,
      "geometry": "POINT (-83.113542 40.099074)",
      "poi_name": "Vitality Smoothie and Juice",
      "osm_id": 4267020898,
      "amenity": "fast_food",
      "cuisine": "juice",
      "opening_hours": "Mo-Fr 09:00-17:00, Sa 10:00-14:00, PH off",
      "phone": "+1-614-902-7119",
      "addr_state": "OH",
      "addr_city": "Dublin",
      "addr_postcode": "43017",
      "addr_street": "High Street",
      "addr_housenumber": "22",
      "value": 91.91157680693101
    },
    {
      "id": 156409,
      "geometry": "POINT (-82.896039 40.085279)",
      "poi_name": "Arby's",
      "osm_id": 4654704105,
      "amenity": "fast_food",
      "cuisine": "sandwich",
      "takeaway": "yes",
      "drive_through": "yes",
      "outdoor_seating": "no",
      "addr_state": "OH",
      "addr_postcode": "43081",
      "addr_street": "Sunbury Road",
      "value": 91.91157680693101
    },
    {
      "id": 172992,
      "geometry": "POINT (-82.694592 39.958294)",
      "poi_name": "Subway",
      "osm_id": 2420928262,
      "amenity": "fast_food",
      "cuisine": "sandwich",
      "takeaway": "yes",
      "addr_postcode": "43062",
      "addr_street": "Columbia Road Southwest",
      "addr_housenumber": "9313",
      "value": 91.91157680693101
    },
    {
      "id": 200817,
      "geometry": "POINT (-82.923458 40.14838)",
      "poi_name": "Donato's",
      "osm_id": 598478914,
      "amenity": "fast_food",
      "value": 91.91157680693101
    },
    {
      "id": 159422,
      "geometry": "POINT (-82.865457 40.049213)",
      "poi_name": "Romeo's Pizza",
      "osm_id": 4792226379,
      "amenity": "fast_food",
      "cuisine": "pizza",
      "takeaway": "yes",
      "drive_through": "no",
      "delivery": "yes",
      "value": 91.91157680693101
    },
    {
      "id": 159423,
      "geometry": "POINT (-82.864851 40.048252)",
      "poi_name": "Dunkin' Donuts",
      "osm_id": 4792226380,
      "amenity": "fast_food",
      "cuisine": "donut;coffee",
      "takeaway": "yes",
      "drive_through": "yes",
      "delivery": "no",
      "value": 91.91157680693101
    },
    {
      "id": 161287,
      "geometry": "POINT (-82.421605 40.057316)",
      "poi_name": "Dairy Queen",
      "osm_id": 4874520531,
      "amenity": "fast_food",
      "cuisine": "ice_cream;burger",
      "takeaway": "yes",
      "drive_through": "no",
      "outdoor_seating": "yes",
      "delivery": "no",
      "addr_state": "OH",
      "addr_city": "Newark",
      "addr_postcode": "43055",
      "addr_street": "West Church Street",
      "value": 91.91157680693101
    },
    {
      "id": 170452,
      "geometry": "POINT (-83.015901 40.107497)",
      "poi_name": "Jimmy John's",
      "osm_id": 2337337276,
      "amenity": "fast_food",
      "cuisine": "sandwich",
      "takeaway": "yes",
      "official_name": "Jimmy John's Gourmet Sandwiches",
      "addr_city": "Worthington",
      "addr_street": "North High Street",
      "addr_housenumber": "7172",
      "value": 91.91157680693101
    },
    {
      "id": 170459,
      "geometry": "POINT (-83.015912 40.107444)",
      "poi_name": "Wings Over Columbus",
      "osm_id": 2337460484,
      "amenity": "fast_food",
      "cuisine": "chicken",
      "drive_through": "no",
      "addr_city": "Worthington",
      "addr_street": "North High Street",
      "addr_housenumber": "7170",
      "value": 91.91157680693101
    },
    {
      "id": 170460,
      "geometry": "POINT (-83.019125 40.107922)",
      "poi_name": "Panera Bread",
      "osm_id": 2337460486,
      "amenity": "fast_food",
      "cuisine": "sandwich;bakery",
      "takeaway": "yes",
      "value": 91.91157680693101
    },
    {
      "id": 224712,
      "geometry": "POINT (-83.090536 40.102725)",
      "poi_name": "Jimmy John's",
      "osm_id": 11095228209,
      "amenity": "fast_food",
      "cuisine": "sandwich",
      "website": "https://locations.jimmyjohns.com/oh/columbus/sandwiches-1616.html",
      "phone": "+1-614-389-3588",
      "takeaway": "yes",
      "official_name": "Jimmy John's Gourmet Sandwiches",
      "addr_state": "OH",
      "addr_city": "Columbus",
      "addr_postcode": "43235",
      "addr_street": "Sawmill Road",
      "addr_housenumber": "6618",
      "value": 91.91157680693101
    },
    {
      "id": 216630,
      "geometry": "POINT (-82.91274 40.060636)",
      "poi_name": "We're Rolling Pretzels",
      "osm_id": 9178414132,
      "amenity": "fast_food",
      "cuisine": "pretzel",
      "value": 91.91157680693101
    },
    {
      "id": 232409,
      "geometry": "POINT (-83.106302 40.098957)",
      "poi_name": "Bruegger's Bagels",
      "osm_id": 4523439891,
      "amenity": "fast_food",
      "cuisine": "bagel",
      "takeaway": "yes",
      "value": 91.91157680693101
    },
    {
      "id": 233979,
      "geometry": "POINT (-83.01516 40.118019)",
      "poi_name": "Subway",
      "osm_id": 4594586960,
      "amenity": "fast_food",
      "cuisine": "sandwich",
      "takeaway": "yes",
      "addr_state": "OH",
      "addr_city": "Columbus",
      "addr_postcode": "43235",
      "addr_street": "East Campus View Boulevard",
      "addr_housenumber": "1",
      "value": 91.91157680693101
    },
    {
      "id": 233981,
      "geometry": "POINT (-83.010204 40.117794)",
      "poi_name": "Chipotle",
      "osm_id": 4594586963,
      "amenity": "fast_food",
      "cuisine": "mexican",
      "takeaway": "yes",
      "official_name": "Chipotle Mexican Grill",
      "addr_state": "OH",
      "addr_city": "Columbus",
      "addr_postcode": "43235",
      "addr_street": "East Campus View Boulevard",
      "addr_housenumber": "191",
      "value": 91.91157680693101
    },
    {
      "id": 237725,
      "geometry": "POINT (-82.536365 39.945705)",
      "poi_name": "Subway",
      "osm_id": 5845626397,
      "amenity": "fast_food",
      "cuisine": "sandwich",
      "takeaway": "yes",
      "value": 91.91157680693101
    },
    {
      "id": 237700,
      "geometry": "POINT (-82.53501 39.93926)",
      "poi_name": "Popeyes",
      "osm_id": 5844312593,
      "amenity": "fast_food",
      "cuisine": "chicken",
      "takeaway": "yes",
      "official_name": "Popeyes Louisiana Kitchen",
      "value": 91.91157680693101
    },
    {
      "id": 237701,
      "geometry": "POINT (-82.535049 39.939172)",
      "poi_name": "Sbarro",
      "osm_id": 5844312594,
      "amenity": "fast_food",
      "cuisine": "pizza",
      "takeaway": "yes",
      "value": 91.91157680693101
    },
    {
      "id": 237084,
      "geometry": "POINT (-82.911499 40.058244)",
      "poi_name": "Chick-fil-A",
      "osm_id": 5818600079,
      "amenity": "fast_food",
      "cuisine": "chicken",
      "opening_hours": "Mo-Sa 06:30-22:00; Su closed",
      "operator": "Paul Rankin",
      "website": "https://www.chick-fil-a.com/locations/oh/easton-town-center",
      "internet_access": "wlan",
      "phone": "+1-614-414-7222",
      "takeaway": "yes",
      "drive_through": "yes",
      "outdoor_seating": "yes",
      "delivery": "yes",
      "addr_state": "OH",
      "addr_city": "Columbus",
      "addr_postcode": "43219",
      "addr_street": "Morse Road",
      "addr_housenumber": "3940",
      "value": 91.91157680693101
    },
    {
      "id": 239744,
      "geometry": "POINT (-82.925386 40.111777)",
      "poi_name": "Little Caesars",
      "osm_id": 5938026878,
      "amenity": "fast_food",
      "cuisine": "pizza",
      "website": "https://littlecaesars.com/en-us/store/8698/",
      "takeaway": "only",
      "drive_through": "no",
      "outdoor_seating": "no",
      "addr_state": "OH",
      "addr_city": "Westerville",
      "addr_postcode": "43081",
      "addr_street": "South State Street",
      "addr_housenumber": "534",
      "value": 91.91157680693101
    },
    {
      "id": 241440,
      "geometry": "POINT (-82.994711 40.135565)",
      "poi_name": "Little Caesars",
      "osm_id": 6023977331,
      "amenity": "fast_food",
      "cuisine": "pizza",
      "takeaway": "only",
      "drive_through": "no",
      "outdoor_seating": "no",
      "delivery": "no",
      "value": 91.91157680693101
    },
    {
      "id": 241502,
      "geometry": "POINT (-82.954296 40.086314)",
      "poi_name": "El Taco Peton",
      "osm_id": 6026931964,
      "amenity": "fast_food",
      "cuisine": "mexican",
      "description": "Taco Truck",
      "wheelchair": "limited",
      "value": 91.91157680693101
    },
    {
      "id": 241503,
      "geometry": "POINT (-82.958648 40.087363)",
      "poi_name": "Taco Nazo",
      "osm_id": 6026931965,
      "amenity": "fast_food",
      "cuisine": "mexican",
      "description": "Taco Truck",
      "value": 91.91157680693101
    },
    {
      "id": 240983,
      "geometry": "POINT (-82.944924 40.088616)",
      "poi_name": "Palazzo Restaurant",
      "osm_id": 6003102149,
      "amenity": "fast_food",
      "addr_state": "OH",
      "addr_city": "Columbus",
      "addr_postcode": "43231",
      "addr_street": "Forest Hills Boulevard",
      "addr_housenumber": "5707",
      "value": 91.91157680693101
    },
    {
      "id": 241415,
      "geometry": "POINT (-82.95712 40.085551)",
      "poi_name": "Dunkin'",
      "osm_id": 6022989609,
      "amenity": "fast_food",
      "cuisine": "donut;coffee_shop",
      "takeaway": "yes",
      "drive_through": "yes",
      "addr_state": "OH",
      "addr_city": "Columbus",
      "addr_postcode": "43229",
      "addr_street": "East Dublin Granville Road",
      "addr_housenumber": "2255",
      "value": 91.91157680693101
    }
  ],
  "answer_type": "name",
  "question_entities": {
    "[2]": {
      "distance": 70000,
      "text": "70 kilometers"
    },
    "[3]": {
      "main_category": "tourism",
      "sub_category": "viewpoint",
      "display_name": "Indian Run Falls Park - Observation Deck B, Dublin, OH",
      "geo_wkt": "POINT (-83.120136 40.100971)",
      "poi": {
        "id": 7435,
        "geometry": "POINT (-83.120136 40.100971)",
        "poi_name": "Indian Run Falls Park - Observation Deck B",
        "osm_id": 2151385735,
        "tourism": "viewpoint",
        "addr_state": "OH",
        "addr_city": "Dublin",
        "addr_street": "Shawan Falls Drive",
        "addr_housenumber": "700"
      }
    },
    "[4]": {
      "main_category": "leisure",
      "sub_category": "nature reserve",
      "display_name": "Denison Biological Reserve / Polly Anderson Field Station, Granville, OH",
      "geo_wkt": "POINT (-82.52007 40.084033)",
      "poi": {
        "id": 246339,
        "geometry": "POINT (-82.52007 40.084033)",
        "poi_name": "Denison Biological Reserve / Polly Anderson Field Station",
        "osm_id": 11329562516,
        "leisure": "nature_reserve",
        "addr_state": "OH",
        "addr_city": "Granville",
        "addr_postcode": "43023",
        "addr_street": "North Street",
        "addr_housenumber": "1760"
      }
    },
    "[1]": {
      "main_category": "amenity",
      "sub_category": "fast_food"
    }
  },
  "id": 1670,
  "type": "range:towards+name"
}