{
  "question": "Within a radius of 130 kilometers, which fast food restaurant can I find on the route towards Faith Arena, Surprise, AZ from Holiday Inn Hotel & Suites Phoenix Airport North, Phoenix, AZ?",
  "sql": "WITH\n    angle AS (SELECT degrees(ST_Azimuth(ST_GeomFromText('POINT (-111.986458 33.464407)',4326)::geography, ST_GeomFromText('POINT (-112.371855 33.62819)',4326)::geography)) AS value)\nSELECT * FROM pois,angle\nWHERE amenity = 'fast_food'\nAND ST_DWithin(pois.geometry, ST_GeomFromText('POINT (-111.986458 33.464407)',4326)::geography, 130000)\nAND (degrees(ST_Azimuth(ST_GeomFromText('POINT (-111.986458 33.464407)',4326)::geography, pois.geometry)) BETWEEN angle.value - 22.5 AND angle.value + 22.5);\n",
  "answers": [
    {
      "id": 29698,
      "geometry": "POINT (-112.072461 33.48826)",
      "poi_name": "Blimpie",
      "osm_id": 8320399818,
      "amenity": "fast_food",
      "cuisine": "sandwich",
      "takeaway": "yes",
      "value": 297.01535619079846
    },
    {
      "id": 29699,
      "geometry": "POINT (-112.07338 33.479755)",
      "poi_name": "Smoothie King",
      "osm_id": 8320399823,
      "amenity": "fast_food",
      "cuisine": "juice",
      "takeaway": "yes",
      "value": 297.01535619079846
    },
    {
      "id": 30782,
      "geometry": "POINT (-112.084064 33.487188)",
      "poi_name": "MOD Pizza",
      "osm_id": 8381523833,
      "amenity": "fast_food",
      "cuisine": "pizza",
      "takeaway": "yes",
      "value": 297.01535619079846
    },
    {
      "id": 30783,
      "geometry": "POINT (-112.084332 33.487219)",
      "poi_name": "Jersey Mike's Subs",
      "osm_id": 8381523834,
      "amenity": "fast_food",
      "cuisine": "sandwich",
      "takeaway": "yes",
      "value": 297.01535619079846
    },
    {
      "id": 31531,
      "geometry": "POINT (-112.122559 33.512883)",
      "poi_name": "Chick-fil-A",
      "osm_id": 8429795847,
      "amenity": "fast_food",
      "cuisine": "chicken",
      "operator": "Chick-Fil-A",
      "takeaway": "yes",
      "value": 297.01535619079846
    },
    {
      "id": 31860,
      "geometry": "POINT (-112.065284 33.494325)",
      "poi_name": "Port of Subs",
      "osm_id": 8451705240,
      "amenity": "fast_food",
      "cuisine": "sandwich",
      "website": "https://locations.portofsubs.com/port-of-subs-15aa6aaed0ff",
      "drive_through": "no",
      "addr_state": "AZ",
      "addr_city": "Phoenix",
      "addr_postcode": "85012",
      "addr_street": "East Indian School Road",
      "addr_housenumber": "635",
      "value": 297.01535619079846
    },
    {
      "id": 37440,
      "geometry": "POINT (-112.184614 33.611235)",
      "poi_name": "Chipotle",
      "osm_id": 2810720469,
      "amenity": "fast_food",
      "cuisine": "mexican",
      "takeaway": "yes",
      "drive_through": "no",
      "official_name": "Chipotle Mexican Grill",
      "addr_state": "AZ",
      "addr_city": "Glendale",
      "addr_postcode": "85306",
      "addr_street": "West Thunderbird Road",
      "addr_housenumber": "5880",
      "value": 297.01535619079846
    },
    {
      "id": 35190,
      "geometry": "POINT (-112.339476 33.509042)",
      "poi_name": "Subway",
      "osm_id": 2712684255,
      "amenity": "fast_food",
      "cuisine": "sandwich",
      "takeaway": "yes",
      "value": 297.01535619079846
    },
    {
      "id": 35352,
      "geometry": "POINT (-112.203623 33.525181)",
      "poi_name": "Subway",
      "osm_id": 2718300198,
      "amenity": "fast_food",
      "cuisine": "sandwich",
      "wheelchair": "limited",
      "opening_hours": "PH,Mo-Su 08:00-21:00",
      "internet_access": "no",
      "takeaway": "yes",
      "drive_through": "no",
      "outdoor_seating": "no",
      "delivery": "no",
      "addr_state": "AZ",
      "addr_city": "Glendale",
      "addr_postcode": "85303",
      "addr_street": "North 67th Avenue",
      "addr_housenumber": "6030",
      "value": 297.01535619079846
    },
    {
      "id": 35366,
      "geometry": "POINT (-112.182569 33.638405)",
      "poi_name": "Taco Bell",
      "osm_id": 2718606656,
      "amenity": "fast_food",
      "cuisine": "tex-mex",
      "website": "https://locations.tacobell.com/az/glendale/5705-w-bell-rd.html",
      "takeaway": "yes",
      "drive_through": "yes",
      "addr_state": "AZ",
      "addr_city": "Glendale",
      "addr_postcode": "85308",
      "addr_street": "West Bell Road",
      "addr_housenumber": "5705",
      "value": 297.01535619079846
    },
    {
      "id": 35367,
      "geometry": "POINT (-112.186967 33.640104)",
      "poi_name": "Subway",
      "osm_id": 2718606659,
      "amenity": "fast_food",
      "cuisine": "sandwich",
      "takeaway": "yes",
      "addr_state": "AZ",
      "addr_city": "Glendale",
      "addr_postcode": "85308",
      "addr_street": "West Bell Road",
      "addr_housenumber": "5932",
      "value": 297.01535619079846
    },
    {
      "id": 35368,
      "geometry": "POINT (-112.190547 33.639099)",
      "poi_name": "Little Caesars",
      "osm_id": 2718606663,
      "amenity": "fast_food",
      "cuisine": "pizza",
      "website": "https://littlecaesars.com/en-us/store/9114/",
      "takeaway": "yes",
      "addr_state": "AZ",
      "addr_city": "Glendale",
      "addr_postcode": "85308",
      "addr_street": "West Bell Road",
      "addr_housenumber": "6070",
      "value": 297.01535619079846
    },
    {
      "id": 35432,
      "geometry": "POINT (-112.183032 33.551393)",
      "poi_name": "Subway",
      "osm_id": 2720661295,
      "amenity": "fast_food",
      "cuisine": "sandwich",
      "wheelchair": "limited",
      "opening_hours": "Mo-Fr 07:00-22:00; Sa 08:00-22:00; Su 09:00-22:00",
      "website": "https://www.subway.com/en-us",
      "internet_access": "no",
      "takeaway": "yes",
      "drive_through": "no",
      "outdoor_seating": "no",
      "delivery": "no",
      "addr_state": "AZ",
      "addr_city": "Glendale",
      "addr_postcode": "85301",
      "addr_street": "West Northern Avenue",
      "addr_housenumber": "5707",
      "value": 297.01535619079846
    },
    {
      "id": 38347,
      "geometry": "POINT (-112.203634 33.524442)",
      "poi_name": "L&L Hawaiian Barbecue",
      "osm_id": 2859191104,
      "amenity": "fast_food",
      "cuisine": "hawaiian",
      "takeaway": "yes",
      "addr_state": "AZ",
      "addr_city": "Glendale",
      "addr_postcode": "85301",
      "addr_street": "North 67th Avenue",
      "value": 297.01535619079846
    },
    {
      "id": 40229,
      "geometry": "POINT (-112.030735 33.495369)",
      "poi_name": "Subway",
      "osm_id": 2962113727,
      "amenity": "fast_food",
      "cuisine": "sandwich",
      "takeaway": "yes",
      "value": 297.01535619079846
    },
    {
      "id": 39281,
      "geometry": "POINT (-112.26499 33.508852)",
      "poi_name": "Panda Express",
      "osm_id": 2913898186,
      "amenity": "fast_food",
      "cuisine": "chinese",
      "wheelchair": "limited",
      "internet_access": "no",
      "takeaway": "yes",
      "drive_through": "no",
      "outdoor_seating": "no",
      "delivery": "no",
      "addr_state": "AZ",
      "addr_city": "Glendale",
      "addr_postcode": "85305",
      "addr_street": "West Camelback Road",
      "addr_housenumber": "9524",
      "value": 297.01535619079846
    },
    {
      "id": 41866,
      "geometry": "POINT (-112.185581 33.551082)",
      "poi_name": "Long John Silver's",
      "osm_id": 3026610361,
      "amenity": "fast_food",
      "cuisine": "seafood",
      "takeaway": "yes",
      "drive_through": "yes",
      "addr_state": "AZ",
      "addr_city": "Glendale",
      "addr_postcode": "85301",
      "addr_street": "North 59th Avenue",
      "addr_housenumber": "7795",
      "value": 297.01535619079846
    },
    {
      "id": 40942,
      "geometry": "POINT (-112.185908 33.569504)",
      "poi_name": "Papa John's",
      "osm_id": 2987130053,
      "amenity": "fast_food",
      "cuisine": "pizza",
      "takeaway": "yes",
      "drive_through": "no",
      "addr_state": "AZ",
      "addr_city": "Glendale",
      "addr_postcode": "85302",
      "addr_street": "North 59th Avenue",
      "addr_housenumber": "9189",
      "value": 297.01535619079846
    },
    {
      "id": 42344,
      "geometry": "POINT (-112.261982 33.535052)",
      "poi_name": "Chipotle",
      "osm_id": 3056638552,
      "amenity": "fast_food",
      "cuisine": "mexican",
      "takeaway": "yes",
      "official_name": "Chipotle Mexican Grill",
      "value": 297.01535619079846
    },
    {
      "id": 43002,
      "geometry": "POINT (-112.0734 33.513466)",
      "poi_name": "Churn",
      "osm_id": 3091742640,
      "amenity": "fast_food",
      "cuisine": "ice_cream",
      "wheelchair": "yes",
      "website": "https://churnaz.com/",
      "phone": "+1-602-279-8024",
      "addr_state": "AZ",
      "addr_city": "Phoenix",
      "addr_postcode": "85012",
      "addr_street": "North Central Avenue",
      "addr_housenumber": "5223",
      "value": 297.01535619079846
    },
    {
      "id": 43139,
      "geometry": "POINT (-112.182507 33.638405)",
      "poi_name": "Long John Silver's",
      "osm_id": 3095084968,
      "amenity": "fast_food",
      "cuisine": "seafood",
      "takeaway": "yes",
      "drive_through": "yes",
      "addr_state": "AZ",
      "addr_city": "Glendale",
      "addr_postcode": "85308",
      "addr_street": "West Bell Road",
      "addr_housenumber": "5705",
      "value": 297.01535619079846
    },
    {
      "id": 53452,
      "geometry": "POINT (-112.034677 33.494985)",
      "poi_name": "Tacos Veganos",
      "osm_id": 10080945607,
      "amenity": "fast_food",
      "cuisine": "mexican",
      "value": 297.01535619079846
    },
    {
      "id": 50239,
      "geometry": "POINT (-112.187496 33.524607)",
      "poi_name": "Gus's Pizza",
      "osm_id": 3474218520,
      "amenity": "fast_food",
      "cuisine": "pizza",
      "value": 297.01535619079846
    },
    {
      "id": 43238,
      "geometry": "POINT (-112.063416 33.518092)",
      "poi_name": "Subway",
      "osm_id": 3102839284,
      "amenity": "fast_food",
      "cuisine": "sandwich",
      "website": "https://www.subway.com/",
      "phone": "+1-602-264-0773",
      "takeaway": "yes",
      "addr_state": "AZ",
      "addr_postcode": "85014",
      "addr_street": "North 7th Street",
      "addr_housenumber": "5555",
      "value": 297.01535619079846
    },
    {
      "id": 43391,
      "geometry": "POINT (-112.068933 33.479652)",
      "poi_name": "Del Taco",
      "osm_id": 3108538456,
      "amenity": "fast_food",
      "cuisine": "mexican",
      "website": "https://deltaco.com/",
      "phone": "+1-602-234-0857",
      "takeaway": "yes",
      "drive_through": "yes",
      "addr_state": "AZ",
      "addr_city": "Phoenix",
      "addr_postcode": "85012",
      "addr_street": "East Thomas Road",
      "addr_housenumber": "305",
      "value": 297.01535619079846
    },
    {
      "id": 43528,
      "geometry": "POINT (-112.261407 33.552039)",
      "poi_name": "Long John Silver's",
      "osm_id": 3117929501,
      "amenity": "fast_food",
      "cuisine": "seafood",
      "takeaway": "yes",
      "drive_through": "yes",
      "addr_state": "AZ",
      "addr_city": "Peoria",
      "addr_postcode": "85305",
      "addr_street": "West Northern Avenue",
      "addr_housenumber": "9380",
      "value": 297.01535619079846
    },
    {
      "id": 46250,
      "geometry": "POINT (-112.04705 33.50731)",
      "poi_name": "ZK Grill",
      "osm_id": 3254760982,
      "amenity": "fast_food",
      "cuisine": "mediterranean",
      "wheelchair": "yes",
      "website": "http://www.zkgrill.com/",
      "phone": "+1-602-263-3663",
      "value": 297.01535619079846
    },
    {
      "id": 50806,
      "geometry": "POINT (-112.131745 33.526484)",
      "poi_name": "McDonald's",
      "osm_id": 3507893972,
      "amenity": "fast_food",
      "cuisine": "burger",
      "website": "https://www.mcdonalds.com/us/en-us/location/az/phoenix/6145-n-35th-ave-walmart-5330/30879.html",
      "takeaway": "yes",
      "drive_through": "no",
      "delivery": "no",
      "addr_state": "AZ",
      "addr_city": "Phoenix",
      "addr_postcode": "85017",
      "addr_street": "North 35th Avenue",
      "addr_housenumber": "6145",
      "value": 297.01535619079846
    },
    {
      "id": 60585,
      "geometry": "POINT (-112.722184 33.971837)",
      "poi_name": "Sundance Pizza and Tasty Freeze",
      "osm_id": 5471768924,
      "amenity": "fast_food",
      "cuisine": "american;italian_pizza;ice_cream",
      "opening_hours": "Mo-Su 08:00-21:00",
      "phone": "928-684-7569",
      "addr_postcode": "85390",
      "addr_street": "Wichenburg Way",
      "addr_housenumber": "512",
      "value": 297.01535619079846
    },
    {
      "id": 58540,
      "geometry": "POINT (-112.219589 33.640058)",
      "poi_name": "Zero Degrees",
      "osm_id": 5381781907,
      "amenity": "fast_food",
      "cuisine": "asian_fusion",
      "website": "https://zerodegreescompany.com/",
      "takeaway": "yes",
      "addr_state": "AZ",
      "addr_city": "Glendale",
      "addr_postcode": "85308",
      "addr_street": "West Bell Road",
      "addr_housenumber": "7480",
      "value": 297.01535619079846
    },
    {
      "id": 55086,
      "geometry": "POINT (-112.099112 33.53726)",
      "poi_name": "Pizza Patron",
      "osm_id": 10170751906,
      "amenity": "fast_food",
      "cuisine": "pizza",
      "wheelchair": "limited",
      "internet_access": "no",
      "takeaway": "yes",
      "drive_through": "no",
      "outdoor_seating": "no",
      "value": 297.01535619079846
    },
    {
      "id": 55256,
      "geometry": "POINT (-112.228476 33.63883)",
      "poi_name": "The Habit Burger Grill",
      "osm_id": 10178942060,
      "amenity": "fast_food",
      "cuisine": "burger",
      "takeaway": "yes",
      "addr_state": "AZ",
      "addr_city": "Glendale",
      "addr_postcode": "85308",
      "addr_street": "West Bell Road",
      "addr_housenumber": "7870",
      "value": 297.01535619079846
    },
    {
      "id": 62955,
      "geometry": "POINT (-112.150745 33.598346)",
      "poi_name": "Georgio\u2019s Subs & Boba Tea",
      "osm_id": 5595371830,
      "amenity": "fast_food",
      "opening_hours": "Mo-Sa 10:00-21:00; Su 10:00-19:00",
      "website": "www.georgiosubs.com",
      "phone": "+1-602-682-7152",
      "drive_through": "no",
      "addr_state": "AZ",
      "addr_city": "Phoenix",
      "addr_postcode": "85029",
      "addr_street": "West Cactus Road",
      "addr_housenumber": "4212",
      "value": 297.01535619079846
    },
    {
      "id": 67479,
      "geometry": "POINT (-112.339381 33.507216)",
      "poi_name": "Carl's Jr.",
      "osm_id": 11236686885,
      "amenity": "fast_food",
      "cuisine": "burger",
      "website": "https://locations.carlsjr.com/az/litchfield-park/13025-west-camelback-rd",
      "takeaway": "yes",
      "value": 297.01535619079846
    },
    {
      "id": 66871,
      "geometry": "POINT (-112.23399 33.63623)",
      "poi_name": "Chipotle",
      "osm_id": 11214932350,
      "amenity": "fast_food",
      "cuisine": "mexican",
      "takeaway": "yes",
      "official_name": "Chipotle Mexican Grill",
      "value": 297.01535619079846
    },
    {
      "id": 67227,
      "geometry": "POINT (-112.386779 33.639231)",
      "poi_name": "Pita Wraps",
      "osm_id": 11229169953,
      "amenity": "fast_food",
      "cuisine": "sandwich",
      "website": "https://pitawrapssurprise.com/",
      "value": 297.01535619079846
    },
    {
      "id": 68726,
      "geometry": "POINT (-112.256186 33.580336)",
      "poi_name": "Subway",
      "osm_id": 11282522672,
      "amenity": "fast_food",
      "cuisine": "sandwich",
      "takeaway": "yes",
      "value": 297.01535619079846
    },
    {
      "id": 68734,
      "geometry": "POINT (-112.25294 33.565347)",
      "poi_name": "Wingstop",
      "osm_id": 11282565226,
      "amenity": "fast_food",
      "cuisine": "wings",
      "takeaway": "yes",
      "value": 297.01535619079846
    },
    {
      "id": 68737,
      "geometry": "POINT (-112.252796 33.565846)",
      "poi_name": "Papa John's",
      "osm_id": 11282565231,
      "amenity": "fast_food",
      "cuisine": "pizza",
      "takeaway": "yes",
      "value": 297.01535619079846
    },
    {
      "id": 68738,
      "geometry": "POINT (-112.252951 33.565924)",
      "poi_name": "Subway",
      "osm_id": 11282565232,
      "amenity": "fast_food",
      "cuisine": "sandwich",
      "takeaway": "yes",
      "value": 297.01535619079846
    },
    {
      "id": 69254,
      "geometry": "POINT (-112.260958 33.534788)",
      "poi_name": "Johnny's Chicken & Waffles",
      "osm_id": 11298671720,
      "amenity": "fast_food",
      "cuisine": "chicken",
      "value": 297.01535619079846
    },
    {
      "id": 69260,
      "geometry": "POINT (-112.261895 33.532033)",
      "poi_name": "Vienna Beef",
      "osm_id": 11298719350,
      "amenity": "fast_food",
      "cuisine": "hot_dog",
      "value": 297.01535619079846
    },
    {
      "id": 69261,
      "geometry": "POINT (-112.261753 33.531476)",
      "poi_name": "Big City Reds Beef Hotdogs",
      "osm_id": 11298719351,
      "amenity": "fast_food",
      "cuisine": "hot_dog",
      "value": 297.01535619079846
    },
    {
      "id": 69262,
      "geometry": "POINT (-112.260734 33.531809)",
      "poi_name": "Wetzel's Pretzels",
      "osm_id": 11298719352,
      "amenity": "fast_food",
      "cuisine": "pretzel",
      "takeaway": "yes",
      "value": 297.01535619079846
    },
    {
      "id": 69583,
      "geometry": "POINT (-112.276886 33.507517)",
      "poi_name": "Jimmy John's",
      "osm_id": 11311097835,
      "amenity": "fast_food",
      "cuisine": "sandwich",
      "takeaway": "yes",
      "official_name": "Jimmy John's Gourmet Sandwiches",
      "value": 297.01535619079846
    },
    {
      "id": 74607,
      "geometry": "POINT (-112.118365 33.515223)",
      "poi_name": "Panera Bread",
      "osm_id": 9688403726,
      "amenity": "fast_food",
      "cuisine": "sandwich;bakery",
      "takeaway": "yes",
      "value": 297.01535619079846
    },
    {
      "id": 72706,
      "geometry": "POINT (-112.225031 33.642211)",
      "poi_name": "Dairy Queen",
      "osm_id": 11444827404,
      "amenity": "fast_food",
      "cuisine": "ice_cream;burger",
      "takeaway": "yes",
      "value": 297.01535619079846
    },
    {
      "id": 72707,
      "geometry": "POINT (-112.225032 33.642132)",
      "poi_name": "Panda Express",
      "osm_id": 11444827405,
      "amenity": "fast_food",
      "cuisine": "chinese",
      "takeaway": "yes",
      "value": 297.01535619079846
    },
    {
      "id": 72708,
      "geometry": "POINT (-112.225672 33.642215)",
      "poi_name": "Panera Bread",
      "osm_id": 11444827406,
      "amenity": "fast_food",
      "cuisine": "sandwich;bakery",
      "takeaway": "yes",
      "value": 297.01535619079846
    },
    {
      "id": 72709,
      "geometry": "POINT (-112.225128 33.642367)",
      "poi_name": "Sbarro",
      "osm_id": 11444827407,
      "amenity": "fast_food",
      "cuisine": "pizza",
      "takeaway": "yes",
      "value": 297.01535619079846
    },
    {
      "id": 72711,
      "geometry": "POINT (-112.225078 33.642327)",
      "poi_name": "Little Tokyo",
      "osm_id": 11444827410,
      "amenity": "fast_food",
      "cuisine": "japanese",
      "value": 297.01535619079846
    },
    {
      "id": 72712,
      "geometry": "POINT (-112.22559 33.642279)",
      "poi_name": "Chipotle",
      "osm_id": 11444827411,
      "amenity": "fast_food",
      "cuisine": "mexican",
      "takeaway": "yes",
      "official_name": "Chipotle Mexican Grill",
      "value": 297.01535619079846
    },
    {
      "id": 70426,
      "geometry": "POINT (-112.043833 33.508509)",
      "poi_name": "California Fish Grill",
      "osm_id": 11362518336,
      "amenity": "fast_food",
      "cuisine": "seafood",
      "takeaway": "yes",
      "value": 297.01535619079846
    },
    {
      "id": 70427,
      "geometry": "POINT (-112.043826 33.508742)",
      "poi_name": "Ike's Love and Sandwiches",
      "osm_id": 11362518337,
      "amenity": "fast_food",
      "cuisine": "sandwich",
      "takeaway": "yes",
      "value": 297.01535619079846
    },
    {
      "id": 71176,
      "geometry": "POINT (-112.039849 33.507912)",
      "poi_name": "Kura Sushi",
      "osm_id": 11383814660,
      "amenity": "fast_food",
      "cuisine": "sushi",
      "takeaway": "yes",
      "official_name": "Kura Revolving Sushi Bar",
      "value": 297.01535619079846
    },
    {
      "id": 73149,
      "geometry": "POINT (-112.071608 33.509634)",
      "poi_name": "Chipotle",
      "osm_id": 9610153738,
      "amenity": "fast_food",
      "cuisine": "mexican",
      "takeaway": "yes",
      "official_name": "Chipotle Mexican Grill",
      "value": 297.01535619079846
    },
    {
      "id": 74608,
      "geometry": "POINT (-112.118513 33.515241)",
      "poi_name": "N\u00e9kter Juice Bar",
      "osm_id": 9688403727,
      "amenity": "fast_food",
      "cuisine": "juice",
      "takeaway": "yes",
      "value": 297.01535619079846
    },
    {
      "id": 82225,
      "geometry": "POINT (-112.07587 33.480023)",
      "poi_name": "Pino's Pizza",
      "osm_id": 1688051396,
      "amenity": "fast_food",
      "cuisine": "pizza",
      "website": "http://www.pinospizzaalcentrophoenix.com/",
      "phone": "+1-602-279-3237",
      "addr_state": "AZ",
      "addr_city": "Phoenix",
      "addr_postcode": "85013",
      "addr_street": "West Thomas Road",
      "addr_housenumber": "37",
      "value": 297.01535619079846
    },
    {
      "id": 81701,
      "geometry": "POINT (-112.204713 33.494041)",
      "poi_name": "Peter Pipper Pizza",
      "osm_id": 1656491436,
      "amenity": "fast_food",
      "cuisine": "pizza",
      "addr_state": "AZ",
      "addr_city": "Phoenix",
      "addr_postcode": "85033",
      "value": 297.01535619079846
    },
    {
      "id": 81725,
      "geometry": "POINT (-112.202939 33.480792)",
      "poi_name": "Domino's",
      "osm_id": 1659598787,
      "amenity": "fast_food",
      "cuisine": "pizza",
      "takeaway": "yes",
      "drive_through": "no",
      "addr_state": "AZ",
      "addr_city": "Phoenix",
      "addr_postcode": "85033",
      "addr_street": "West Thomas Road",
      "addr_housenumber": "6650",
      "value": 297.01535619079846
    },
    {
      "id": 82178,
      "geometry": "POINT (-112.013278 33.481088)",
      "poi_name": "Subway",
      "osm_id": 1686021869,
      "amenity": "fast_food",
      "cuisine": "sandwich",
      "takeaway": "yes",
      "value": 297.01535619079846
    },
    {
      "id": 82226,
      "geometry": "POINT (-112.076655 33.480027)",
      "poi_name": "ZPizza",
      "osm_id": 1688051397,
      "amenity": "fast_food",
      "cuisine": "pizza",
      "website": "https://www.zpizza.com/",
      "phone": "+1-602-234-3289",
      "value": 297.01535619079846
    },
    {
      "id": 84776,
      "geometry": "POINT (-112.513849 33.765343)",
      "poi_name": "Subway",
      "osm_id": 1814508673,
      "amenity": "fast_food",
      "cuisine": "sandwich",
      "takeaway": "yes",
      "addr_state": "AZ",
      "addr_city": "Wittmann",
      "addr_postcode": "85361",
      "addr_street": "US Highway 60",
      "addr_housenumber": "31120",
      "value": 297.01535619079846
    },
    {
      "id": 89900,
      "geometry": "POINT (-112.107817 33.508345)",
      "poi_name": "BoSa Donuts",
      "osm_id": 8869073082,
      "amenity": "fast_food",
      "cuisine": "donut",
      "website": "https://bosadonutsaz.com",
      "phone": "+1-602-368-4477",
      "drive_through": "no",
      "addr_state": "AZ",
      "addr_city": "Phoenix",
      "addr_postcode": "85015",
      "addr_street": "West Camelback Road",
      "addr_housenumber": "2211",
      "value": 297.01535619079846
    },
    {
      "id": 86759,
      "geometry": "POINT (-112.101633 33.495487)",
      "poi_name": "Subway",
      "osm_id": 1950138924,
      "amenity": "fast_food",
      "cuisine": "sandwich",
      "website": "https://www.subway.com",
      "takeaway": "yes",
      "value": 297.01535619079846
    },
    {
      "id": 87655,
      "geometry": "POINT (-112.720221 33.968727)",
      "poi_name": "Filibertos",
      "osm_id": 8730218843,
      "amenity": "fast_food",
      "cuisine": "mexican",
      "website": "https://www.filibertos.com/",
      "drive_through": "yes",
      "value": 297.01535619079846
    },
    {
      "id": 103258,
      "geometry": "POINT (-112.152873 33.579208)",
      "poi_name": "Wally Burger",
      "osm_id": 8493064122,
      "amenity": "fast_food",
      "website": "https://www.wallyburgeraz.com",
      "value": 297.01535619079846
    },
    {
      "id": 94560,
      "geometry": "POINT (-112.217824 33.539092)",
      "poi_name": "Hungry Howie's",
      "osm_id": 2253407254,
      "amenity": "fast_food",
      "cuisine": "pizza",
      "opening_hours": "Mo-Su 10:30-22:00; Fr,Sa 10:30-24:00",
      "website": "https://www.hungryhowies.com/",
      "takeaway": "yes",
      "drive_through": "no",
      "addr_state": "AZ",
      "addr_city": "Glendale",
      "addr_postcode": "85303",
      "addr_street": "West Glendale Avenue",
      "addr_housenumber": "7448",
      "value": 297.01535619079846
    },
    {
      "id": 94564,
      "geometry": "POINT (-112.239611 33.537138)",
      "poi_name": "Subway",
      "osm_id": 2253681379,
      "amenity": "fast_food",
      "cuisine": "sandwich",
      "wheelchair": "limited",
      "internet_access": "no",
      "takeaway": "yes",
      "drive_through": "no",
      "outdoor_seating": "no",
      "delivery": "no",
      "addr_state": "AZ",
      "addr_city": "Glendale",
      "addr_postcode": "85305",
      "addr_street": "West Glendale Avenue",
      "addr_housenumber": "8345",
      "value": 297.01535619079846
    },
    {
      "id": 91128,
      "geometry": "POINT (-112.420502 33.612141)",
      "poi_name": "McDonald's",
      "osm_id": 2045384800,
      "amenity": "fast_food",
      "cuisine": "burger",
      "website": "https://www.mcdonalds.com/us/en-us/location/az/surprise/loop-303--wadell-walmart-5429/32405.html",
      "takeaway": "yes",
      "drive_through": "no",
      "addr_state": "AZ",
      "addr_city": "Surprise",
      "addr_postcode": "85388",
      "addr_street": "North Prasada Gateway",
      "addr_housenumber": "14111",
      "value": 297.01535619079846
    },
    {
      "id": 97564,
      "geometry": "POINT (-112.272904 33.711511)",
      "poi_name": "Smashburger",
      "osm_id": 6484024031,
      "amenity": "fast_food",
      "cuisine": "burger",
      "takeaway": "yes",
      "addr_state": "AZ",
      "value": 297.01535619079846
    },
    {
      "id": 97565,
      "geometry": "POINT (-112.273096 33.711408)",
      "poi_name": "Chipotle",
      "osm_id": 6484024032,
      "amenity": "fast_food",
      "cuisine": "mexican",
      "takeaway": "yes",
      "official_name": "Chipotle Mexican Grill",
      "addr_state": "AZ",
      "addr_city": "Peoria",
      "addr_postcode": "85383",
      "addr_street": "West Happy Valley Parkway",
      "addr_housenumber": "9940",
      "value": 297.01535619079846
    },
    {
      "id": 97566,
      "geometry": "POINT (-112.272816 33.711857)",
      "poi_name": "Panera Bread",
      "osm_id": 6484024033,
      "amenity": "fast_food",
      "cuisine": "sandwich;bakery",
      "takeaway": "yes",
      "addr_state": "AZ",
      "value": 297.01535619079846
    },
    {
      "id": 97567,
      "geometry": "POINT (-112.273514 33.711575)",
      "poi_name": "Dunkin'",
      "osm_id": 6484024034,
      "amenity": "fast_food",
      "cuisine": "donut;coffee_shop",
      "takeaway": "yes",
      "addr_state": "AZ",
      "addr_city": "Peoria",
      "addr_postcode": "85383",
      "addr_street": "West Happy Valley Parkway",
      "addr_housenumber": "9940",
      "value": 297.01535619079846
    },
    {
      "id": 97569,
      "geometry": "POINT (-112.272901 33.710339)",
      "poi_name": "Rubio's",
      "osm_id": 6484024045,
      "amenity": "fast_food",
      "cuisine": "mexican",
      "takeaway": "yes",
      "drive_through": "no",
      "official_name": "Rubio's Coastal Grill",
      "addr_state": "AZ",
      "addr_city": "Peoria",
      "addr_postcode": "85383",
      "addr_street": "North Lake Pleasant Parkway",
      "addr_housenumber": "24920",
      "value": 297.01535619079846
    },
    {
      "id": 97570,
      "geometry": "POINT (-112.271424 33.711376)",
      "poi_name": "Jimmy John's",
      "osm_id": 6484024055,
      "amenity": "fast_food",
      "cuisine": "sandwich",
      "takeaway": "yes",
      "drive_through": "no",
      "official_name": "Jimmy John's Gourmet Sandwiches",
      "addr_state": "AZ",
      "addr_city": "Peoria",
      "addr_postcode": "85383",
      "addr_street": "North Lake Pleasant Parkway",
      "addr_housenumber": "25101",
      "value": 297.01535619079846
    },
    {
      "id": 103363,
      "geometry": "POINT (-112.287553 33.601353)",
      "poi_name": "Subway",
      "osm_id": 8497836581,
      "amenity": "fast_food",
      "cuisine": "sandwich",
      "takeaway": "yes",
      "drive_through": "no",
      "addr_state": "AZ",
      "addr_city": "Sun City",
      "addr_postcode": "85351",
      "addr_street": "Grand Avenue",
      "addr_housenumber": "10659",
      "value": 297.01535619079846
    },
    {
      "id": 103466,
      "geometry": "POINT (-112.127736 33.49391)",
      "poi_name": "Little Caesars",
      "osm_id": 8502740099,
      "amenity": "fast_food",
      "cuisine": "pizza",
      "website": "https://littlecaesars.com/en-us/store/1338/",
      "takeaway": "yes",
      "value": 297.01535619079846
    },
    {
      "id": 103467,
      "geometry": "POINT (-112.04628 33.494026)",
      "poi_name": "Little Caesars",
      "osm_id": 8502740406,
      "amenity": "fast_food",
      "cuisine": "pizza",
      "website": "https://littlecaesars.com/en-us/store/11065/",
      "takeaway": "yes",
      "value": 297.01535619079846
    },
    {
      "id": 103465,
      "geometry": "POINT (-112.12731 33.49451)",
      "poi_name": "Wingstop",
      "osm_id": 8502740087,
      "amenity": "fast_food",
      "cuisine": "wings",
      "takeaway": "yes",
      "addr_state": "AZ",
      "addr_city": "Phoenix",
      "addr_postcode": "85017",
      "addr_street": "West Indian School Road",
      "addr_housenumber": "3155",
      "value": 297.01535619079846
    },
    {
      "id": 105678,
      "geometry": "POINT (-112.235681 33.508594)",
      "poi_name": "The Donut Shoppe",
      "osm_id": 8639290189,
      "amenity": "fast_food",
      "drive_through": "no",
      "addr_state": "AZ",
      "addr_city": "Phoenix",
      "addr_postcode": "85033",
      "addr_street": "West Camelback Road",
      "addr_housenumber": "8141",
      "value": 297.01535619079846
    },
    {
      "id": 103976,
      "geometry": "POINT (-112.039884 33.507495)",
      "poi_name": "Panera Bread",
      "osm_id": 8535599726,
      "amenity": "fast_food",
      "cuisine": "sandwich;bakery",
      "takeaway": "yes",
      "value": 297.01535619079846
    },
    {
      "id": 104116,
      "geometry": "POINT (-112.1856 33.652497)",
      "poi_name": "Rosati's",
      "osm_id": 8548547293,
      "amenity": "fast_food",
      "cuisine": "pizza",
      "opening_hours": "Mo-Su 11:00-21:00; Fr-Sa 11:00-22:00",
      "takeaway": "yes",
      "drive_through": "no",
      "official_name": "Rosati's Authentic Chicago Pizza",
      "delivery": "yes",
      "addr_state": "AZ",
      "addr_city": "Glendale",
      "addr_postcode": "85308",
      "addr_street": "North 59th Avenue",
      "addr_housenumber": "18555",
      "value": 297.01535619079846
    },
    {
      "id": 105313,
      "geometry": "POINT (-112.3582 33.610569)",
      "poi_name": "Rosati's",
      "osm_id": 8617321143,
      "amenity": "fast_food",
      "cuisine": "pizza",
      "opening_hours": "Mo-Th 14:00-22:00; Fr,Sa 11:00-23:00; Su 11:00-22:00",
      "takeaway": "yes",
      "drive_through": "no",
      "official_name": "Rosati's Authentic Chicago Pizza",
      "delivery": "yes",
      "addr_state": "AZ",
      "addr_city": "Surprise",
      "addr_postcode": "85379",
      "addr_street": "West Waddell Road",
      "addr_housenumber": "13856",
      "value": 297.01535619079846
    },
    {
      "id": 103611,
      "geometry": "POINT (-112.187711 33.55355)",
      "poi_name": "Popeyes",
      "osm_id": 8512595885,
      "amenity": "fast_food",
      "cuisine": "chicken",
      "wheelchair": "limited",
      "internet_access": "no",
      "takeaway": "yes",
      "drive_through": "yes",
      "official_name": "Popeyes Louisiana Kitchen",
      "outdoor_seating": "no",
      "delivery": "no",
      "addr_state": "AZ",
      "addr_city": "Glendale",
      "addr_postcode": "85301",
      "addr_street": "West Northern Avenue",
      "addr_housenumber": "5930",
      "value": 297.01535619079846
    },
    {
      "id": 108625,
      "geometry": "POINT (-112.168419 33.480261)",
      "poi_name": "Rainbow Donuts",
      "osm_id": 3630196011,
      "amenity": "fast_food",
      "value": 297.01535619079846
    },
    {
      "id": 107876,
      "geometry": "POINT (-112.09114 33.479795)",
      "poi_name": "Original Hamburger Works",
      "osm_id": 3582220098,
      "amenity": "fast_food",
      "cuisine": "burger",
      "wheelchair": "yes",
      "opening_hours": "Mo-Su 11:00-22:00",
      "phone": "+1-602-263-8693",
      "value": 297.01535619079846
    },
    {
      "id": 108508,
      "geometry": "POINT (-112.358403 33.642256)",
      "poi_name": "McDonald's",
      "osm_id": 3622852512,
      "amenity": "fast_food",
      "cuisine": "burger",
      "website": "https://www.mcdonalds.com/us/en-us/location/az/surprise/13770-w-bell-rd-walmart-2777/29371.html",
      "takeaway": "yes",
      "drive_through": "no",
      "addr_state": "AZ",
      "addr_city": "Surprise",
      "addr_postcode": "85374",
      "addr_street": "West Bell Road",
      "addr_housenumber": "13770",
      "value": 297.01535619079846
    },
    {
      "id": 109495,
      "geometry": "POINT (-112.185583 33.55239)",
      "poi_name": "Chipotle",
      "osm_id": 3662137311,
      "amenity": "fast_food",
      "cuisine": "mexican",
      "wheelchair": "limited",
      "internet_access": "no",
      "takeaway": "yes",
      "drive_through": "no",
      "official_name": "Chipotle Mexican Grill",
      "outdoor_seating": "no",
      "delivery": "no",
      "addr_state": "AZ",
      "addr_city": "Glendale",
      "addr_postcode": "85301",
      "addr_street": "West Northern Avenue",
      "addr_housenumber": "5849",
      "value": 297.01535619079846
    },
    {
      "id": 111054,
      "geometry": "POINT (-112.047197 33.508896)",
      "poi_name": "Chick-fil-A",
      "osm_id": 3728806869,
      "amenity": "fast_food",
      "cuisine": "chicken",
      "takeaway": "yes",
      "drive_through": "yes",
      "value": 297.01535619079846
    },
    {
      "id": 111055,
      "geometry": "POINT (-112.046178 33.508748)",
      "poi_name": "McDonald's",
      "osm_id": 3728806870,
      "amenity": "fast_food",
      "cuisine": "burger",
      "website": "https://www.mcdonalds.com/us/en-us/location/az/phoenix/1635-e-camelback-rd/22352.html",
      "takeaway": "yes",
      "drive_through": "yes",
      "value": 297.01535619079846
    },
    {
      "id": 113179,
      "geometry": "POINT (-112.267003 33.534412)",
      "poi_name": "Wetzel's Pretzels",
      "osm_id": 3823718582,
      "amenity": "fast_food",
      "cuisine": "pretzel",
      "wheelchair": "yes",
      "opening_hours": "Su-Th 10:00-20:00, Fr-Sa 10:00-21:00",
      "phone": "+623-772-5554",
      "takeaway": "yes",
      "drive_through": "no",
      "addr_state": "AZ",
      "addr_city": "Glendale",
      "addr_postcode": "85305",
      "addr_street": "North 95th Avenue",
      "addr_housenumber": "6800",
      "value": 297.01535619079846
    },
    {
      "id": 112185,
      "geometry": "POINT (-112.073385 33.47947)",
      "poi_name": "Domino's",
      "osm_id": 3782832479,
      "amenity": "fast_food",
      "cuisine": "pizza",
      "takeaway": "yes",
      "value": 297.01535619079846
    },
    {
      "id": 112186,
      "geometry": "POINT (-112.075012 33.484294)",
      "poi_name": "Jamba",
      "osm_id": 3782832482,
      "amenity": "fast_food",
      "cuisine": "juice",
      "takeaway": "yes",
      "value": 297.01535619079846
    },
    {
      "id": 112187,
      "geometry": "POINT (-112.074993 33.483828)",
      "poi_name": "Jimmy John's",
      "osm_id": 3782832483,
      "amenity": "fast_food",
      "cuisine": "sandwich",
      "takeaway": "yes",
      "official_name": "Jimmy John's Gourmet Sandwiches",
      "value": 297.01535619079846
    },
    {
      "id": 112188,
      "geometry": "POINT (-112.073391 33.479561)",
      "poi_name": "Lennys Burger",
      "osm_id": 3782832484,
      "amenity": "fast_food",
      "cuisine": "burger",
      "value": 297.01535619079846
    },
    {
      "id": 112189,
      "geometry": "POINT (-112.073385 33.479952)",
      "poi_name": "Panera Bread",
      "osm_id": 3782832485,
      "amenity": "fast_food",
      "cuisine": "sandwich;bakery",
      "takeaway": "yes",
      "value": 297.01535619079846
    },
    {
      "id": 112191,
      "geometry": "POINT (-112.073392 33.479413)",
      "poi_name": "Subway",
      "osm_id": 3782832488,
      "amenity": "fast_food",
      "cuisine": "sandwich",
      "takeaway": "yes",
      "value": 297.01535619079846
    },
    {
      "id": 111722,
      "geometry": "POINT (-112.261496 33.552199)",
      "poi_name": "Taco Bell",
      "osm_id": 3760985203,
      "amenity": "fast_food",
      "cuisine": "tex-mex",
      "website": "https://locations.tacobell.com/az/glendale/9380-w--northern-avenue.html",
      "takeaway": "yes",
      "drive_through": "yes",
      "addr_state": "AZ",
      "addr_city": "Peoria",
      "addr_postcode": "85305",
      "addr_street": "West Northern Avenue",
      "addr_housenumber": "9380",
      "value": 297.01535619079846
    },
    {
      "id": 113180,
      "geometry": "POINT (-112.26671 33.533123)",
      "poi_name": "Wetzel's Pretzels",
      "osm_id": 3823718869,
      "amenity": "fast_food",
      "cuisine": "pretzel",
      "wheelchair": "yes",
      "opening_hours": "Su-Th 10:00-20:00, Fr-Sa 10:00-21:00",
      "phone": "+623-877-1077",
      "takeaway": "yes",
      "drive_through": "no",
      "addr_state": "AZ",
      "addr_city": "Glendale",
      "addr_postcode": "85305",
      "addr_street": "North 95th Avenue",
      "addr_housenumber": "6800",
      "value": 297.01535619079846
    },
    {
      "id": 113182,
      "geometry": "POINT (-112.266561 33.533717)",
      "poi_name": "Dairy Queen",
      "osm_id": 3823719169,
      "amenity": "fast_food",
      "cuisine": "ice_cream;burger",
      "wheelchair": "yes",
      "opening_hours": "Su-Th 10:00-20:00, Fr-Sa 10:00-21:00",
      "phone": "+623-877-3147",
      "takeaway": "yes",
      "drive_through": "no",
      "addr_state": "AZ",
      "addr_city": "Glendale",
      "addr_postcode": "85305",
      "addr_street": "North 95th Avenue",
      "addr_housenumber": "6800",
      "value": 297.01535619079846
    },
    {
      "id": 113183,
      "geometry": "POINT (-112.26687 33.53372)",
      "poi_name": "Subway",
      "osm_id": 3823719171,
      "amenity": "fast_food",
      "cuisine": "sandwich",
      "wheelchair": "yes",
      "opening_hours": "Su-Th 10:00-20:00, Fr-Sa 10:00-21:00",
      "phone": "+623-877-2127",
      "takeaway": "yes",
      "drive_through": "no",
      "addr_state": "AZ",
      "addr_city": "Glendale",
      "addr_postcode": "85305",
      "addr_street": "North 95th Avenue",
      "addr_housenumber": "6800",
      "value": 297.01535619079846
    },
    {
      "id": 113184,
      "geometry": "POINT (-112.267089 33.535181)",
      "poi_name": "Nestl\u00e9 Toll House Caf\u00e9",
      "osm_id": 3823719265,
      "amenity": "fast_food",
      "cuisine": "dessert",
      "wheelchair": "yes",
      "opening_hours": "Su-Th 10:00-20:00, Fr-Sa 10:00-21:00",
      "phone": "+623-872-7676",
      "takeaway": "yes",
      "drive_through": "no",
      "addr_state": "AZ",
      "addr_city": "Glendale",
      "addr_postcode": "85305",
      "addr_street": "North 95th Avenue",
      "addr_housenumber": "6800",
      "value": 297.01535619079846
    },
    {
      "id": 115687,
      "geometry": "POINT (-112.223022 33.637872)",
      "poi_name": "Panera Bread",
      "osm_id": 8910127049,
      "amenity": "fast_food",
      "cuisine": "sandwich;bakery",
      "takeaway": "yes",
      "drive_through": "no",
      "addr_state": "AZ",
      "addr_city": "Peoria",
      "addr_postcode": "85382",
      "addr_street": "West Bell Road",
      "addr_housenumber": "7635",
      "value": 297.01535619079846
    },
    {
      "id": 115635,
      "geometry": "POINT (-112.264611 33.50884)",
      "poi_name": "Subway",
      "osm_id": 8906768261,
      "amenity": "fast_food",
      "cuisine": "sandwich",
      "wheelchair": "limited",
      "internet_access": "no",
      "takeaway": "yes",
      "drive_through": "no",
      "outdoor_seating": "no",
      "delivery": "no",
      "addr_state": "AZ",
      "addr_city": "Glendale",
      "addr_postcode": "85305",
      "addr_street": "West Camelback Road",
      "addr_housenumber": "9524",
      "value": 297.01535619079846
    },
    {
      "id": 115198,
      "geometry": "POINT (-112.134701 33.510359)",
      "poi_name": "Subway",
      "osm_id": 3917211784,
      "amenity": "fast_food",
      "cuisine": "sandwich",
      "takeaway": "yes",
      "drive_through": "no",
      "delivery": "no",
      "addr_state": "AZ",
      "addr_city": "Phoenix",
      "addr_postcode": "85017",
      "addr_street": "North 35th Avenue",
      "addr_housenumber": "5020",
      "value": 297.01535619079846
    },
    {
      "id": 115688,
      "geometry": "POINT (-112.222995 33.637541)",
      "poi_name": "Five Guys",
      "osm_id": 8910127050,
      "amenity": "fast_food",
      "cuisine": "burger",
      "opening_hours": "Mo-Su 11:00-22:00",
      "takeaway": "yes",
      "drive_through": "no",
      "official_name": "Five Guys Burgers and Fries",
      "addr_state": "AZ",
      "addr_city": "Peoria",
      "addr_postcode": "85382",
      "addr_street": "West Bell Road",
      "addr_housenumber": "7635",
      "value": 297.01535619079846
    },
    {
      "id": 115743,
      "geometry": "POINT (-112.067027 33.509015)",
      "poi_name": "The Beach House",
      "osm_id": 8910943757,
      "amenity": "fast_food",
      "cuisine": "mexican",
      "website": "https://www.thebeachhouseaz.com/",
      "phone": "+1-602-277-0399",
      "addr_state": "AZ",
      "addr_city": "Phoenix",
      "addr_postcode": "85012",
      "addr_street": "East Camelback Road",
      "addr_housenumber": "501",
      "value": 297.01535619079846
    },
    {
      "id": 115701,
      "geometry": "POINT (-112.218217 33.638624)",
      "poi_name": "Jersey Mike's Subs",
      "osm_id": 8910610593,
      "amenity": "fast_food",
      "cuisine": "sandwich",
      "takeaway": "yes",
      "drive_through": "no",
      "addr_state": "AZ",
      "addr_city": "Glendale",
      "addr_postcode": "85308",
      "addr_street": "West Bell Road",
      "addr_housenumber": "7410",
      "value": 297.01535619079846
    },
    {
      "id": 115702,
      "geometry": "POINT (-112.219933 33.639879)",
      "poi_name": "Caf\u00e9 Zupas",
      "osm_id": 8910610599,
      "amenity": "fast_food",
      "cuisine": "sandwich;soup;salad",
      "drive_through": "no",
      "addr_state": "AZ",
      "addr_city": "Glendale",
      "addr_postcode": "85308",
      "addr_street": "West Bell Road",
      "addr_housenumber": "7480",
      "value": 297.01535619079846
    },
    {
      "id": 115703,
      "geometry": "POINT (-112.219498 33.63988)",
      "poi_name": "MOD Pizza",
      "osm_id": 8910610600,
      "amenity": "fast_food",
      "cuisine": "pizza",
      "takeaway": "yes",
      "drive_through": "no",
      "addr_state": "AZ",
      "addr_city": "Glendale",
      "addr_postcode": "85308",
      "addr_street": "West Bell Road",
      "addr_housenumber": "7480",
      "value": 297.01535619079846
    },
    {
      "id": 115713,
      "geometry": "POINT (-112.230216 33.639162)",
      "poi_name": "Einstein Bros. Bagels",
      "osm_id": 8910691597,
      "amenity": "fast_food",
      "cuisine": "bagel",
      "takeaway": "yes",
      "drive_through": "no",
      "addr_state": "AZ",
      "addr_city": "Glendale",
      "addr_postcode": "85308",
      "addr_street": "West Bell Road",
      "addr_housenumber": "7942",
      "value": 297.01535619079846
    },
    {
      "id": 117208,
      "geometry": "POINT (-112.169422 33.493766)",
      "poi_name": "Subway",
      "osm_id": 8981482111,
      "amenity": "fast_food",
      "cuisine": "sandwich",
      "takeaway": "yes",
      "drive_through": "no",
      "value": 297.01535619079846
    },
    {
      "id": 116106,
      "geometry": "POINT (-112.264802 33.508854)",
      "poi_name": "Danny's Donut",
      "osm_id": 8929255636,
      "amenity": "fast_food",
      "cuisine": "donut",
      "addr_state": "AZ",
      "addr_city": "Glendale",
      "addr_postcode": "85305",
      "addr_street": "West Camelback Road",
      "addr_housenumber": "9524",
      "value": 297.01535619079846
    },
    {
      "id": 117174,
      "geometry": "POINT (-112.261449 33.536767)",
      "poi_name": "Five Guys",
      "osm_id": 8979039813,
      "amenity": "fast_food",
      "cuisine": "burger",
      "takeaway": "yes",
      "drive_through": "no",
      "official_name": "Five Guys Burgers and Fries",
      "value": 297.01535619079846
    },
    {
      "id": 116441,
      "geometry": "POINT (-112.238162 33.608482)",
      "poi_name": "Subway",
      "osm_id": 8942915517,
      "amenity": "fast_food",
      "cuisine": "sandwich",
      "takeaway": "yes",
      "drive_through": "no",
      "addr_state": "AZ",
      "addr_city": "Peoria",
      "addr_postcode": "85381",
      "addr_street": "West Thunderbird Road",
      "addr_housenumber": "8345",
      "value": 297.01535619079846
    },
    {
      "id": 116442,
      "geometry": "POINT (-112.238323 33.608479)",
      "poi_name": "Sushi Yuki",
      "osm_id": 8942915519,
      "amenity": "fast_food",
      "drive_through": "no",
      "addr_state": "AZ",
      "addr_city": "Peoria",
      "addr_postcode": "85381",
      "addr_street": "West Thunderbird Road",
      "addr_housenumber": "8345",
      "value": 297.01535619079846
    },
    {
      "id": 116443,
      "geometry": "POINT (-112.238434 33.608478)",
      "poi_name": "Hungry Howie's",
      "osm_id": 8942915520,
      "amenity": "fast_food",
      "cuisine": "pizza",
      "takeaway": "yes",
      "drive_through": "no",
      "addr_state": "AZ",
      "addr_city": "Peoria",
      "addr_postcode": "85381",
      "addr_street": "West Thunderbird Road",
      "addr_housenumber": "8345",
      "value": 297.01535619079846
    },
    {
      "id": 118865,
      "geometry": "POINT (-112.127117 33.512596)",
      "poi_name": "Panda Express",
      "osm_id": 9068792283,
      "amenity": "fast_food",
      "cuisine": "chinese",
      "takeaway": "yes",
      "value": 297.01535619079846
    },
    {
      "id": 117749,
      "geometry": "POINT (-112.251274 33.639699)",
      "poi_name": "Goodcents Deli Fresh Subs",
      "osm_id": 9008675918,
      "amenity": "fast_food",
      "cuisine": "sandwich",
      "value": 297.01535619079846
    },
    {
      "id": 118866,
      "geometry": "POINT (-112.128563 33.512577)",
      "poi_name": "Pita Jungle",
      "osm_id": 9068792284,
      "amenity": "fast_food",
      "value": 297.01535619079846
    },
    {
      "id": 118867,
      "geometry": "POINT (-112.128336 33.512584)",
      "poi_name": "Subway",
      "osm_id": 9068792285,
      "amenity": "fast_food",
      "cuisine": "sandwich",
      "takeaway": "yes",
      "value": 297.01535619079846
    },
    {
      "id": 118868,
      "geometry": "POINT (-112.128136 33.512595)",
      "poi_name": "Chick-fil-A",
      "osm_id": 9068792286,
      "amenity": "fast_food",
      "cuisine": "chicken",
      "takeaway": "yes",
      "value": 297.01535619079846
    },
    {
      "id": 118869,
      "geometry": "POINT (-112.12724 33.512599)",
      "poi_name": "Kamnari",
      "osm_id": 9068792287,
      "amenity": "fast_food",
      "value": 297.01535619079846
    },
    {
      "id": 118871,
      "geometry": "POINT (-112.13071 33.513613)",
      "poi_name": "Taco Bell",
      "osm_id": 9068792289,
      "amenity": "fast_food",
      "cuisine": "tex-mex",
      "website": "https://locations.tacobell.com/az/phoenix/3300-w-camelback-rd.html",
      "takeaway": "yes",
      "value": 297.01535619079846
    },
    {
      "id": 118872,
      "geometry": "POINT (-112.129835 33.513085)",
      "poi_name": "Canyon Pizza Company",
      "osm_id": 9068792291,
      "amenity": "fast_food",
      "cuisine": "pizza",
      "value": 297.01535619079846
    },
    {
      "id": 118873,
      "geometry": "POINT (-112.129806 33.513386)",
      "poi_name": "The Habit Burger Grill",
      "osm_id": 9068792292,
      "amenity": "fast_food",
      "cuisine": "burger",
      "takeaway": "yes",
      "value": 297.01535619079846
    },
    {
      "id": 118874,
      "geometry": "POINT (-112.130217 33.513352)",
      "poi_name": "Einstein Bros. Bagels",
      "osm_id": 9068792293,
      "amenity": "fast_food",
      "cuisine": "bagel",
      "takeaway": "yes",
      "value": 297.01535619079846
    },
    {
      "id": 118875,
      "geometry": "POINT (-112.130182 33.513107)",
      "poi_name": "Fresh Fusion",
      "osm_id": 9068792294,
      "amenity": "fast_food",
      "value": 297.01535619079846
    },
    {
      "id": 118876,
      "geometry": "POINT (-112.129983 33.513267)",
      "poi_name": "Training Table",
      "osm_id": 9068792295,
      "amenity": "fast_food",
      "value": 297.01535619079846
    },
    {
      "id": 118878,
      "geometry": "POINT (-112.130269 33.513231)",
      "poi_name": "Qdoba",
      "osm_id": 9068792297,
      "amenity": "fast_food",
      "cuisine": "mexican",
      "website": "https://locations.qdoba.com/us/az/phoenix/3300-w-camelback-rd.html",
      "takeaway": "yes",
      "official_name": "Qdoba Mexican Grill",
      "value": 297.01535619079846
    },
    {
      "id": 118879,
      "geometry": "POINT (-112.130264 33.513294)",
      "poi_name": "Jamba",
      "osm_id": 9068792298,
      "amenity": "fast_food",
      "cuisine": "juice",
      "takeaway": "yes",
      "value": 297.01535619079846
    },
    {
      "id": 119228,
      "geometry": "POINT (-112.046629 33.510358)",
      "poi_name": "Jimmy John's",
      "osm_id": 9089915148,
      "amenity": "fast_food",
      "cuisine": "sandwich",
      "takeaway": "yes",
      "official_name": "Jimmy John's Gourmet Sandwiches",
      "value": 297.01535619079846
    },
    {
      "id": 119540,
      "geometry": "POINT (-112.125523 33.480798)",
      "poi_name": "Kings Subs",
      "osm_id": 9106379469,
      "amenity": "fast_food",
      "cuisine": "sandwich",
      "addr_state": "AZ",
      "addr_city": "Phoenix",
      "addr_postcode": "85017",
      "addr_street": "West Thomas Road",
      "addr_housenumber": "3020",
      "value": 297.01535619079846
    },
    {
      "id": 119541,
      "geometry": "POINT (-112.118682 33.47982)",
      "poi_name": "Subway",
      "osm_id": 9106379483,
      "amenity": "fast_food",
      "cuisine": "sandwich",
      "takeaway": "yes",
      "drive_through": "no",
      "addr_state": "AZ",
      "addr_city": "Phoenix",
      "addr_postcode": "85017",
      "addr_street": "West Thomas Road",
      "addr_housenumber": "2775",
      "value": 297.01535619079846
    },
    {
      "id": 123572,
      "geometry": "POINT (-112.34151 33.53556)",
      "poi_name": "Popeyes",
      "osm_id": 6862196631,
      "amenity": "fast_food",
      "cuisine": "chicken",
      "takeaway": "yes",
      "official_name": "Popeyes Louisiana Kitchen",
      "value": 297.01535619079846
    },
    {
      "id": 123442,
      "geometry": "POINT (-112.392626 33.609098)",
      "poi_name": "Subway",
      "osm_id": 6854494045,
      "amenity": "fast_food",
      "cuisine": "sandwich",
      "takeaway": "yes",
      "drive_through": "no",
      "addr_state": "AZ",
      "addr_city": "Surprise",
      "addr_postcode": "85379",
      "addr_street": "West Waddell Road",
      "addr_housenumber": "15423",
      "value": 297.01535619079846
    },
    {
      "id": 123443,
      "geometry": "POINT (-112.39263 33.609)",
      "poi_name": "Little Caesars",
      "osm_id": 6854494046,
      "amenity": "fast_food",
      "cuisine": "pizza",
      "website": "https://littlecaesars.com/en-us/store/9993/",
      "takeaway": "yes",
      "drive_through": "no",
      "addr_state": "AZ",
      "addr_city": "Surprise",
      "addr_postcode": "85379",
      "addr_street": "West Waddell Road",
      "addr_housenumber": "15423",
      "value": 297.01535619079846
    },
    {
      "id": 123445,
      "geometry": "POINT (-112.393462 33.622734)",
      "poi_name": "Dairy Queen",
      "osm_id": 6854603665,
      "amenity": "fast_food",
      "cuisine": "ice_cream;burger",
      "takeaway": "yes",
      "drive_through": "yes",
      "addr_state": "AZ",
      "addr_city": "Surprise",
      "addr_postcode": "85379",
      "addr_street": "West Greenway Road",
      "addr_housenumber": "15469",
      "value": 297.01535619079846
    },
    {
      "id": 123446,
      "geometry": "POINT (-112.393431 33.623086)",
      "poi_name": "BoSa Donuts",
      "osm_id": 6854603676,
      "amenity": "fast_food",
      "cuisine": "donut",
      "website": "https://bosadonutsaz.com/",
      "phone": "+1-623-404-8888",
      "addr_state": "AZ",
      "addr_city": "Surprise",
      "addr_postcode": "85379",
      "addr_street": "North Reems Road;West Greenway Road",
      "addr_housenumber": "15261;15469",
      "value": 297.01535619079846
    },
    {
      "id": 123617,
      "geometry": "POINT (-112.255593 33.609241)",
      "poi_name": "Daily Donuts",
      "osm_id": 6865928603,
      "amenity": "fast_food",
      "cuisine": "donut",
      "value": 297.01535619079846
    },
    {
      "id": 123759,
      "geometry": "POINT (-112.339762 33.623066)",
      "poi_name": "Little Caesars",
      "osm_id": 6876275067,
      "amenity": "fast_food",
      "cuisine": "pizza",
      "website": "https://littlecaesars.com/en-us/store/9196/",
      "takeaway": "yes",
      "drive_through": "no",
      "addr_state": "AZ",
      "addr_city": "El Mirage",
      "addr_postcode": "85335",
      "addr_street": "West Greenway Road",
      "addr_housenumber": "13011",
      "value": 297.01535619079846
    },
    {
      "id": 126613,
      "geometry": "POINT (-112.073568 33.476878)",
      "poi_name": "Barro's Pizza",
      "osm_id": 7986391985,
      "amenity": "fast_food",
      "value": 297.01535619079846
    },
    {
      "id": 123853,
      "geometry": "POINT (-112.353321 33.638988)",
      "poi_name": "Five Guys",
      "osm_id": 6884127366,
      "amenity": "fast_food",
      "cuisine": "burger",
      "opening_hours": "Mo-Su 11:00-22:00",
      "website": "https://order.fiveguys.com/menu/surprise",
      "phone": "+1-623-975-4275",
      "takeaway": "yes",
      "drive_through": "no",
      "official_name": "Five Guys Burgers and Fries",
      "addr_state": "AZ",
      "addr_city": "Surprise",
      "addr_postcode": "85374",
      "addr_street": "West Bell Road",
      "addr_housenumber": "13714",
      "value": 297.01535619079846
    },
    {
      "id": 130102,
      "geometry": "POINT (-112.256454 33.538613)",
      "poi_name": "Barro's Pizza",
      "osm_id": 9854520004,
      "amenity": "fast_food",
      "cuisine": "pizza",
      "addr_state": "AZ",
      "addr_city": "Glendale",
      "addr_postcode": "85305",
      "addr_street": "West Glendale Avenue",
      "addr_housenumber": "9140",
      "value": 297.01535619079846
    },
    {
      "id": 130103,
      "geometry": "POINT (-112.256828 33.538595)",
      "poi_name": "Myungrang Hotdog",
      "osm_id": 9854520010,
      "amenity": "fast_food",
      "cuisine": "hot_dog",
      "drive_through": "no",
      "addr_state": "AZ",
      "addr_city": "Glendale",
      "addr_postcode": "85305",
      "addr_street": "West Glendale Avenue",
      "addr_housenumber": "9140",
      "value": 297.01535619079846
    },
    {
      "id": 136501,
      "geometry": "POINT (-112.083091 33.494115)",
      "poi_name": "Taco Bell",
      "osm_id": 11586941771,
      "amenity": "fast_food",
      "cuisine": "mexican",
      "website": "https://locations.tacobell.com/az/phoenix/4035-n-7th-ave.html",
      "takeaway": "yes",
      "drive_through": "yes",
      "addr_state": "AZ",
      "addr_city": "Phoenix",
      "addr_postcode": "85013",
      "addr_street": "North 7th Avenue",
      "addr_housenumber": "4035",
      "value": 297.01535619079846
    },
    {
      "id": 148715,
      "geometry": "POINT (-112.005322 33.466063)",
      "poi_name": "Subway",
      "osm_id": 3975075859,
      "amenity": "fast_food",
      "cuisine": "sandwich",
      "takeaway": "yes",
      "value": 297.01535619079846
    },
    {
      "id": 140747,
      "geometry": "POINT (-112.287723 33.564648)",
      "poi_name": "Subway",
      "osm_id": 6258953802,
      "amenity": "fast_food",
      "cuisine": "sandwich",
      "opening_hours": "Mo-Fr 07:00-22:00; Sa 08:00-21:00; Su 09:00-21:00",
      "phone": "623-972-4045",
      "takeaway": "yes",
      "addr_state": "AZ",
      "addr_city": "Peoria",
      "addr_postcode": "85345",
      "addr_street": "North 107th Avenue",
      "addr_housenumber": "8877",
      "value": 297.01535619079846
    },
    {
      "id": 143060,
      "geometry": "POINT (-112.220669 33.594369)",
      "poi_name": "Little Caesars",
      "osm_id": 6328278358,
      "amenity": "fast_food",
      "cuisine": "pizza",
      "website": "https://littlecaesars.com/en-us/store/1353/",
      "takeaway": "yes",
      "drive_through": "no",
      "addr_state": "AZ",
      "addr_city": "Peoria",
      "addr_postcode": "85381",
      "addr_street": "West Cactus Road",
      "addr_housenumber": "7521",
      "value": 297.01535619079846
    },
    {
      "id": 145357,
      "geometry": "POINT (-112.262616 33.536862)",
      "poi_name": "Tropical Smoothie Cafe",
      "osm_id": 7341804852,
      "amenity": "fast_food",
      "cuisine": "juice",
      "website": "https://wowwowhawaiianlemonade.com/",
      "takeaway": "yes",
      "drive_through": "no",
      "value": 297.01535619079846
    },
    {
      "id": 145556,
      "geometry": "POINT (-112.23821 33.507559)",
      "poi_name": "Papa John's",
      "osm_id": 7367360254,
      "amenity": "fast_food",
      "cuisine": "pizza",
      "takeaway": "yes",
      "drive_through": "no",
      "addr_state": "AZ",
      "addr_city": "Phoenix",
      "addr_postcode": "85033",
      "addr_street": "North 83rd Avenue",
      "addr_housenumber": "4850",
      "value": 297.01535619079846
    },
    {
      "id": 145558,
      "geometry": "POINT (-112.238249 33.493317)",
      "poi_name": "Little Caesars",
      "osm_id": 7367383356,
      "amenity": "fast_food",
      "cuisine": "pizza",
      "takeaway": "yes",
      "drive_through": "yes",
      "value": 297.01535619079846
    },
    {
      "id": 148094,
      "geometry": "POINT (-112.236711 33.581889)",
      "poi_name": "Long John Silver's",
      "osm_id": 3928044813,
      "amenity": "fast_food",
      "cuisine": "seafood",
      "takeaway": "yes",
      "drive_through": "yes",
      "addr_state": "AZ",
      "addr_city": "Peoria",
      "addr_postcode": "85345",
      "addr_street": "West Peoria Avenue",
      "addr_housenumber": "8301",
      "value": 297.01535619079846
    },
    {
      "id": 148208,
      "geometry": "POINT (-112.203636 33.524338)",
      "poi_name": "Little Caesars",
      "osm_id": 3936389557,
      "amenity": "fast_food",
      "cuisine": "pizza",
      "wheelchair": "limited",
      "opening_hours": "Mo-Sa 10:30-10:00",
      "website": "https://littlecaesars.com/en-us/store/1343/",
      "internet_access": "no",
      "takeaway": "yes",
      "drive_through": "no",
      "outdoor_seating": "no",
      "delivery": "no",
      "addr_state": "AZ",
      "addr_city": "Glendale",
      "addr_postcode": "85301",
      "value": 297.01535619079846
    },
    {
      "id": 141642,
      "geometry": "POINT (-112.125139 33.581436)",
      "poi_name": "Samurai Sam's",
      "osm_id": 6292297578,
      "amenity": "fast_food",
      "cuisine": "japanese",
      "addr_state": "AZ",
      "addr_city": "Phoenix",
      "addr_postcode": "85051",
      "addr_street": "West Peoria Avenue",
      "addr_housenumber": "3039",
      "value": 297.01535619079846
    },
    {
      "id": 142243,
      "geometry": "POINT (-112.289462 33.492222)",
      "poi_name": "Subway",
      "osm_id": 6307657278,
      "amenity": "fast_food",
      "cuisine": "sandwich",
      "takeaway": "yes",
      "drive_through": "no",
      "addr_state": "AZ",
      "addr_city": "Avondale",
      "addr_postcode": "85392",
      "addr_street": "West Indian School Road",
      "addr_housenumber": "10685",
      "value": 297.01535619079846
    },
    {
      "id": 142387,
      "geometry": "POINT (-112.259953 33.552561)",
      "poi_name": "Churroholic",
      "osm_id": 6313095651,
      "amenity": "fast_food",
      "addr_state": "AZ",
      "addr_city": "Peoria",
      "addr_postcode": "85305",
      "addr_street": "West Northern Avenue",
      "value": 297.01535619079846
    },
    {
      "id": 143903,
      "geometry": "POINT (-112.239572 33.610442)",
      "poi_name": "Dunkin'",
      "osm_id": 6355776991,
      "amenity": "fast_food",
      "cuisine": "donut;coffee_shop",
      "takeaway": "yes",
      "drive_through": "yes",
      "addr_state": "AZ",
      "addr_city": "Peoria",
      "addr_postcode": "85381",
      "addr_street": "West Thunderbird Road",
      "addr_housenumber": "8386",
      "value": 297.01535619079846
    },
    {
      "id": 145493,
      "geometry": "POINT (-112.166112 33.611174)",
      "poi_name": "Bonitas",
      "osm_id": 7360514686,
      "amenity": "fast_food",
      "cuisine": "mexican",
      "phone": "+1-602-368-9928",
      "addr_postcode": "85306",
      "addr_street": "West Thunderbird Road",
      "addr_housenumber": "4920",
      "value": 297.01535619079846
    },
    {
      "id": 146060,
      "geometry": "POINT (-112.083666 33.488012)",
      "poi_name": "Burger Factory",
      "osm_id": 7409532927,
      "amenity": "fast_food",
      "value": 297.01535619079846
    },
    {
      "id": 151732,
      "geometry": "POINT (-112.185415 33.583053)",
      "poi_name": "Subway",
      "osm_id": 4111465676,
      "amenity": "fast_food",
      "cuisine": "sandwich",
      "takeaway": "yes",
      "drive_through": "no",
      "addr_state": "AZ",
      "addr_city": "Glendale",
      "addr_postcode": "85302",
      "addr_street": "North 59th Avenue",
      "addr_housenumber": "5820",
      "value": 297.01535619079846
    },
    {
      "id": 149634,
      "geometry": "POINT (-112.236671 33.581858)",
      "poi_name": "Taco Bell",
      "osm_id": 4017350396,
      "amenity": "fast_food",
      "cuisine": "tex-mex",
      "website": "https://locations.tacobell.com/az/peoria/8301-w-peoria-ave.html",
      "takeaway": "yes",
      "drive_through": "yes",
      "addr_state": "AZ",
      "addr_city": "Peoria",
      "addr_postcode": "85345",
      "addr_street": "West Peoria Avenue",
      "addr_housenumber": "8301",
      "value": 297.01535619079846
    },
    {
      "id": 151674,
      "geometry": "POINT (-112.177904 33.551364)",
      "poi_name": "Luna Pizza",
      "osm_id": 4109248870,
      "amenity": "fast_food",
      "cuisine": "pizza",
      "website": "https://www.lunapizzarestaurant.com",
      "restaurant": "pizza",
      "addr_state": "AZ",
      "addr_city": "Glendale",
      "addr_postcode": "85301",
      "addr_street": "North 55th Avenue",
      "addr_housenumber": "7800",
      "value": 297.01535619079846
    },
    {
      "id": 149845,
      "geometry": "POINT (-112.009958 33.481063)",
      "poi_name": "Sonic",
      "osm_id": 4029274875,
      "amenity": "fast_food",
      "cuisine": "burger",
      "takeaway": "yes",
      "drive_through": "yes",
      "addr_state": "AZ",
      "addr_city": "Phoenix",
      "addr_postcode": "85018",
      "addr_street": "East Thomas Road",
      "addr_housenumber": "3314",
      "value": 297.01535619079846
    },
    {
      "id": 151340,
      "geometry": "POINT (-112.25792 33.55215)",
      "poi_name": "Quiznos",
      "osm_id": 4094830186,
      "amenity": "fast_food",
      "cuisine": "sandwich",
      "takeaway": "yes",
      "addr_state": "AZ",
      "addr_city": "Peoria",
      "addr_postcode": "85305",
      "addr_street": "West Northern Avenue",
      "addr_housenumber": "9230",
      "value": 297.01535619079846
    },
    {
      "id": 151342,
      "geometry": "POINT (-112.258215 33.552146)",
      "poi_name": "Panda Express",
      "osm_id": 4094830284,
      "amenity": "fast_food",
      "cuisine": "chinese",
      "takeaway": "yes",
      "addr_state": "AZ",
      "addr_city": "Peoria",
      "addr_postcode": "85305",
      "addr_street": "West Northern Avenue",
      "addr_housenumber": "9230",
      "value": 297.01535619079846
    },
    {
      "id": 151602,
      "geometry": "POINT (-112.18472 33.609455)",
      "poi_name": "Wingstop",
      "osm_id": 4106796927,
      "amenity": "fast_food",
      "cuisine": "wings",
      "takeaway": "yes",
      "drive_through": "no",
      "addr_state": "AZ",
      "addr_city": "Glendale",
      "addr_postcode": "85306",
      "addr_street": "West Thunderbird Road",
      "addr_housenumber": "5833",
      "value": 297.01535619079846
    },
    {
      "id": 151604,
      "geometry": "POINT (-112.185556 33.609466)",
      "poi_name": "Firehouse Subs",
      "osm_id": 4106797486,
      "amenity": "fast_food",
      "cuisine": "sandwich",
      "takeaway": "yes",
      "drive_through": "no",
      "addr_state": "AZ",
      "addr_city": "Glendale",
      "addr_postcode": "85306",
      "addr_street": "North 59th Avenue",
      "addr_housenumber": "13637",
      "value": 297.01535619079846
    },
    {
      "id": 154385,
      "geometry": "POINT (-112.091706 33.480672)",
      "poi_name": "Mu Shu Asian Grill Chinese",
      "osm_id": 4236643439,
      "amenity": "fast_food",
      "cuisine": "asian",
      "wheelchair": "yes",
      "value": 297.01535619079846
    },
    {
      "id": 151853,
      "geometry": "POINT (-112.185068 33.611106)",
      "poi_name": "Jimmy John's",
      "osm_id": 4115546338,
      "amenity": "fast_food",
      "cuisine": "sandwich",
      "takeaway": "yes",
      "drive_through": "no",
      "official_name": "Jimmy John's Gourmet Sandwiches",
      "addr_state": "AZ",
      "addr_city": "Glendale",
      "addr_postcode": "85306",
      "addr_street": "West Thunderbird Road",
      "addr_housenumber": "5890",
      "value": 297.01535619079846
    },
    {
      "id": 151854,
      "geometry": "POINT (-112.185536 33.611124)",
      "poi_name": "Einstein Bros. Bagels",
      "osm_id": 4115546339,
      "amenity": "fast_food",
      "cuisine": "bagel",
      "takeaway": "yes",
      "drive_through": "no",
      "addr_state": "AZ",
      "addr_city": "Glendale",
      "addr_postcode": "85306",
      "addr_street": "West Thunderbird Road",
      "addr_housenumber": "5894",
      "value": 297.01535619079846
    },
    {
      "id": 151857,
      "geometry": "POINT (-112.184948 33.612598)",
      "poi_name": "Smashburger",
      "osm_id": 4115546345,
      "amenity": "fast_food",
      "cuisine": "burger",
      "takeaway": "yes",
      "addr_state": "AZ",
      "addr_city": "Glendale",
      "addr_postcode": "85306",
      "addr_street": "West Thunderbird Road",
      "addr_housenumber": "5870",
      "value": 297.01535619079846
    },
    {
      "id": 151860,
      "geometry": "POINT (-112.18356 33.612114)",
      "poi_name": "Papa Murphy's",
      "osm_id": 4115550991,
      "amenity": "fast_food",
      "cuisine": "pizza",
      "takeaway": "only",
      "official_name": "Papa Murphy's Take 'N' Bake Pizza",
      "addr_state": "AZ",
      "addr_city": "Glendale",
      "addr_postcode": "85306",
      "addr_street": "West Thunderbird Road",
      "addr_housenumber": "5830",
      "value": 297.01535619079846
    },
    {
      "id": 151861,
      "geometry": "POINT (-112.183562 33.611717)",
      "poi_name": "Subway",
      "osm_id": 4115550993,
      "amenity": "fast_food",
      "cuisine": "sandwich",
      "takeaway": "yes",
      "addr_state": "AZ",
      "addr_city": "Glendale",
      "addr_postcode": "85306",
      "addr_street": "West Thunderbird Road",
      "addr_housenumber": "5830",
      "value": 297.01535619079846
    },
    {
      "id": 152683,
      "geometry": "POINT (-112.220587 33.594376)",
      "poi_name": "Panda Express",
      "osm_id": 4154616044,
      "amenity": "fast_food",
      "cuisine": "chinese",
      "takeaway": "yes",
      "drive_through": "no",
      "addr_state": "AZ",
      "addr_city": "Peoria",
      "addr_postcode": "85381",
      "addr_street": "West Cactus Road",
      "addr_housenumber": "7521",
      "value": 297.01535619079846
    },
    {
      "id": 152741,
      "geometry": "POINT (-112.221089 33.594381)",
      "poi_name": "Subway",
      "osm_id": 4157236413,
      "amenity": "fast_food",
      "cuisine": "sandwich",
      "takeaway": "yes",
      "drive_through": "no",
      "addr_state": "AZ",
      "addr_city": "Peoria",
      "addr_postcode": "85381",
      "addr_street": "West Cactus Road",
      "addr_housenumber": "7549",
      "value": 297.01535619079846
    },
    {
      "id": 154386,
      "geometry": "POINT (-112.090746 33.480208)",
      "poi_name": "Persian Garden Cafe",
      "osm_id": 4236643440,
      "amenity": "fast_food",
      "cuisine": "indian",
      "wheelchair": "yes",
      "value": 297.01535619079846
    },
    {
      "id": 155832,
      "geometry": "POINT (-112.184607 33.569026)",
      "poi_name": "Jimmy John's",
      "osm_id": 4303817762,
      "amenity": "fast_food",
      "cuisine": "sandwich",
      "takeaway": "yes",
      "drive_through": "no",
      "official_name": "Jimmy John's Gourmet Sandwiches",
      "addr_state": "AZ",
      "addr_city": "Glendale",
      "addr_postcode": "85302",
      "addr_street": "West Olive Avenue",
      "addr_housenumber": "5826",
      "value": 297.01535619079846
    },
    {
      "id": 154799,
      "geometry": "POINT (-112.236994 33.494033)",
      "poi_name": "Pizza Patron",
      "osm_id": 4255707980,
      "amenity": "fast_food",
      "drive_through": "no",
      "addr_state": "AZ",
      "addr_city": "Phoenix",
      "addr_postcode": "85033",
      "addr_street": "West Indian School Road",
      "addr_housenumber": "8243",
      "value": 297.01535619079846
    },
    {
      "id": 154801,
      "geometry": "POINT (-112.235807 33.495372)",
      "poi_name": "Little Caesars",
      "osm_id": 4255713704,
      "amenity": "fast_food",
      "cuisine": "pizza",
      "takeaway": "yes",
      "drive_through": "no",
      "addr_state": "AZ",
      "addr_city": "Phoenix",
      "addr_postcode": "85033",
      "addr_street": "North 83rd Avenue",
      "addr_housenumber": "4131",
      "value": 297.01535619079846
    },
    {
      "id": 155833,
      "geometry": "POINT (-112.184758 33.569008)",
      "poi_name": "Wingstop",
      "osm_id": 4303817763,
      "amenity": "fast_food",
      "cuisine": "wings",
      "takeaway": "yes",
      "drive_through": "no",
      "addr_state": "AZ",
      "addr_city": "Glendale",
      "addr_postcode": "85302",
      "addr_street": "West Olive Avenue",
      "addr_housenumber": "5838",
      "value": 297.01535619079846
    },
    {
      "id": 155834,
      "geometry": "POINT (-112.183958 33.568946)",
      "poi_name": "Pizza Patron",
      "osm_id": 4303817768,
      "amenity": "fast_food",
      "cuisine": "pizza",
      "addr_state": "AZ",
      "addr_city": "Glendale",
      "addr_postcode": "85302",
      "addr_street": "West Olive Avenue",
      "addr_housenumber": "5814",
      "value": 297.01535619079846
    },
    {
      "id": 175818,
      "geometry": "POINT (-112.200796 33.523283)",
      "poi_name": "Little Caesars",
      "osm_id": 2542623126,
      "amenity": "fast_food",
      "cuisine": "pizza",
      "wheelchair": "no",
      "takeaway": "yes",
      "drive_through": "no",
      "delivery": "no",
      "addr_state": "AZ",
      "addr_city": "Glendale",
      "addr_postcode": "85301",
      "addr_street": "West Bethany Home Road",
      "addr_housenumber": "6601",
      "value": 297.01535619079846
    },
    {
      "id": 158248,
      "geometry": "POINT (-112.422022 33.610308)",
      "poi_name": "Papa John's",
      "osm_id": 4740549573,
      "amenity": "fast_food",
      "cuisine": "pizza",
      "takeaway": "yes",
      "drive_through": "no",
      "value": 297.01535619079846
    },
    {
      "id": 169990,
      "geometry": "POINT (-112.132948 33.538052)",
      "poi_name": "Subway",
      "osm_id": 2324983397,
      "amenity": "fast_food",
      "cuisine": "sandwich",
      "wheelchair": "limited",
      "internet_access": "no",
      "takeaway": "yes",
      "drive_through": "no",
      "delivery": "no",
      "addr_state": "AZ",
      "addr_city": "Phoenix",
      "addr_postcode": "85017",
      "addr_street": "West Glendale Avenue",
      "value": 297.01535619079846
    },
    {
      "id": 170833,
      "geometry": "POINT (-112.15198 33.522738)",
      "poi_name": "Panda Express",
      "osm_id": 2350427173,
      "amenity": "fast_food",
      "cuisine": "chinese",
      "takeaway": "yes",
      "drive_through": "no",
      "addr_state": "AZ",
      "addr_city": "Glendale",
      "addr_postcode": "85301",
      "addr_street": "North 43rd Avenue",
      "addr_housenumber": "5820",
      "value": 297.01535619079846
    },
    {
      "id": 171672,
      "geometry": "POINT (-112.153982 33.523411)",
      "poi_name": "Subway",
      "osm_id": 2383881860,
      "amenity": "fast_food",
      "cuisine": "sandwich",
      "takeaway": "yes",
      "drive_through": "no",
      "delivery": "no",
      "addr_state": "AZ",
      "addr_city": "Glendale",
      "addr_postcode": "85301",
      "value": 297.01535619079846
    },
    {
      "id": 164579,
      "geometry": "POINT (-112.237093 33.610534)",
      "poi_name": "Jimmy John's",
      "osm_id": 9485120293,
      "amenity": "fast_food",
      "cuisine": "sandwich",
      "takeaway": "yes",
      "drive_through": "no",
      "official_name": "Jimmy John's Gourmet Sandwiches",
      "addr_state": "AZ",
      "addr_city": "Peoria",
      "addr_postcode": "85381",
      "addr_street": "North 83rd Avenue",
      "addr_housenumber": "13875",
      "value": 297.01535619079846
    },
    {
      "id": 166132,
      "geometry": "POINT (-112.221166 33.481511)",
      "poi_name": "Little Caesars",
      "osm_id": 9576363434,
      "amenity": "fast_food",
      "cuisine": "pizza",
      "wheelchair": "no",
      "website": "https://littlecaesars.com/en-us/store/11305/",
      "internet_access": "no",
      "takeaway": "yes",
      "drive_through": "no",
      "outdoor_seating": "no",
      "addr_state": "AZ",
      "addr_city": "Phoenix",
      "addr_postcode": "85033",
      "addr_street": "North 75th Avenue",
      "value": 297.01535619079846
    },
    {
      "id": 166134,
      "geometry": "POINT (-112.202845 33.481366)",
      "poi_name": "Pizza Patron",
      "osm_id": 9576363502,
      "amenity": "fast_food",
      "cuisine": "pizza",
      "drive_through": "no",
      "value": 297.01535619079846
    },
    {
      "id": 166135,
      "geometry": "POINT (-112.183647 33.55264)",
      "poi_name": "Firehouse Subs",
      "osm_id": 9576474748,
      "amenity": "fast_food",
      "cuisine": "sandwich",
      "takeaway": "yes",
      "value": 297.01535619079846
    },
    {
      "id": 169546,
      "geometry": "POINT (-112.169038 33.537177)",
      "poi_name": "Little Caesars",
      "osm_id": 2307915096,
      "amenity": "fast_food",
      "cuisine": "pizza",
      "wheelchair": "limited",
      "website": "https://littlecaesars.com/en-us/store/1334/",
      "internet_access": "no",
      "takeaway": "yes",
      "drive_through": "no",
      "outdoor_seating": "no",
      "addr_state": "AZ",
      "addr_city": "Glendale",
      "addr_postcode": "85301",
      "addr_street": "West Glendale Avenue",
      "value": 297.01535619079846
    },
    {
      "id": 170303,
      "geometry": "POINT (-112.185624 33.551083)",
      "poi_name": "Taco Bell / A&W",
      "osm_id": 2331232144,
      "amenity": "fast_food",
      "cuisine": "tex-mex",
      "website": "https://locations.tacobell.com/az/glendale/7795-north-59th-ave-.html",
      "takeaway": "yes",
      "drive_through": "yes",
      "addr_state": "AZ",
      "addr_city": "Glendale",
      "addr_postcode": "85301",
      "addr_street": "North 59th Avenue",
      "addr_housenumber": "7795",
      "value": 297.01535619079846
    },
    {
      "id": 176361,
      "geometry": "POINT (-112.205024 33.538602)",
      "poi_name": "Domino's",
      "osm_id": 2557707560,
      "amenity": "fast_food",
      "cuisine": "pizza",
      "wheelchair": "limited",
      "opening_hours": "Mo-Th 10:00-12:00; Fr,Sa 10:00-14:00; Su 10:00-12:00",
      "internet_access": "no",
      "takeaway": "yes",
      "drive_through": "no",
      "outdoor_seating": "no",
      "delivery": "yes",
      "addr_state": "AZ",
      "addr_city": "Glendale",
      "addr_postcode": "85303",
      "addr_street": "West Glendale Avenue",
      "addr_housenumber": "6766",
      "value": 297.01535619079846
    },
    {
      "id": 177849,
      "geometry": "POINT (-112.179325 33.55159)",
      "poi_name": "McDonald's",
      "osm_id": 2607325535,
      "amenity": "fast_food",
      "cuisine": "burger",
      "wheelchair": "yes",
      "opening_hours": "Mo-Su 06:00-24:00",
      "website": "https://www.mcdonalds.com/us/en-us/location/az/glendale/5605-w-northern-walmart-5124/30049.html",
      "internet_access": "no",
      "takeaway": "yes",
      "drive_through": "no",
      "delivery": "no",
      "addr_state": "AZ",
      "addr_city": "Glendale",
      "addr_postcode": "85301",
      "addr_street": "West Northern Avenue",
      "addr_housenumber": "5605",
      "value": 297.01535619079846
    },
    {
      "id": 177629,
      "geometry": "POINT (-112.239482 33.537138)",
      "poi_name": "Little Caesars",
      "osm_id": 2598297945,
      "amenity": "fast_food",
      "cuisine": "pizza",
      "wheelchair": "limited",
      "opening_hours": "Mo-Su 10:45-22:00; Th-Sa 10:45-23:00",
      "website": "https://littlecaesars.com/en-us/store/10186/",
      "internet_access": "no",
      "takeaway": "yes",
      "drive_through": "no",
      "outdoor_seating": "no",
      "delivery": "no",
      "addr_state": "AZ",
      "addr_city": "Glendale",
      "addr_postcode": "85305",
      "addr_street": "West Glendale Avenue",
      "addr_housenumber": "8345",
      "value": 297.01535619079846
    },
    {
      "id": 182811,
      "geometry": "POINT (-112.411824 33.638235)",
      "poi_name": "Popeyes",
      "osm_id": 10905379761,
      "amenity": "fast_food",
      "cuisine": "chicken",
      "website": "https://www.popeyes.com/",
      "phone": "+1-623-214-8563",
      "takeaway": "yes",
      "official_name": "Popeyes Louisiana Kitchen",
      "addr_state": "AZ",
      "addr_city": "Surprise",
      "addr_postcode": "85374",
      "addr_street": "West Bell Road",
      "addr_housenumber": "16411",
      "value": 297.01535619079846
    },
    {
      "id": 179422,
      "geometry": "POINT (-112.413263 33.608439)",
      "poi_name": "Jersey Mike's Subs",
      "osm_id": 10762127649,
      "amenity": "fast_food",
      "cuisine": "sandwich",
      "website": "https://www.jerseymikes.com/9064/surprise-az",
      "phone": "(623) 248-8014",
      "takeaway": "yes",
      "addr_state": "AZ",
      "addr_city": "Surprise",
      "addr_postcode": "85388",
      "addr_street": "North Prasada Parkway",
      "addr_housenumber": "13641",
      "value": 297.01535619079846
    },
    {
      "id": 179423,
      "geometry": "POINT (-112.413262 33.608357)",
      "poi_name": "N\u00e9kter Juice Bar",
      "osm_id": 10762127651,
      "amenity": "fast_food",
      "cuisine": "juice",
      "website": "https://www.nekterjuicebar.com/",
      "takeaway": "yes",
      "addr_state": "AZ",
      "addr_city": "Surprise",
      "addr_postcode": "85388",
      "addr_street": "North Prasada Parkway",
      "value": 297.01535619079846
    },
    {
      "id": 182678,
      "geometry": "POINT (-112.292454 33.493139)",
      "poi_name": "Daily Donut",
      "osm_id": 10900313260,
      "amenity": "fast_food",
      "cuisine": "donut",
      "addr_state": "AZ",
      "addr_city": "Avondale",
      "addr_postcode": "85392",
      "addr_street": "West Indian School Road",
      "addr_housenumber": "10725",
      "value": 297.01535619079846
    },
    {
      "id": 182679,
      "geometry": "POINT (-112.292339 33.492869)",
      "poi_name": "Domino's",
      "osm_id": 10900313263,
      "amenity": "fast_food",
      "cuisine": "pizza",
      "takeaway": "yes",
      "addr_state": "AZ",
      "addr_city": "Avondale",
      "addr_postcode": "85392",
      "addr_street": "West Indian School Road",
      "addr_housenumber": "10719",
      "value": 297.01535619079846
    },
    {
      "id": 178661,
      "geometry": "POINT (-112.162009 33.608583)",
      "poi_name": "Jamba",
      "osm_id": 10734023448,
      "amenity": "fast_food",
      "cuisine": "juice",
      "takeaway": "yes",
      "value": 297.01535619079846
    },
    {
      "id": 178662,
      "geometry": "POINT (-112.160157 33.608968)",
      "poi_name": "Chick-fil-A",
      "osm_id": 10734023449,
      "amenity": "fast_food",
      "cuisine": "chicken",
      "takeaway": "yes",
      "value": 297.01535619079846
    },
    {
      "id": 178663,
      "geometry": "POINT (-112.162169 33.608705)",
      "poi_name": "Papa John's",
      "osm_id": 10734023450,
      "amenity": "fast_food",
      "cuisine": "pizza",
      "takeaway": "yes",
      "value": 297.01535619079846
    },
    {
      "id": 178664,
      "geometry": "POINT (-112.160637 33.608974)",
      "poi_name": "Qdoba",
      "osm_id": 10734023451,
      "amenity": "fast_food",
      "cuisine": "mexican",
      "website": "https://locations.qdoba.com/us/az/glendale/4701-west-thunderbird-rd.html",
      "takeaway": "yes",
      "official_name": "Qdoba Mexican Grill",
      "value": 297.01535619079846
    },
    {
      "id": 179187,
      "geometry": "POINT (-112.079211 33.491288)",
      "poi_name": "Fuego at the Clarendon",
      "osm_id": 10752027266,
      "amenity": "fast_food",
      "cuisine": "mexican",
      "value": 297.01535619079846
    },
    {
      "id": 179272,
      "geometry": "POINT (-112.422119 33.610308)",
      "poi_name": "Mesquite",
      "osm_id": 10755351658,
      "amenity": "fast_food",
      "cuisine": "mexican",
      "opening_hours": "Mo-Su 09:00-22:00",
      "website": "https://eatmesquite.com/surprise/",
      "phone": "+1-623-235-6907",
      "drive_through": "no",
      "outdoor_seating": "yes",
      "value": 297.01535619079846
    },
    {
      "id": 179439,
      "geometry": "POINT (-112.369024 33.627887)",
      "poi_name": "Hetrick Spirit Canteen",
      "osm_id": 10762941399,
      "amenity": "fast_food",
      "website": "https://www.ottawa.edu/ouaz/student-services/meal-plans",
      "drive_through": "no",
      "fast_food": "cafeteria",
      "addr_state": "AZ",
      "addr_city": "Surprise",
      "addr_postcode": "85374",
      "addr_street": "West Tierra Buena Lane",
      "addr_housenumber": "14360",
      "value": 297.01535619079846
    },
    {
      "id": 180769,
      "geometry": "POINT (-112.111416 33.524747)",
      "poi_name": "Church's Chicken",
      "osm_id": 10817022099,
      "amenity": "fast_food",
      "cuisine": "chicken",
      "takeaway": "yes",
      "value": 297.01535619079846
    },
    {
      "id": 180770,
      "geometry": "POINT (-112.109591 33.52452)",
      "poi_name": "Subway",
      "osm_id": 10817038653,
      "amenity": "fast_food",
      "cuisine": "sandwich",
      "takeaway": "yes",
      "value": 297.01535619079846
    },
    {
      "id": 184852,
      "geometry": "POINT (-112.151995 33.581376)",
      "poi_name": "Subway",
      "osm_id": 7818130047,
      "amenity": "fast_food",
      "cuisine": "sandwich",
      "takeaway": "yes",
      "value": 297.01535619079846
    },
    {
      "id": 184854,
      "geometry": "POINT (-112.151994 33.580221)",
      "poi_name": "Little Caesars",
      "osm_id": 7818138275,
      "amenity": "fast_food",
      "cuisine": "pizza",
      "website": "https://littlecaesars.com/en-us/store/1363/",
      "takeaway": "yes",
      "drive_through": "no",
      "addr_state": "AZ",
      "addr_city": "Glendale",
      "addr_postcode": "85302",
      "addr_street": "North 43rd Avenue",
      "addr_housenumber": "10240",
      "value": 297.01535619079846
    },
    {
      "id": 185450,
      "geometry": "POINT (-112.322277 33.740763)",
      "poi_name": "Subway",
      "osm_id": 7857293385,
      "amenity": "fast_food",
      "cuisine": "sandwich",
      "opening_hours": "Mo-Fr 07:00-21:00; Sa 08:00-21:00; Su 09:20-21:00",
      "takeaway": "yes",
      "drive_through": "no",
      "value": 297.01535619079846
    },
    {
      "id": 186505,
      "geometry": "POINT (-112.427525 33.622266)",
      "poi_name": "Little Caesars",
      "osm_id": 7932831363,
      "amenity": "fast_food",
      "cuisine": "pizza",
      "website": "https://littlecaesars.com/en-us/store/12333/",
      "takeaway": "yes",
      "drive_through": "no",
      "addr_state": "AZ",
      "addr_city": "Surprise",
      "addr_postcode": "85388",
      "addr_street": "North Cotton Lane",
      "addr_housenumber": "15180",
      "value": 297.01535619079846
    },
    {
      "id": 194766,
      "geometry": "POINT (-112.413321 33.608199)",
      "poi_name": "Arby's",
      "osm_id": 10284026481,
      "amenity": "fast_food",
      "cuisine": "sandwich",
      "opening_hours": "Mo-Sa 09:00-23:00; Su 10:00-22:00",
      "website": "https://locations.arbys.com/az/surprise/13640-n-prasada-pkwy.html",
      "phone": "+1-602-478-4476",
      "takeaway": "yes",
      "drive_through": "yes",
      "addr_state": "AZ",
      "addr_city": "Surprise",
      "addr_postcode": "85388",
      "addr_street": "North Prasada Parkway",
      "addr_housenumber": "13641",
      "value": 297.01535619079846
    },
    {
      "id": 191559,
      "geometry": "POINT (-112.424269 33.637537)",
      "poi_name": "Dunkin'",
      "osm_id": 1375310138,
      "amenity": "fast_food",
      "cuisine": "donut;coffee_shop",
      "takeaway": "yes",
      "drive_through": "yes",
      "addr_state": "AZ",
      "addr_city": "Surprise",
      "addr_postcode": "85388",
      "addr_street": "West Bell Road",
      "addr_housenumber": "17031",
      "value": 297.01535619079846
    },
    {
      "id": 191856,
      "geometry": "POINT (-112.772455 34.002652)",
      "poi_name": "Arby's",
      "osm_id": 1400432822,
      "amenity": "fast_food",
      "cuisine": "sandwich",
      "takeaway": "yes",
      "value": 297.01535619079846
    },
    {
      "id": 195248,
      "geometry": "POINT (-112.037217 33.508196)",
      "poi_name": "N\u00e9kter Juice Bar",
      "osm_id": 10298931495,
      "amenity": "fast_food",
      "cuisine": "juice",
      "takeaway": "yes",
      "value": 297.01535619079846
    },
    {
      "id": 195258,
      "geometry": "POINT (-112.035764 33.508974)",
      "poi_name": "Dunkin'",
      "osm_id": 10299257812,
      "amenity": "fast_food",
      "cuisine": "donut;coffee_shop",
      "takeaway": "yes",
      "value": 297.01535619079846
    },
    {
      "id": 195260,
      "geometry": "POINT (-112.035654 33.508616)",
      "poi_name": "Potbelly",
      "osm_id": 10299257815,
      "amenity": "fast_food",
      "cuisine": "sandwich",
      "takeaway": "yes",
      "official_name": "Potbelly Sandwich Works",
      "value": 297.01535619079846
    },
    {
      "id": 195261,
      "geometry": "POINT (-112.037525 33.509592)",
      "poi_name": "Wendy's",
      "osm_id": 10299258533,
      "amenity": "fast_food",
      "cuisine": "burger",
      "takeaway": "yes",
      "value": 297.01535619079846
    },
    {
      "id": 196714,
      "geometry": "POINT (-112.359989 33.610924)",
      "poi_name": "Subway",
      "osm_id": 10593102174,
      "amenity": "fast_food",
      "cuisine": "sandwich",
      "opening_hours": "Su-Th 09:00-22:00; Fr-Sa 09:00-23:00",
      "website": "https://restaurants.subway.com/united-states/az/surprise/13954-w-waddell-rd",
      "phone": "+1-623-975-6175",
      "takeaway": "yes",
      "drive_through": "no",
      "addr_state": "AZ",
      "addr_city": "Surprise",
      "addr_postcode": "85379",
      "addr_street": "West Waddell Road",
      "addr_housenumber": "13954",
      "value": 297.01535619079846
    },
    {
      "id": 196295,
      "geometry": "POINT (-112.266941 33.510767)",
      "poi_name": "Charleys Philly Steaks",
      "osm_id": 10572946782,
      "amenity": "fast_food",
      "cuisine": "sandwich",
      "takeaway": "yes",
      "addr_state": "AZ",
      "addr_city": "Glendale",
      "addr_postcode": "85305",
      "addr_street": "North 95th Avenue",
      "addr_housenumber": "5010",
      "value": 297.01535619079846
    },
    {
      "id": 196490,
      "geometry": "POINT (-112.168118 33.5672)",
      "poi_name": "Subway",
      "osm_id": 10582163120,
      "amenity": "fast_food",
      "cuisine": "sandwich",
      "takeaway": "yes",
      "value": 297.01535619079846
    },
    {
      "id": 200786,
      "geometry": "POINT (-112.029966 33.487988)",
      "poi_name": "Olympic Gyros",
      "osm_id": 597447188,
      "amenity": "fast_food",
      "cuisine": "greek",
      "takeaway": "yes",
      "value": 297.01535619079846
    },
    {
      "id": 198613,
      "geometry": "POINT (-112.064592 33.531182)",
      "poi_name": "Chen and Wok Gourmet Oriental",
      "osm_id": 904480515,
      "amenity": "fast_food",
      "cuisine": "chinese",
      "phone": "+1-602-263-0072",
      "value": 297.01535619079846
    },
    {
      "id": 203163,
      "geometry": "POINT (-112.203718 33.509784)",
      "poi_name": "Wingstop",
      "osm_id": 7067947051,
      "amenity": "fast_food",
      "cuisine": "wings",
      "takeaway": "yes",
      "addr_state": "AZ",
      "addr_city": "Glendale",
      "addr_postcode": "85033",
      "addr_street": "West Camelback Road",
      "addr_housenumber": "6702",
      "value": 297.01535619079846
    },
    {
      "id": 219843,
      "geometry": "POINT (-112.126251 33.581384)",
      "poi_name": "MOD Pizza",
      "osm_id": 9348527226,
      "amenity": "fast_food",
      "cuisine": "pizza",
      "opening_hours": "Mo-Su 10:30-22:00; Fr 10:30-18:00; Sa 10:30-23:00",
      "takeaway": "yes",
      "value": 297.01535619079846
    },
    {
      "id": 206963,
      "geometry": "POINT (-112.369404 33.638081)",
      "poi_name": "Tokyo Joe's",
      "osm_id": 7234478630,
      "amenity": "fast_food",
      "cuisine": "asian",
      "value": 297.01535619079846
    },
    {
      "id": 216434,
      "geometry": "POINT (-112.260942 33.536934)",
      "poi_name": "Chipotle",
      "osm_id": 9171083737,
      "amenity": "fast_food",
      "cuisine": "mexican",
      "takeaway": "yes",
      "drive_through": "yes",
      "official_name": "Chipotle Mexican Grill",
      "value": 297.01535619079846
    },
    {
      "id": 218224,
      "geometry": "POINT (-112.221105 33.480739)",
      "poi_name": "Subway",
      "osm_id": 9268714094,
      "amenity": "fast_food",
      "cuisine": "sandwich",
      "wheelchair": "limited",
      "internet_access": "no",
      "takeaway": "yes",
      "drive_through": "no",
      "delivery": "no",
      "addr_state": "AZ",
      "addr_city": "Phoenix",
      "addr_postcode": "85033",
      "addr_street": "West Thomas Road",
      "addr_housenumber": "7510",
      "value": 297.01535619079846
    },
    {
      "id": 218225,
      "geometry": "POINT (-112.221105 33.480557)",
      "poi_name": "Panda Express",
      "osm_id": 9268714095,
      "amenity": "fast_food",
      "cuisine": "chinese",
      "wheelchair": "limited",
      "internet_access": "no",
      "takeaway": "yes",
      "drive_through": "no",
      "addr_state": "AZ",
      "addr_city": "Phoenix",
      "addr_postcode": "85033",
      "addr_street": "West Thomas Road",
      "addr_housenumber": "7510",
      "value": 297.01535619079846
    },
    {
      "id": 220029,
      "geometry": "POINT (-112.264324 33.508868)",
      "poi_name": "Epic Wings N' Things",
      "osm_id": 9354810934,
      "amenity": "fast_food",
      "cuisine": "wings",
      "website": "https://www.epicwingsnthings.com/",
      "takeaway": "yes",
      "drive_through": "no",
      "addr_state": "AZ",
      "addr_city": "Glendale",
      "addr_postcode": "85305",
      "addr_street": "West Camelback Road",
      "addr_housenumber": "9524",
      "value": 297.01535619079846
    },
    {
      "id": 205260,
      "geometry": "POINT (-112.200175 33.524321)",
      "poi_name": "Pizza & WIngs",
      "osm_id": 7161446162,
      "amenity": "fast_food",
      "value": 297.01535619079846
    },
    {
      "id": 205261,
      "geometry": "POINT (-112.262764 33.536734)",
      "poi_name": "Jersey Mike's Subs",
      "osm_id": 7161446165,
      "amenity": "fast_food",
      "cuisine": "sandwich",
      "takeaway": "yes",
      "value": 297.01535619079846
    },
    {
      "id": 205443,
      "geometry": "POINT (-112.126807 33.58139)",
      "poi_name": "Smashburger",
      "osm_id": 7169067289,
      "amenity": "fast_food",
      "cuisine": "burger",
      "opening_hours": "Mo-Su 10:30-22:00",
      "takeaway": "yes",
      "addr_state": "AZ",
      "addr_city": "Phoenix",
      "addr_postcode": "85029",
      "addr_street": "West Peoria Avenue",
      "addr_housenumber": "3121",
      "value": 297.01535619079846
    },
    {
      "id": 205444,
      "geometry": "POINT (-112.126592 33.581386)",
      "poi_name": "Potbelly",
      "osm_id": 7169067290,
      "amenity": "fast_food",
      "cuisine": "sandwich",
      "opening_hours": "Mo-Su 10:00-22:00",
      "internet_access": "wlan",
      "takeaway": "yes",
      "official_name": "Potbelly Sandwich Works",
      "delivery": "yes",
      "addr_state": "AZ",
      "addr_city": "Phoenix",
      "addr_postcode": "85029",
      "addr_street": "West Peoria Avenue",
      "addr_housenumber": "3121",
      "value": 297.01535619079846
    },
    {
      "id": 213954,
      "geometry": "POINT (-112.083953 33.496375)",
      "poi_name": "PHX Burrito House",
      "osm_id": 5262520021,
      "amenity": "fast_food",
      "cuisine": "mexican",
      "phone": "+1-602-265-1274",
      "value": 297.01535619079846
    },
    {
      "id": 218838,
      "geometry": "POINT (-112.219792 33.597492)",
      "poi_name": "Domino's",
      "osm_id": 9298959801,
      "amenity": "fast_food",
      "cuisine": "pizza",
      "takeaway": "yes",
      "drive_through": "no",
      "addr_state": "AZ",
      "addr_city": "Peoria",
      "addr_postcode": "85381",
      "addr_street": "West Cactus Road",
      "addr_housenumber": "7440",
      "value": 297.01535619079846
    },
    {
      "id": 219844,
      "geometry": "POINT (-112.126439 33.581386)",
      "poi_name": "Chronic Tacos",
      "osm_id": 9348527229,
      "amenity": "fast_food",
      "cuisine": "mexican",
      "addr_state": "AZ",
      "addr_city": "Phoenix",
      "addr_postcode": "85029",
      "addr_street": "West Peoria Avenue",
      "addr_housenumber": "3121",
      "value": 297.01535619079846
    },
    {
      "id": 223152,
      "geometry": "POINT (-112.427559 33.582693)",
      "poi_name": "Taco Bell",
      "osm_id": 11047500476,
      "amenity": "fast_food",
      "cuisine": "tex-mex",
      "takeaway": "yes",
      "addr_state": "AZ",
      "addr_city": "Surprise",
      "addr_postcode": "85388",
      "addr_street": "North Cotton Lane",
      "addr_housenumber": "10810",
      "value": 297.01535619079846
    },
    {
      "id": 222731,
      "geometry": "POINT (-112.017753 33.480972)",
      "poi_name": "Bagelfeld\u2019s",
      "osm_id": 11034168456,
      "amenity": "fast_food",
      "cuisine": "bagel",
      "value": 297.01535619079846
    },
    {
      "id": 222698,
      "geometry": "POINT (-112.119663 33.480793)",
      "poi_name": "Carl's Jr.",
      "osm_id": 11032365182,
      "amenity": "fast_food",
      "cuisine": "burger",
      "website": "https://locations.carlsjr.com/az/phoenix/2750-w-thomas-rd",
      "capacity": "100",
      "takeaway": "yes",
      "addr_state": "AZ",
      "addr_city": "Phoenix",
      "addr_postcode": "85017",
      "addr_street": "West Thomas Road",
      "addr_housenumber": "2750",
      "value": 297.01535619079846
    },
    {
      "id": 222699,
      "geometry": "POINT (-112.108131 33.509158)",
      "poi_name": "Wendy's",
      "osm_id": 11032365183,
      "amenity": "fast_food",
      "cuisine": "burger",
      "capacity": "54",
      "internet_access": "wlan",
      "takeaway": "yes",
      "outdoor_seating": "yes",
      "addr_state": "AZ",
      "addr_city": "Phoenix",
      "addr_postcode": "85015",
      "addr_street": "West Camelback Road",
      "addr_housenumber": "2225",
      "value": 297.01535619079846
    },
    {
      "id": 223061,
      "geometry": "POINT (-112.414905 33.608495)",
      "poi_name": "MOD Pizza",
      "osm_id": 11045720133,
      "amenity": "fast_food",
      "cuisine": "pizza",
      "takeaway": "yes",
      "addr_state": "AZ",
      "addr_city": "Surprise",
      "addr_postcode": "85388",
      "addr_street": "North Prasada Parkway",
      "addr_housenumber": "13668",
      "value": 297.01535619079846
    },
    {
      "id": 223063,
      "geometry": "POINT (-112.414994 33.608508)",
      "poi_name": "Wetzel's Pretzels",
      "osm_id": 11045720136,
      "amenity": "fast_food",
      "cuisine": "pretzel",
      "takeaway": "yes",
      "addr_state": "AZ",
      "addr_city": "Surprise",
      "addr_postcode": "85388",
      "addr_street": "North Prasada Parkway",
      "addr_housenumber": "13668",
      "value": 297.01535619079846
    },
    {
      "id": 223070,
      "geometry": "POINT (-112.414004 33.60571)",
      "poi_name": "Carl's Jr.",
      "osm_id": 11045721213,
      "amenity": "fast_food",
      "cuisine": "burger",
      "takeaway": "yes",
      "addr_street": "North Prasada Parkway",
      "value": 297.01535619079846
    },
    {
      "id": 223072,
      "geometry": "POINT (-112.414292 33.607328)",
      "poi_name": "Panera Bread",
      "osm_id": 11045759312,
      "amenity": "fast_food",
      "cuisine": "sandwich;bakery",
      "takeaway": "yes",
      "addr_state": "AZ",
      "addr_city": "Surprise",
      "addr_postcode": "85388",
      "addr_street": "North Prasada Parkway",
      "addr_housenumber": "13536",
      "value": 297.01535619079846
    },
    {
      "id": 223080,
      "geometry": "POINT (-112.41499 33.607379)",
      "poi_name": "Five Guys",
      "osm_id": 11046846449,
      "amenity": "fast_food",
      "cuisine": "burger",
      "takeaway": "yes",
      "official_name": "Five Guys Burgers and Fries",
      "addr_state": "AZ",
      "addr_city": "Surprise",
      "addr_postcode": "85388",
      "addr_street": "North Prasada Parkway",
      "addr_housenumber": "13544",
      "value": 297.01535619079846
    },
    {
      "id": 223082,
      "geometry": "POINT (-112.41509 33.609101)",
      "poi_name": "The Habit Burger Grill",
      "osm_id": 11046846478,
      "amenity": "fast_food",
      "cuisine": "burger",
      "takeaway": "yes",
      "addr_state": "AZ",
      "addr_city": "Surprise",
      "addr_postcode": "85388",
      "addr_street": "West Waddell Road",
      "value": 297.01535619079846
    },
    {
      "id": 223083,
      "geometry": "POINT (-112.414474 33.609403)",
      "poi_name": "Chick-fil-A",
      "osm_id": 11046846479,
      "amenity": "fast_food",
      "cuisine": "chicken",
      "takeaway": "yes",
      "addr_state": "AZ",
      "addr_city": "Surprise",
      "addr_postcode": "85388",
      "addr_street": "West Waddell Road",
      "value": 297.01535619079846
    },
    {
      "id": 223153,
      "geometry": "POINT (-112.428801 33.581502)",
      "poi_name": "McDonald's",
      "osm_id": 11047500478,
      "amenity": "fast_food",
      "cuisine": "burger",
      "website": "https://www.mcdonalds.com/us/en-us/location/az/surprise/17180-w-peoria-ave/40645.html",
      "takeaway": "yes",
      "addr_state": "AZ",
      "addr_city": "Surprise",
      "addr_postcode": "85388",
      "addr_street": "West Peoria Avenue",
      "addr_housenumber": "17180",
      "value": 297.01535619079846
    },
    {
      "id": 223155,
      "geometry": "POINT (-112.429741 33.581622)",
      "poi_name": "Subway",
      "osm_id": 11047500481,
      "amenity": "fast_food",
      "cuisine": "sandwich",
      "takeaway": "yes",
      "addr_state": "AZ",
      "addr_city": "Surprise",
      "addr_postcode": "85388",
      "addr_street": "West Peoria Avenue",
      "addr_housenumber": "17200",
      "value": 297.01535619079846
    },
    {
      "id": 226180,
      "geometry": "POINT (-112.096718 33.523698)",
      "poi_name": "Taco Bell",
      "osm_id": 11151030136,
      "amenity": "fast_food",
      "cuisine": "mexican",
      "opening_hours": "Mo-Su 07:00-21:00+",
      "website": "https://locations.tacobell.com/az/phoenix/1747-w-bethany-home-rd.html",
      "takeaway": "yes",
      "drive_through": "yes",
      "addr_state": "AZ",
      "addr_city": "Phoenix",
      "addr_postcode": "85015",
      "addr_street": "West Bethany Home Road",
      "addr_housenumber": "1747",
      "value": 297.01535619079846
    },
    {
      "id": 224417,
      "geometry": "POINT (-112.120881 33.51525)",
      "poi_name": "Jimmy John's",
      "osm_id": 11081480357,
      "amenity": "fast_food",
      "cuisine": "sandwich",
      "takeaway": "yes",
      "official_name": "Jimmy John's Gourmet Sandwiches",
      "value": 297.01535619079846
    },
    {
      "id": 227164,
      "geometry": "POINT (-112.226782 33.641709)",
      "poi_name": "Wetzel's Pretzels",
      "osm_id": 11182195652,
      "amenity": "fast_food",
      "cuisine": "pretzel",
      "takeaway": "yes",
      "value": 297.01535619079846
    },
    {
      "id": 227178,
      "geometry": "POINT (-112.225118 33.638719)",
      "poi_name": "Tropical Smoothie Cafe",
      "osm_id": 11182367358,
      "amenity": "fast_food",
      "cuisine": "juice",
      "takeaway": "yes",
      "value": 297.01535619079846
    },
    {
      "id": 227179,
      "geometry": "POINT (-112.224937 33.63882)",
      "poi_name": "Jimmy John's",
      "osm_id": 11182367359,
      "amenity": "fast_food",
      "cuisine": "sandwich",
      "takeaway": "yes",
      "official_name": "Jimmy John's Gourmet Sandwiches",
      "value": 297.01535619079846
    },
    {
      "id": 227181,
      "geometry": "POINT (-112.222596 33.638955)",
      "poi_name": "BadAss Steakhouse Burgers",
      "osm_id": 11182367396,
      "amenity": "fast_food",
      "cuisine": "burger",
      "value": 297.01535619079846
    },
    {
      "id": 227187,
      "geometry": "POINT (-112.219704 33.637344)",
      "poi_name": "MAD Greens",
      "osm_id": 11182404995,
      "amenity": "fast_food",
      "value": 297.01535619079846
    },
    {
      "id": 227190,
      "geometry": "POINT (-112.219534 33.637617)",
      "poi_name": "Teriyaki Madness",
      "osm_id": 11182404998,
      "amenity": "fast_food",
      "cuisine": "japanese",
      "takeaway": "yes",
      "value": 297.01535619079846
    },
    {
      "id": 227193,
      "geometry": "POINT (-112.218226 33.637901)",
      "poi_name": "Rubio's",
      "osm_id": 11182405001,
      "amenity": "fast_food",
      "cuisine": "mexican",
      "takeaway": "yes",
      "official_name": "Rubio's Coastal Grill",
      "value": 297.01535619079846
    },
    {
      "id": 227194,
      "geometry": "POINT (-112.222791 33.637681)",
      "poi_name": "Ike's Love and Sandwiches",
      "osm_id": 11182405028,
      "amenity": "fast_food",
      "cuisine": "sandwich",
      "takeaway": "yes",
      "value": 297.01535619079846
    },
    {
      "id": 227196,
      "geometry": "POINT (-112.217576 33.637945)",
      "poi_name": "Panda Express",
      "osm_id": 11182417398,
      "amenity": "fast_food",
      "cuisine": "chinese",
      "takeaway": "yes",
      "value": 297.01535619079846
    },
    {
      "id": 227197,
      "geometry": "POINT (-112.217406 33.637833)",
      "poi_name": "Jamba",
      "osm_id": 11182417399,
      "amenity": "fast_food",
      "cuisine": "juice",
      "takeaway": "yes",
      "value": 297.01535619079846
    },
    {
      "id": 226512,
      "geometry": "POINT (-112.20194 33.670461)",
      "poi_name": "Dunkin'",
      "osm_id": 11162300027,
      "amenity": "fast_food",
      "cuisine": "donut;coffee_shop",
      "takeaway": "yes",
      "value": 297.01535619079846
    },
    {
      "id": 226517,
      "geometry": "POINT (-112.200339 33.670662)",
      "poi_name": "Subway",
      "osm_id": 11162300048,
      "amenity": "fast_food",
      "cuisine": "sandwich",
      "takeaway": "yes",
      "value": 297.01535619079846
    },
    {
      "id": 226518,
      "geometry": "POINT (-112.204362 33.666)",
      "poi_name": "N\u00e9kter Juice Bar",
      "osm_id": 11162300108,
      "amenity": "fast_food",
      "cuisine": "juice",
      "takeaway": "yes",
      "value": 297.01535619079846
    },
    {
      "id": 226520,
      "geometry": "POINT (-112.203349 33.665809)",
      "poi_name": "Chipotle",
      "osm_id": 11162300112,
      "amenity": "fast_food",
      "cuisine": "mexican",
      "takeaway": "yes",
      "official_name": "Chipotle Mexican Grill",
      "value": 297.01535619079846
    },
    {
      "id": 226523,
      "geometry": "POINT (-112.201964 33.66543)",
      "poi_name": "Firehouse Subs",
      "osm_id": 11162302299,
      "amenity": "fast_food",
      "cuisine": "sandwich",
      "takeaway": "yes",
      "value": 297.01535619079846
    },
    {
      "id": 226524,
      "geometry": "POINT (-112.220756 33.674159)",
      "poi_name": "Dunkin'",
      "osm_id": 11162323090,
      "amenity": "fast_food",
      "cuisine": "donut;coffee_shop",
      "takeaway": "yes",
      "value": 297.01535619079846
    },
    {
      "id": 227114,
      "geometry": "POINT (-112.233837 33.652173)",
      "poi_name": "Papa John's",
      "osm_id": 11180401776,
      "amenity": "fast_food",
      "cuisine": "pizza",
      "takeaway": "yes",
      "value": 297.01535619079846
    },
    {
      "id": 227115,
      "geometry": "POINT (-112.234558 33.650208)",
      "poi_name": "McDonald's",
      "osm_id": 11180401783,
      "amenity": "fast_food",
      "cuisine": "burger",
      "takeaway": "yes",
      "value": 297.01535619079846
    },
    {
      "id": 227165,
      "geometry": "POINT (-112.222262 33.64214)",
      "poi_name": "Panera Bread",
      "osm_id": 11182195669,
      "amenity": "fast_food",
      "cuisine": "sandwich;bakery",
      "takeaway": "yes",
      "value": 297.01535619079846
    },
    {
      "id": 227166,
      "geometry": "POINT (-112.222281 33.641745)",
      "poi_name": "Chipotle",
      "osm_id": 11182195670,
      "amenity": "fast_food",
      "cuisine": "mexican",
      "takeaway": "yes",
      "official_name": "Chipotle Mexican Grill",
      "value": 297.01535619079846
    },
    {
      "id": 227169,
      "geometry": "POINT (-112.23377 33.642826)",
      "poi_name": "Costco Food Court",
      "osm_id": 11182208703,
      "amenity": "fast_food",
      "cuisine": "hot_dog;pizza;sandwich",
      "takeaway": "yes",
      "value": 297.01535619079846
    },
    {
      "id": 228068,
      "geometry": "POINT (-112.357889 33.639228)",
      "poi_name": "Firehouse Subs",
      "osm_id": 4329328824,
      "amenity": "fast_food",
      "cuisine": "sandwich",
      "takeaway": "yes",
      "drive_through": "no",
      "outdoor_seating": "yes",
      "addr_state": "AZ",
      "addr_city": "Surprise",
      "addr_postcode": "85374",
      "addr_street": "West Bell Road",
      "addr_housenumber": "13820",
      "value": 297.01535619079846
    },
    {
      "id": 227361,
      "geometry": "POINT (-112.271756 33.596807)",
      "poi_name": "Domino's",
      "osm_id": 4305251594,
      "amenity": "fast_food",
      "cuisine": "pizza",
      "takeaway": "yes",
      "addr_state": "AZ",
      "addr_city": "Sun City",
      "addr_postcode": "85351",
      "addr_street": "Grand Avenue",
      "addr_housenumber": "9827",
      "value": 297.01535619079846
    },
    {
      "id": 227362,
      "geometry": "POINT (-112.359081 33.638268)",
      "poi_name": "Chipotle",
      "osm_id": 4305251711,
      "amenity": "fast_food",
      "cuisine": "mexican",
      "takeaway": "yes",
      "drive_through": "no",
      "official_name": "Chipotle Mexican Grill",
      "value": 297.01535619079846
    },
    {
      "id": 231028,
      "geometry": "POINT (-112.202838 33.481284)",
      "poi_name": "Subway",
      "osm_id": 4452508361,
      "amenity": "fast_food",
      "cuisine": "sandwich",
      "takeaway": "yes",
      "drive_through": "no",
      "value": 297.01535619079846
    },
    {
      "id": 229978,
      "geometry": "POINT (-112.236993 33.49393)",
      "poi_name": "La Pasadita Hot Dogs",
      "osm_id": 4408967667,
      "amenity": "fast_food",
      "drive_through": "no",
      "addr_state": "AZ",
      "addr_city": "Phoenix",
      "addr_postcode": "85033",
      "addr_street": "West Indian School Road",
      "addr_housenumber": "8243",
      "value": 297.01535619079846
    },
    {
      "id": 231029,
      "geometry": "POINT (-112.077953 33.479927)",
      "poi_name": "Papa John's",
      "osm_id": 4452508538,
      "amenity": "fast_food",
      "cuisine": "pizza",
      "takeaway": "yes",
      "addr_state": "AZ",
      "addr_city": "Phoenix",
      "addr_postcode": "85013",
      "addr_street": "West Thomas Road",
      "addr_housenumber": "231",
      "value": 297.01535619079846
    },
    {
      "id": 231311,
      "geometry": "POINT (-112.27077 33.553871)",
      "poi_name": "Cold Beers & Cheeseburgers",
      "osm_id": 4462380673,
      "amenity": "fast_food",
      "cuisine": "burger",
      "drive_through": "no",
      "addr_state": "AZ",
      "addr_city": "Peoria",
      "addr_postcode": "85345",
      "addr_street": "West Northern Avenue",
      "addr_housenumber": "9828",
      "value": 297.01535619079846
    },
    {
      "id": 237432,
      "geometry": "POINT (-112.123179 33.581367)",
      "poi_name": "Subway",
      "osm_id": 5831876122,
      "amenity": "fast_food",
      "cuisine": "sandwich",
      "takeaway": "yes",
      "value": 297.01535619079846
    },
    {
      "id": 232056,
      "geometry": "POINT (-112.131112 33.524686)",
      "poi_name": "Jamba",
      "osm_id": 4507504299,
      "amenity": "fast_food",
      "cuisine": "juice",
      "takeaway": "yes",
      "drive_through": "no",
      "addr_state": "AZ",
      "addr_city": "Phoenix",
      "addr_postcode": "85017",
      "addr_street": "West Bethany Home Road",
      "addr_housenumber": "3320",
      "value": 297.01535619079846
    },
    {
      "id": 232057,
      "geometry": "POINT (-112.131115 33.524524)",
      "poi_name": "Papa Murphy's",
      "osm_id": 4507504301,
      "amenity": "fast_food",
      "cuisine": "pizza",
      "takeaway": "only",
      "drive_through": "no",
      "official_name": "Papa Murphy's Take 'N' Bake Pizza",
      "addr_state": "AZ",
      "addr_city": "Phoenix",
      "addr_postcode": "85017",
      "addr_street": "West Bethany Home Road",
      "addr_housenumber": "3320",
      "value": 297.01535619079846
    },
    {
      "id": 235252,
      "geometry": "POINT (-112.720574 33.969452)",
      "poi_name": "Taco Bell",
      "osm_id": 5749770711,
      "amenity": "fast_food",
      "cuisine": "mexican",
      "website": "https://locations.tacobell.com/az/wickenburg/528-e-wickenburg-way.html",
      "takeaway": "yes",
      "value": 297.01535619079846
    },
    {
      "id": 237433,
      "geometry": "POINT (-112.123107 33.581367)",
      "poi_name": "Tropical Smoothie Cafe",
      "osm_id": 5831876123,
      "amenity": "fast_food",
      "cuisine": "juice",
      "takeaway": "yes",
      "value": 297.01535619079846
    },
    {
      "id": 237434,
      "geometry": "POINT (-112.123012 33.581368)",
      "poi_name": "Wingstop",
      "osm_id": 5831876124,
      "amenity": "fast_food",
      "cuisine": "wings",
      "takeaway": "yes",
      "value": 297.01535619079846
    },
    {
      "id": 237435,
      "geometry": "POINT (-112.125144 33.581547)",
      "poi_name": "Chipotle",
      "osm_id": 5831946127,
      "amenity": "fast_food",
      "cuisine": "mexican",
      "takeaway": "yes",
      "drive_through": "no",
      "official_name": "Chipotle Mexican Grill",
      "addr_state": "AZ",
      "addr_city": "Phoenix",
      "addr_postcode": "85051",
      "addr_street": "West Peoria Avenue",
      "addr_housenumber": "3039",
      "value": 297.01535619079846
    },
    {
      "id": 239039,
      "geometry": "POINT (-112.230628 33.578759)",
      "poi_name": "McDonald's",
      "osm_id": 5902560383,
      "amenity": "fast_food",
      "cuisine": "burger",
      "takeaway": "yes",
      "drive_through": "no",
      "addr_state": "AZ",
      "addr_city": "Peoria",
      "addr_postcode": "85345",
      "addr_street": "West Peoria Avenue",
      "addr_housenumber": "7975",
      "value": 297.01535619079846
    },
    {
      "id": 240748,
      "geometry": "POINT (-112.046703 33.508852)",
      "poi_name": "Baja Fresh",
      "osm_id": 5987111154,
      "amenity": "fast_food",
      "cuisine": "mexican",
      "takeaway": "yes",
      "official_name": "Baja Fresh Mexican Grill",
      "addr_state": "AZ",
      "addr_city": "Phoenix",
      "addr_postcode": "85016",
      "addr_street": "East Camelback Road",
      "addr_housenumber": "1615",
      "value": 297.01535619079846
    },
    {
      "id": 240749,
      "geometry": "POINT (-112.045836 33.508628)",
      "poi_name": "Zo\u00ebs Kitchen",
      "osm_id": 5987111878,
      "amenity": "fast_food",
      "cuisine": "mediterranean",
      "takeaway": "yes",
      "addr_state": "AZ",
      "addr_city": "Phoenix",
      "addr_postcode": "85016",
      "addr_street": "East Camelback Road",
      "addr_housenumber": "1641",
      "value": 297.01535619079846
    },
    {
      "id": 240751,
      "geometry": "POINT (-112.045699 33.508632)",
      "poi_name": "Einstein Bros. Bagels",
      "osm_id": 5987114154,
      "amenity": "fast_food",
      "cuisine": "bagel",
      "takeaway": "yes",
      "addr_state": "AZ",
      "addr_city": "Phoenix",
      "addr_postcode": "85016",
      "addr_street": "East Camelback Road",
      "addr_housenumber": "1641",
      "value": 297.01535619079846
    },
    {
      "id": 240752,
      "geometry": "POINT (-112.045669 33.507754)",
      "poi_name": "Yogis Grill",
      "osm_id": 5987134084,
      "amenity": "fast_food",
      "cuisine": "japanese;chinese",
      "website": "https://yogisgrill.com/",
      "addr_state": "AZ",
      "addr_city": "Phoenix",
      "addr_postcode": "85016",
      "addr_street": "East Camelback Road",
      "addr_housenumber": "1645",
      "value": 297.01535619079846
    },
    {
      "id": 240788,
      "geometry": "POINT (-112.047055 33.50743)",
      "poi_name": "Jamba",
      "osm_id": 5990606722,
      "amenity": "fast_food",
      "cuisine": "juice",
      "takeaway": "yes",
      "value": 297.01535619079846
    }
  ],
  "answer_type": "name",
  "question_entities": {
    "[2]": {
      "distance": 130000,
      "text": "130 kilometers"
    },
    "[3]": {
      "main_category": "tourism",
      "sub_category": "hotel",
      "display_name": "Holiday Inn Hotel & Suites Phoenix Airport North, Phoenix, AZ",
      "geo_wkt": "POINT (-111.986458 33.464407)",
      "poi": {
        "id": 12921,
        "geometry": "POINT (-111.986458 33.464407)",
        "poi_name": "Holiday Inn Hotel & Suites Phoenix Airport North",
        "osm_id": 3964211530,
        "tourism": "hotel",
        "operator": "Holiday Inn",
        "addr_state": "AZ",
        "addr_city": "Phoenix",
        "addr_postcode": "85008",
        "addr_street": "North 44th Street",
        "addr_housenumber": "1515"
      }
    },
    "[4]": {
      "main_category": "leisure",
      "sub_category": "stadium",
      "display_name": "Faith Arena, Surprise, AZ",
      "geo_wkt": "POINT (-112.371855 33.62819)",
      "poi": {
        "id": 265626,
        "geometry": "POINT (-112.371855 33.62819)",
        "poi_name": "Faith Arena",
        "osm_id": 10762941402,
        "leisure": "stadium",
        "addr_state": "AZ",
        "addr_city": "Surprise",
        "addr_postcode": "85374",
        "addr_street": "West Tierra Buena Lane",
        "addr_housenumber": "14470"
      }
    },
    "[1]": {
      "main_category": "amenity",
      "sub_category": "fast_food"
    }
  },
  "id": 1668,
  "type": "range:towards+name"
}