{
  "question": "Which caf\u00e9 can I find towards Scarsdale American Legion Post 52 Memorial Garden, Scarsdale, NY within 80 kilometers from the Juilliard School, New York, NY?",
  "sql": "WITH\n    angle AS (SELECT degrees(ST_Azimuth(ST_GeomFromText('POINT (-73.983102 40.773839)',4326)::geography, ST_GeomFromText('POINT (-73.762298 40.979409)',4326)::geography)) AS value)\nSELECT * FROM pois,angle\nWHERE amenity = 'cafe'\nAND ST_DWithin(pois.geometry, ST_GeomFromText('POINT (-73.983102 40.773839)',4326)::geography, 80000)\nAND (degrees(ST_Azimuth(ST_GeomFromText('POINT (-73.983102 40.773839)',4326)::geography, pois.geometry)) BETWEEN angle.value - 22.5 AND angle.value + 22.5);\n",
  "answers": [
    {
      "id": 27444,
      "geometry": "POINT (-73.943182 40.810011)",
      "poi_name": "Lenox Coffee",
      "osm_id": 419367529,
      "amenity": "cafe",
      "cuisine": "coffee_shop",
      "capacity": "2",
      "internet_access": "wlan",
      "value": 39.11757486155926
    },
    {
      "id": 31496,
      "geometry": "POINT (-73.978577 40.778016)",
      "poi_name": "Black Press Coffee",
      "osm_id": 8427233988,
      "amenity": "cafe",
      "cuisine": "coffee_shop",
      "opening_hours": "Mo-Fr 07:00-17:00; Sa-Su 07:00-18:00",
      "website": "https://www.blackpresscoffee.com/",
      "internet_access": "wlan",
      "phone": "+1 (646) 490-6499",
      "outdoor_seating": "yes",
      "addr_state": "NY",
      "addr_city": "New York",
      "addr_postcode": "10023",
      "addr_street": "Columbus Avenue",
      "addr_housenumber": "274",
      "value": 39.11757486155926
    },
    {
      "id": 36037,
      "geometry": "POINT (-73.978729 40.782286)",
      "poi_name": "Daily Provisions",
      "osm_id": 2745527658,
      "amenity": "cafe",
      "outdoor_seating": "yes",
      "addr_postcode": "10024",
      "addr_street": "Amsterdam Avenue",
      "addr_housenumber": "375",
      "value": 39.11757486155926
    },
    {
      "id": 34973,
      "geometry": "POINT (-73.965638 40.805204)",
      "poi_name": "Tea Magic",
      "osm_id": 2707987524,
      "amenity": "cafe",
      "addr_city": "New York",
      "addr_postcode": "10025",
      "addr_street": "Broadway",
      "addr_housenumber": "2878",
      "value": 39.11757486155926
    },
    {
      "id": 36274,
      "geometry": "POINT (-73.975401 40.789226)",
      "poi_name": "Starbucks",
      "osm_id": 2758752411,
      "amenity": "cafe",
      "cuisine": "coffee_shop",
      "wheelchair": "limited",
      "opening_hours": "Mo-Sa 06:00-20:00; Su 06:00-19:00",
      "internet_access": "wlan",
      "phone": "+1 212-595-3404",
      "takeaway": "yes",
      "official_name": "Starbucks Coffee",
      "addr_postcode": "10024",
      "addr_street": "Broadway",
      "addr_housenumber": "2394",
      "value": 39.11757486155926
    },
    {
      "id": 36026,
      "geometry": "POINT (-73.97924 40.776496)",
      "poi_name": "Juice Press",
      "osm_id": 2745003123,
      "amenity": "cafe",
      "cuisine": "juice",
      "opening_hours": "Mo-Su 07:00-22:00",
      "addr_state": "NY",
      "addr_city": "New York",
      "addr_postcode": "10023",
      "addr_street": "Columbus Avenue",
      "addr_housenumber": "239",
      "value": 39.11757486155926
    },
    {
      "id": 36031,
      "geometry": "POINT (-73.979303 40.777805)",
      "poi_name": "Juice Generation",
      "osm_id": 2745359371,
      "amenity": "cafe",
      "addr_postcode": "10023",
      "addr_street": "West 72nd Street",
      "addr_housenumber": "117",
      "value": 39.11757486155926
    },
    {
      "id": 36278,
      "geometry": "POINT (-73.94967 40.8221)",
      "poi_name": "Caf\u00e9 One",
      "osm_id": 2758924029,
      "amenity": "cafe",
      "cuisine": "coffee_shop",
      "opening_hours": "Mo-Fr 07:30-20:00; Sa 08:00-19:00; Su 08:00-18:00",
      "internet_access": "wlan",
      "addr_city": "New York",
      "addr_postcode": "10031",
      "addr_street": "Amsterdam Avenue",
      "addr_housenumber": "1619",
      "value": 39.11757486155926
    },
    {
      "id": 36281,
      "geometry": "POINT (-73.974112 40.79101)",
      "poi_name": "Tal Bagels",
      "osm_id": 2759204916,
      "amenity": "cafe",
      "cuisine": "bagel",
      "opening_hours": "Mo-Fr 06:00-21:00; Sa-Su 06:00-20:00",
      "website": "https://www.talbagels.info/",
      "phone": "+1-212-712-0171",
      "addr_state": "NY",
      "addr_city": "New York",
      "addr_postcode": "10024",
      "addr_street": "Broadway",
      "addr_housenumber": "2446",
      "value": 39.11757486155926
    },
    {
      "id": 36255,
      "geometry": "POINT (-73.972202 40.786806)",
      "poi_name": "Starbucks",
      "osm_id": 2758287019,
      "amenity": "cafe",
      "cuisine": "coffee_shop",
      "opening_hours": "Mo-Th 05:30-22:00; Fr 05:30-22:30; Sa 06:00-22:30; Su 06:00-22:00",
      "internet_access": "wlan",
      "takeaway": "yes",
      "official_name": "Starbucks Coffee",
      "addr_state": "NY",
      "addr_city": "New York",
      "addr_postcode": "10024",
      "addr_street": "Columbus Avenue",
      "addr_housenumber": "540",
      "value": 39.11757486155926
    },
    {
      "id": 36283,
      "geometry": "POINT (-73.973225 40.792196)",
      "poi_name": "Fillup Coffee",
      "osm_id": 2759235789,
      "amenity": "cafe",
      "cuisine": "coffee_shop",
      "opening_hours": "Mo-Fr 07:00-17:30; Sa-Su 09:00-16:00",
      "website": "https://fillup.coffee",
      "outdoor_seating": "no",
      "addr_state": "NY",
      "addr_city": "New York",
      "addr_postcode": "10025",
      "addr_street": "Broadway",
      "addr_housenumber": "2486",
      "value": 39.11757486155926
    },
    {
      "id": 37072,
      "geometry": "POINT (-73.96549 40.806297)",
      "poi_name": "Blue Bottle Coffee",
      "osm_id": 2796448528,
      "amenity": "cafe",
      "cuisine": "coffee_shop",
      "opening_hours": "Mo-Fr 06:00-19:00; Sa-Su 07:00-19:00",
      "website": "https://bluebottlecoffee.com/cafes/morningside-heights",
      "takeaway": "yes",
      "outdoor_seating": "no",
      "addr_state": "NY",
      "addr_city": "New York",
      "addr_postcode": "10025",
      "addr_street": "Broadway",
      "addr_housenumber": "2901",
      "value": 39.11757486155926
    },
    {
      "id": 36270,
      "geometry": "POINT (-73.975384 40.787579)",
      "poi_name": "The Coffee Bean & Tea Leaf",
      "osm_id": 2758662037,
      "amenity": "cafe",
      "cuisine": "coffee_shop",
      "takeaway": "yes",
      "addr_state": "NY",
      "addr_city": "New York",
      "addr_postcode": "10024",
      "addr_street": "Amsterdam Avenue",
      "addr_housenumber": "532",
      "value": 39.11757486155926
    },
    {
      "id": 36369,
      "geometry": "POINT (-73.963678 40.798468)",
      "poi_name": "City Coffee Bar",
      "osm_id": 2761570412,
      "amenity": "cafe",
      "phone": "+1-646-398-7772",
      "outdoor_seating": "no",
      "addr_state": "NY",
      "addr_city": "New York",
      "addr_postcode": "10025",
      "addr_street": "Columbus Avenue",
      "addr_housenumber": "914",
      "value": 39.11757486155926
    },
    {
      "id": 36381,
      "geometry": "POINT (-73.967107 40.803171)",
      "poi_name": "Gong Cha",
      "osm_id": 2761671634,
      "amenity": "cafe",
      "cuisine": "bubble_tea",
      "phone": "+1-646-850-6566",
      "takeaway": "yes",
      "outdoor_seating": "no",
      "addr_state": "NY",
      "addr_city": "New York",
      "addr_postcode": "10025",
      "addr_street": "Broadway",
      "addr_housenumber": "2810",
      "value": 39.11757486155926
    },
    {
      "id": 36405,
      "geometry": "POINT (-73.952659 40.799764)",
      "poi_name": "Claire's Kitchen Cafe",
      "osm_id": 2762451097,
      "amenity": "cafe",
      "opening_hours": "7:00-17:00",
      "internet_access": "wlan",
      "outdoor_seating": "yes",
      "addr_state": "NY",
      "addr_city": "New York",
      "addr_postcode": "10026",
      "addr_street": "Saint Nicholas Avenue",
      "addr_housenumber": "17-25",
      "value": 39.11757486155926
    },
    {
      "id": 36516,
      "geometry": "POINT (-73.949356 40.827473)",
      "poi_name": "Hamilton's Bakery and Cafe",
      "osm_id": 2768305932,
      "amenity": "cafe",
      "cuisine": "regional",
      "internet_access": "wlan",
      "addr_state": "NY",
      "addr_city": "New York",
      "addr_postcode": "10031",
      "addr_street": "Broadway",
      "addr_housenumber": "3570;3576",
      "value": 39.11757486155926
    },
    {
      "id": 36527,
      "geometry": "POINT (-73.959994 40.814029)",
      "poi_name": "Kuro Kuma",
      "osm_id": 2768451021,
      "amenity": "cafe",
      "cuisine": "coffee_shop",
      "phone": "+1(347) 577-3177",
      "addr_postcode": "10027",
      "addr_street": "La Salle Street",
      "addr_housenumber": "121",
      "value": 39.11757486155926
    },
    {
      "id": 36530,
      "geometry": "POINT (-73.95909 40.81505)",
      "poi_name": "Starbucks",
      "osm_id": 2768451031,
      "amenity": "cafe",
      "cuisine": "coffee_shop",
      "takeaway": "yes",
      "official_name": "Starbucks Coffee",
      "addr_postcode": "10027",
      "addr_street": "Broadway",
      "addr_housenumber": "3165",
      "value": 39.11757486155926
    },
    {
      "id": 36360,
      "geometry": "POINT (-73.969499 40.798238)",
      "poi_name": "Shiny Tea NY",
      "osm_id": 2761499679,
      "amenity": "cafe",
      "cuisine": "bubble_tea",
      "website": "https://www.shinyteanewyork.com",
      "outdoor_seating": "no",
      "addr_state": "NY",
      "addr_city": "New York",
      "addr_postcode": "10025",
      "addr_street": "Broadway",
      "addr_housenumber": "2667",
      "value": 39.11757486155926
    },
    {
      "id": 37305,
      "geometry": "POINT (-73.909836 40.837074)",
      "poi_name": "Coffee Donuts",
      "osm_id": 2806612113,
      "amenity": "cafe",
      "addr_state": "NY",
      "addr_city": "Bronx",
      "addr_postcode": "10456",
      "addr_street": "East 170th Street",
      "addr_housenumber": "316",
      "value": 39.11757486155926
    },
    {
      "id": 37743,
      "geometry": "POINT (-73.963683 40.803562)",
      "poi_name": "Hungarian Pastry Shop",
      "osm_id": 2827478159,
      "amenity": "cafe",
      "cuisine": "dessert;hungarian;coffee_shop;coffee",
      "wheelchair": "limited",
      "opening_hours": "Mo-Fr 07:30-20:30; Sa-Su 08:30-20:30",
      "internet_access": "no",
      "phone": "+1 212-866-4230",
      "outdoor_seating": "yes",
      "addr_state": "NY",
      "addr_city": "New York",
      "addr_postcode": "10025",
      "addr_street": "Amsterdam Avenue",
      "addr_housenumber": "1030",
      "value": 39.11757486155926
    },
    {
      "id": 37312,
      "geometry": "POINT (-73.889002 40.85355)",
      "poi_name": "Prince coffee house",
      "osm_id": 2806938230,
      "amenity": "cafe",
      "opening_hours": "Mo-Su 07:00-23:00",
      "outdoor_seating": "yes",
      "addr_postcode": "10458",
      "addr_street": "Crescent Avenue",
      "addr_housenumber": "591",
      "value": 39.11757486155926
    },
    {
      "id": 37384,
      "geometry": "POINT (-73.900331 40.884853)",
      "poi_name": "Mon Amour",
      "osm_id": 2810072654,
      "amenity": "cafe",
      "cuisine": "coffee_shop;pastry;breakfast;sandwich;continental",
      "phone": "+1-718-708-7804",
      "addr_state": "NY",
      "addr_city": "Bronx",
      "addr_postcode": "10463",
      "addr_street": "West 238th Street",
      "addr_housenumber": "234",
      "value": 39.11757486155926
    },
    {
      "id": 42094,
      "geometry": "POINT (-73.793163 41.1344)",
      "poi_name": "Starbucks",
      "osm_id": 3042670768,
      "amenity": "cafe",
      "cuisine": "coffee_shop",
      "takeaway": "yes",
      "value": 39.11757486155926
    },
    {
      "id": 42142,
      "geometry": "POINT (-73.791942 41.135041)",
      "poi_name": "The Black Cow",
      "osm_id": 3047505133,
      "amenity": "cafe",
      "internet_access": "yes",
      "addr_street": "Wheeler Avenue",
      "addr_housenumber": "7",
      "value": 39.11757486155926
    },
    {
      "id": 45914,
      "geometry": "POINT (-73.978198 40.777918)",
      "poi_name": "Starbucks",
      "osm_id": 3235708620,
      "amenity": "cafe",
      "cuisine": "coffee_shop",
      "opening_hours": "Mo-Th 05:30-21:30; Fr 05:00-21:30; Sa 06:00-22:00; Su 06:00-21:30",
      "website": "https://www.starbucks.com/store-locator/store/11600/73rd-columbus-267-275-columbus-ave-new-york-ny-100232904-us",
      "internet_access": "wlan",
      "phone": "+1 212-579-7834",
      "takeaway": "yes",
      "official_name": "Starbucks Coffee",
      "toilets": "no",
      "addr_state": "NY",
      "addr_postcode": "10023",
      "addr_street": "Columbus Avenue",
      "addr_housenumber": "267-275",
      "value": 39.11757486155926
    },
    {
      "id": 43627,
      "geometry": "POINT (-73.471058 41.076076)",
      "poi_name": "Upper Crust Bakery Cafe",
      "osm_id": 3124390283,
      "amenity": "cafe",
      "addr_state": "CT",
      "addr_city": "Darien",
      "addr_postcode": "06820",
      "addr_housenumber": "980",
      "value": 39.11757486155926
    },
    {
      "id": 45260,
      "geometry": "POINT (-73.412494 41.118029)",
      "poi_name": "The Stand Juice Company",
      "osm_id": 3196653305,
      "amenity": "cafe",
      "website": "https://thestandjuice.com/",
      "phone": "203.956.5670",
      "addr_state": "CT",
      "addr_city": "Norwalk",
      "addr_postcode": "06850",
      "addr_street": "Wall Street",
      "addr_housenumber": "31",
      "value": 39.11757486155926
    },
    {
      "id": 47536,
      "geometry": "POINT (-73.828353 40.950443)",
      "poi_name": "Starbucks",
      "osm_id": 3329800495,
      "amenity": "cafe",
      "cuisine": "coffee_shop",
      "takeaway": "yes",
      "official_name": "Starbucks Coffee",
      "value": 39.11757486155926
    },
    {
      "id": 55505,
      "geometry": "POINT (-73.953956 40.806672)",
      "poi_name": "Ganache Coffee",
      "osm_id": 10195939473,
      "amenity": "cafe",
      "cuisine": "coffee_shop",
      "addr_postcode": "10026",
      "addr_street": "Frederick Douglass Boulevard",
      "addr_housenumber": "2213",
      "value": 39.11757486155926
    },
    {
      "id": 47639,
      "geometry": "POINT (-73.844492 40.84721)",
      "poi_name": "Starbucks",
      "osm_id": 3338584818,
      "amenity": "cafe",
      "cuisine": "coffee_shop",
      "takeaway": "yes",
      "official_name": "Starbucks Coffee",
      "value": 39.11757486155926
    },
    {
      "id": 49867,
      "geometry": "POINT (-73.95237 40.823371)",
      "poi_name": "Tanto Dulce Cafe",
      "osm_id": 3452345664,
      "amenity": "cafe",
      "cuisine": "coffee_shop;soup;brunch",
      "phone": "+1 (212) 368-1701",
      "addr_postcode": "10031",
      "addr_street": "Broadway",
      "addr_housenumber": "3446",
      "value": 39.11757486155926
    },
    {
      "id": 59203,
      "geometry": "POINT (-73.938417 40.851094)",
      "poi_name": "Starbucks",
      "osm_id": 5414456109,
      "amenity": "cafe",
      "cuisine": "coffee_shop",
      "wheelchair": "yes",
      "opening_hours": "Mo-Su 06:00-22:00",
      "internet_access": "wlan",
      "phone": "+1 212-927-4272",
      "takeaway": "yes",
      "official_name": "Starbucks Coffee",
      "toilets": "yes",
      "addr_street": "West 181st Street",
      "addr_housenumber": "803",
      "value": 39.11757486155926
    },
    {
      "id": 62327,
      "geometry": "POINT (-73.879302 40.875087)",
      "poi_name": "New Star Coffee Shop",
      "osm_id": 5564035840,
      "amenity": "cafe",
      "addr_street": "Bainbridge Avenue",
      "addr_housenumber": "3150",
      "value": 39.11757486155926
    },
    {
      "id": 61855,
      "geometry": "POINT (-73.961848 40.800317)",
      "poi_name": "Demitasse Cafe",
      "osm_id": 5539074684,
      "amenity": "cafe",
      "cuisine": "coffee;cafe",
      "opening_hours": "Mo-Su 08:00-18:00",
      "internet_access": "wlan",
      "outdoor_seating": "no",
      "addr_state": "NY",
      "addr_city": "New York",
      "addr_postcode": "10025",
      "addr_street": "Columbus Avenue",
      "addr_housenumber": "973",
      "value": 39.11757486155926
    },
    {
      "id": 62040,
      "geometry": "POINT (-73.863967 40.832714)",
      "poi_name": "Isla Cafe",
      "osm_id": 5548940330,
      "amenity": "cafe",
      "addr_street": "Westchester Avenue",
      "addr_housenumber": "1859",
      "value": 39.11757486155926
    },
    {
      "id": 64767,
      "geometry": "POINT (-73.978253 40.777838)",
      "poi_name": "Zucker's Bagels and Smoked Fish",
      "osm_id": 5669779496,
      "amenity": "cafe",
      "cuisine": "bagel",
      "opening_hours": "Mo-Su 06:00-18:30",
      "website": "https://www.zuckersbagels.com/",
      "phone": "+1 212-874-2800",
      "outdoor_seating": "yes",
      "addr_postcode": "10023",
      "addr_street": "Columbus Avenue",
      "addr_housenumber": "273",
      "value": 39.11757486155926
    },
    {
      "id": 64080,
      "geometry": "POINT (-73.972607 40.786185)",
      "poi_name": "H&H Midtown Bagels East",
      "osm_id": 5640753251,
      "amenity": "cafe",
      "cuisine": "bagel",
      "opening_hours": "Mo-Su 06:00-19:00",
      "website": "https://www.hhmidtownbagelseast.com/",
      "phone": "+1-212-498-9828",
      "addr_postcode": "10024",
      "addr_street": "Columbus Avenue",
      "addr_housenumber": "526",
      "value": 39.11757486155926
    },
    {
      "id": 65759,
      "geometry": "POINT (-73.927204 40.865753)",
      "poi_name": "Starbucks",
      "osm_id": 5711735763,
      "amenity": "cafe",
      "cuisine": "coffee_shop",
      "wheelchair": "yes",
      "opening_hours": "Mo-Th 06:00-21:30; Fr 05:30-22:30; Sa 06:00-22:00; Su 06:00-22:30",
      "internet_access": "wlan",
      "phone": "+1-212-304-3632",
      "takeaway": "yes",
      "official_name": "Starbucks Coffee",
      "toilets": "yes",
      "addr_street": "Broadway",
      "addr_housenumber": "4761",
      "value": 39.11757486155926
    },
    {
      "id": 64816,
      "geometry": "POINT (-73.953786 40.78749)",
      "poi_name": "Champignon Caf\u00e9",
      "osm_id": 5672782246,
      "amenity": "cafe",
      "cuisine": "sandwich;breakfast;coffee_shop",
      "opening_hours": "Mo-Fr 07:00-21:00; Sa, Su 07:00-19:00",
      "website": "https://www.champignoncafe.com",
      "phone": "+1 212-987-1700",
      "takeaway": "yes",
      "delivery": "yes",
      "addr_postcode": "10029",
      "addr_street": "Madison Avenue",
      "addr_housenumber": "1389",
      "value": 39.11757486155926
    },
    {
      "id": 64817,
      "geometry": "POINT (-73.954025 40.787667)",
      "poi_name": "Da Capo Aperitivo e Caffe",
      "osm_id": 5672860212,
      "amenity": "cafe",
      "cuisine": "italian",
      "opening_hours": "Mo-Th, Su 07:00-22:00; Sa, Su 08:00-20:00",
      "website": "https://www.dacaponyc.com/#1392madisonavenyc-section",
      "phone": "+1 646-707-0684",
      "outdoor_seating": "yes",
      "delivery": "yes",
      "addr_postcode": "10029",
      "addr_street": "Madison Avenue",
      "addr_housenumber": "1392",
      "value": 39.11757486155926
    },
    {
      "id": 65715,
      "geometry": "POINT (-73.915844 40.869074)",
      "poi_name": "Cafe Tabaco and Ron",
      "osm_id": 5709144091,
      "amenity": "cafe",
      "description": "Hookah lounge with frequent live music, Latin food menu, and drinks.",
      "wheelchair": "yes",
      "opening_hours": "Mo-Sa 17:00-02:00; Su 11:00-02:00",
      "website": "http://cafetabacoyron.nyc/",
      "phone": "+1-212-567-7179",
      "addr_street": "West 214th Street",
      "addr_housenumber": "501",
      "value": 39.11757486155926
    },
    {
      "id": 65727,
      "geometry": "POINT (-73.915591 40.869363)",
      "poi_name": "Sahara Cafe",
      "osm_id": 5709672352,
      "amenity": "cafe",
      "opening_hours": "Mo-Th 17:00-02:00; Fr, Sa 17:00-03:00; Su 14:00-02:00",
      "website": "https://saharacafe.business.site/",
      "phone": "+1-646-882-0169",
      "takeaway": "yes",
      "addr_street": "10th Avenue",
      "addr_housenumber": "4026",
      "value": 39.11757486155926
    },
    {
      "id": 70933,
      "geometry": "POINT (-73.793231 41.026437)",
      "poi_name": "Gong Cha",
      "osm_id": 11378505469,
      "amenity": "cafe",
      "cuisine": "bubble_tea",
      "opening_hours": "Su-Th 11:30-21:00; Fr-Sa 11:00-21:30",
      "website": "https://gongchausa.com/",
      "phone": "9143584953",
      "addr_postcode": "10530",
      "addr_street": "Central Park Avenue",
      "addr_housenumber": "261",
      "value": 39.11757486155926
    },
    {
      "id": 66525,
      "geometry": "POINT (-73.930982 40.848325)",
      "poi_name": "Milo Coffee Shop",
      "osm_id": 11197809340,
      "amenity": "cafe",
      "cuisine": "coffee_shop",
      "wheelchair": "yes",
      "phone": "+1 917-261-4750",
      "addr_postcode": "10033",
      "addr_street": "Amsterdam Avenue",
      "addr_housenumber": "2440",
      "value": 39.11757486155926
    },
    {
      "id": 68364,
      "geometry": "POINT (-73.784097 40.909171)",
      "poi_name": "R Cafe & Tea Boutique",
      "osm_id": 11267212403,
      "amenity": "cafe",
      "value": 39.11757486155926
    },
    {
      "id": 69958,
      "geometry": "POINT (-73.542194 41.055419)",
      "poi_name": "Honey Joe\u2019s Family Coffeehouse",
      "osm_id": 11338961881,
      "amenity": "cafe",
      "cuisine": "coffee_shop",
      "website": "https://www.honeyjoescoffee.com/",
      "outdoor_seating": "no",
      "toilets": "yes",
      "addr_state": "CT",
      "addr_city": "Stamford",
      "addr_street": "Broad Street",
      "addr_housenumber": "5",
      "value": 39.11757486155926
    },
    {
      "id": 70860,
      "geometry": "POINT (-73.492193 41.147394)",
      "poi_name": "Connecticut Muffin",
      "osm_id": 11375673569,
      "amenity": "cafe",
      "cuisine": "coffee_shop",
      "opening_hours": "Mo-Sa 06:00-15:00; Su 06:30-14:00",
      "website": "https://www.connecticutmuffinnc.com/",
      "phone": "2039727557",
      "addr_postcode": "06840",
      "addr_street": "Main Street",
      "addr_housenumber": "108",
      "value": 39.11757486155926
    },
    {
      "id": 72454,
      "geometry": "POINT (-73.413354 41.117654)",
      "poi_name": "Cafe Aroma",
      "osm_id": 11427640691,
      "amenity": "cafe",
      "value": 39.11757486155926
    },
    {
      "id": 72084,
      "geometry": "POINT (-73.967796 40.803148)",
      "poi_name": "Omonia Cafe",
      "osm_id": 11411443529,
      "amenity": "cafe",
      "cuisine": "coffee_shop;dessert",
      "phone": "+1-212-246-4050",
      "outdoor_seating": "yes",
      "addr_state": "NY",
      "addr_city": "New York",
      "addr_postcode": "10025",
      "addr_street": "Broadway",
      "addr_housenumber": "2801",
      "value": 39.11757486155926
    },
    {
      "id": 72096,
      "geometry": "POINT (-73.761682 41.023256)",
      "poi_name": "Araras Coffee & More",
      "osm_id": 11412525531,
      "amenity": "cafe",
      "cuisine": "coffee_shop",
      "addr_street": "Mamaroneck Avenue",
      "addr_housenumber": "408",
      "value": 39.11757486155926
    },
    {
      "id": 72405,
      "geometry": "POINT (-73.416907 41.110678)",
      "poi_name": "Art Space Cafe",
      "osm_id": 11426121770,
      "amenity": "cafe",
      "cuisine": "coffee_shop;breakfast;lunch",
      "website": "https://www.thenorwalkartspace.org/",
      "internet_access": "yes",
      "addr_state": "CT",
      "addr_city": "Norwalk",
      "addr_postcode": "06850",
      "addr_street": "West Avenue",
      "addr_housenumber": "455",
      "value": 39.11757486155926
    },
    {
      "id": 72064,
      "geometry": "POINT (-73.96955 40.798157)",
      "poi_name": "Zelma's Caffe",
      "osm_id": 11411008768,
      "amenity": "cafe",
      "cuisine": "coffee_shop",
      "phone": "+1-646-370-3851",
      "outdoor_seating": "yes",
      "addr_state": "NY",
      "addr_city": "NewYork",
      "addr_postcode": "10025",
      "addr_street": "Broadway",
      "addr_housenumber": "2661",
      "value": 39.11757486155926
    },
    {
      "id": 72134,
      "geometry": "POINT (-73.964754 40.801435)",
      "poi_name": "M\u00f6ge Tee",
      "osm_id": 11413866658,
      "amenity": "cafe",
      "cuisine": "bubble_tea",
      "opening_hours": "Mo-Su 12:00-22:00",
      "website": "https://www.mogeteeusa.com/store-locations-1/ny",
      "outdoor_seating": "no",
      "addr_state": "NY",
      "addr_city": "New York",
      "addr_postcode": "10025",
      "addr_street": "Amsterdam Avenue",
      "addr_housenumber": "971",
      "value": 39.11757486155926
    },
    {
      "id": 72135,
      "geometry": "POINT (-73.964472 40.801512)",
      "poi_name": "Super Nice Coffee and Bakery",
      "osm_id": 11413869531,
      "amenity": "cafe",
      "cuisine": "coffee_shop;dessert",
      "opening_hours": "Mo-Fr 07:00-15:00; Sa-Su 09:00-15:00",
      "website": "https://www.supernice.nyc",
      "phone": "+1-332-257-8886",
      "outdoor_seating": "no",
      "addr_state": "NY",
      "addr_city": "New York",
      "addr_postcode": "10025",
      "addr_street": "West 108th Street",
      "addr_housenumber": "196",
      "value": 39.11757486155926
    },
    {
      "id": 72345,
      "geometry": "POINT (-73.791506 41.13542)",
      "poi_name": "Root2Rise",
      "osm_id": 11422933950,
      "amenity": "cafe",
      "website": "https://root2riseny.com",
      "addr_street": "Manville Road",
      "addr_housenumber": "359",
      "value": 39.11757486155926
    },
    {
      "id": 81798,
      "geometry": "POINT (-73.954529 40.80593)",
      "poi_name": "Starbucks",
      "osm_id": 1666603088,
      "amenity": "cafe",
      "cuisine": "coffee_shop",
      "opening_hours": "Mo-Su 05:30-20:30",
      "internet_access": "wlan",
      "phone": "+1-212-662-1239",
      "takeaway": "yes",
      "official_name": "Starbucks Coffee",
      "addr_postcode": "10026",
      "addr_street": "Frederick Douglass Boulevard",
      "addr_housenumber": "2195",
      "value": 39.11757486155926
    },
    {
      "id": 79904,
      "geometry": "POINT (-73.962447 40.805216)",
      "poi_name": "The New York Basics",
      "osm_id": 835414667,
      "amenity": "cafe",
      "opening_hours": "Mo-Sa 07:00-17:00",
      "phone": "+1-212-666-3744",
      "outdoor_seating": "no",
      "addr_street": "Amsterdam Avenue",
      "addr_housenumber": "1090",
      "value": 39.11757486155926
    },
    {
      "id": 72842,
      "geometry": "POINT (-73.40428 41.121583)",
      "poi_name": "Starbucks",
      "osm_id": 11449932948,
      "amenity": "cafe",
      "cuisine": "coffee_shop",
      "takeaway": "yes",
      "official_name": "Starbucks Coffee",
      "addr_state": "CT",
      "addr_city": "Norwalk",
      "addr_postcode": "06851",
      "addr_street": "Westport Avenue",
      "addr_housenumber": "52",
      "value": 39.11757486155926
    },
    {
      "id": 73440,
      "geometry": "POINT (-73.95851 40.816728)",
      "poi_name": "Dear Mama",
      "osm_id": 9633471059,
      "amenity": "cafe",
      "opening_hours": "Mo-Su 07:00-22:00",
      "website": "https://www.dearmamacoffee.com/",
      "internet_access": "wlan",
      "phone": "+1-716-727-2854",
      "outdoor_seating": "yes",
      "addr_state": "NY",
      "addr_city": "New York",
      "addr_postcode": "10027",
      "addr_street": "West 129th Street",
      "addr_housenumber": "611",
      "value": 39.11757486155926
    },
    {
      "id": 73698,
      "geometry": "POINT (-73.595657 41.392506)",
      "poi_name": "Dunkin\u2019",
      "osm_id": 9650808512,
      "amenity": "cafe",
      "value": 39.11757486155926
    },
    {
      "id": 76041,
      "geometry": "POINT (-73.75498 41.178891)",
      "poi_name": "Starbucks",
      "osm_id": 9757863599,
      "amenity": "cafe",
      "cuisine": "coffee_shop",
      "phone": "+1-914-414-4674",
      "takeaway": "yes",
      "drive_through": "yes",
      "official_name": "Starbucks Coffee",
      "addr_state": "NY",
      "addr_city": "Chappaqua",
      "addr_postcode": "10514",
      "addr_street": "North Bedford Road",
      "addr_housenumber": "480",
      "value": 39.11757486155926
    },
    {
      "id": 78441,
      "geometry": "POINT (-73.97277 40.793842)",
      "poi_name": "Starbucks",
      "osm_id": 746176794,
      "amenity": "cafe",
      "cuisine": "coffee_shop",
      "opening_hours": "Mo-Th 05:30-22:00; Fr 05:30-23:00; Sa 06:00-23:00; Su 06:00-22:00",
      "internet_access": "wlan",
      "takeaway": "yes",
      "official_name": "Starbucks Coffee",
      "addr_state": "NY",
      "addr_city": "New York",
      "addr_postcode": "10025",
      "addr_street": "Broadway",
      "addr_housenumber": "2521",
      "value": 39.11757486155926
    },
    {
      "id": 88893,
      "geometry": "POINT (-73.780537 41.270649)",
      "poi_name": "Trailside Cafe",
      "osm_id": 8805991308,
      "amenity": "cafe",
      "addr_state": "NY",
      "addr_city": "Yorktown Heights",
      "addr_postcode": "10598",
      "addr_street": "Commerce Street",
      "addr_housenumber": "1807",
      "value": 39.11757486155926
    },
    {
      "id": 84727,
      "geometry": "POINT (-73.965538 40.795222)",
      "poi_name": "Starbucks",
      "osm_id": 1810737611,
      "amenity": "cafe",
      "cuisine": "coffee_shop",
      "opening_hours": "Mo-Su 06:00-23:00",
      "internet_access": "no",
      "phone": "+1 212 222 6582",
      "takeaway": "yes",
      "official_name": "Starbucks Coffee",
      "outdoor_seating": "no",
      "value": 39.11757486155926
    },
    {
      "id": 87042,
      "geometry": "POINT (-73.942838 40.810931)",
      "poi_name": "Astor Row Cafe",
      "osm_id": 1967406009,
      "amenity": "cafe",
      "cuisine": "coffee_shop",
      "internet_access": "wlan",
      "addr_state": "NY",
      "addr_city": "New York",
      "addr_postcode": "10037",
      "addr_street": "Lenox Avenue",
      "addr_housenumber": "404",
      "value": 39.11757486155926
    },
    {
      "id": 84856,
      "geometry": "POINT (-73.976444 40.787968)",
      "poi_name": "Broad Nosh Bagel",
      "osm_id": 1821015958,
      "amenity": "cafe",
      "wheelchair": "yes",
      "opening_hours": "Mo-Su 07:00-20:00",
      "website": "https://broadnosh.com",
      "phone": "+1-212-600-0933",
      "outdoor_seating": "yes",
      "addr_state": "NY",
      "addr_city": "New York",
      "addr_postcode": "10025",
      "addr_street": "Broadway",
      "addr_housenumber": "2350",
      "value": 39.11757486155926
    },
    {
      "id": 84859,
      "geometry": "POINT (-73.977098 40.78838)",
      "poi_name": "The Crossbar",
      "osm_id": 1821015965,
      "amenity": "cafe",
      "cuisine": "coffee_shop",
      "wheelchair": "no",
      "opening_hours": "07:00-16:00",
      "website": "https://www.crossbarnyc.com",
      "phone": "+1 212-580-8923",
      "addr_state": "NY",
      "addr_city": "New York",
      "addr_postcode": "10024",
      "addr_street": "West 86th Street",
      "addr_housenumber": "250",
      "value": 39.11757486155926
    },
    {
      "id": 87677,
      "geometry": "POINT (-73.948227 40.789831)",
      "poi_name": "Frenchy Cafe",
      "osm_id": 8732421661,
      "amenity": "cafe",
      "cuisine": "coffee_shop;french",
      "wheelchair": "yes",
      "opening_hours": "Mo-Fr 07:00-17:00; Sa 08:00-17:00",
      "website": "http://frenchycoffeenyc.com/",
      "phone": "+1 646-891-0088",
      "takeaway": "yes",
      "delivery": "yes",
      "addr_state": "NY",
      "addr_city": "New York",
      "addr_postcode": "10029",
      "addr_street": "East 102nd Street",
      "addr_housenumber": "129",
      "value": 39.11757486155926
    },
    {
      "id": 88836,
      "geometry": "POINT (-73.677725 41.427271)",
      "poi_name": "The Baker\u2019s Daughter",
      "osm_id": 8804338500,
      "amenity": "cafe",
      "opening_hours": "Tu-Fr 10:00-19:00; Sa 07:00-16:00",
      "phone": "(914) 473-2473",
      "addr_state": "NY",
      "addr_city": "Carmel",
      "addr_postcode": "10512",
      "addr_street": "Fair Street",
      "addr_housenumber": "14",
      "value": 39.11757486155926
    },
    {
      "id": 89700,
      "geometry": "POINT (-73.301885 41.249944)",
      "poi_name": "Greiser's Coffee & Market",
      "osm_id": 8855756120,
      "amenity": "cafe",
      "cuisine": "coffee_shop;sandwich;bakery",
      "opening_hours": "Mo-Fr 07:00-17:00",
      "website": "https://www.greisers.com/",
      "phone": "203-220-9424",
      "addr_state": "CT",
      "addr_city": "Easton",
      "addr_postcode": "06612",
      "addr_street": "Center Road",
      "addr_housenumber": "295",
      "value": 39.11757486155926
    },
    {
      "id": 90838,
      "geometry": "POINT (-73.600219 41.037362)",
      "poi_name": "Starbucks",
      "osm_id": 2021066052,
      "amenity": "cafe",
      "cuisine": "coffee_shop",
      "takeaway": "yes",
      "official_name": "Starbucks Coffee",
      "addr_state": "CT",
      "addr_city": "Cos Cob",
      "addr_postcode": "06807",
      "addr_street": "East Putnam Avenue",
      "addr_housenumber": "147",
      "value": 39.11757486155926
    },
    {
      "id": 91846,
      "geometry": "POINT (-73.958756 40.801023)",
      "poi_name": "Cafe Amrita",
      "osm_id": 2091641953,
      "amenity": "cafe",
      "opening_hours": "Mo-Su 08:00-23:00",
      "website": "https://amritacafe.com",
      "internet_access": "wlan",
      "phone": "+1-212-222-0683",
      "addr_state": "NY",
      "addr_city": "New York",
      "addr_postcode": "10026",
      "addr_street": "Cathedral Parkway",
      "addr_housenumber": "301",
      "value": 39.11757486155926
    },
    {
      "id": 91080,
      "geometry": "POINT (-73.904415 40.906578)",
      "poi_name": "Carlos and Gabby's",
      "osm_id": 2039276429,
      "amenity": "cafe",
      "cuisine": "mexican",
      "value": 39.11757486155926
    },
    {
      "id": 91095,
      "geometry": "POINT (-73.908492 40.873542)",
      "poi_name": "Starbucks",
      "osm_id": 2041169444,
      "amenity": "cafe",
      "cuisine": "coffee_shop",
      "wheelchair": "yes",
      "takeaway": "yes",
      "official_name": "Starbucks Coffee",
      "value": 39.11757486155926
    },
    {
      "id": 106554,
      "geometry": "POINT (-73.972482 40.794207)",
      "poi_name": "Filicori Zecchini",
      "osm_id": 8687882712,
      "amenity": "cafe",
      "opening_hours": "Mo-Sa 06:00-18:00; Su 08:00-18:00",
      "website": "https://www.filicorizecchini.com",
      "addr_city": "New York",
      "addr_street": "Broadway",
      "addr_housenumber": "2541",
      "value": 39.11757486155926
    },
    {
      "id": 101392,
      "geometry": "POINT (-73.538439 41.056173)",
      "poi_name": "Lorca",
      "osm_id": 6625188920,
      "amenity": "cafe",
      "value": 39.11757486155926
    },
    {
      "id": 105123,
      "geometry": "POINT (-73.669354 40.991427)",
      "poi_name": "Small Village Cafe",
      "osm_id": 8603562543,
      "amenity": "cafe",
      "website": "https://www.smallvillagecafeportchester.com",
      "value": 39.11757486155926
    },
    {
      "id": 105693,
      "geometry": "POINT (-73.970466 40.793482)",
      "poi_name": "PlantShed New York Flowers",
      "osm_id": 8641328556,
      "amenity": "cafe",
      "cuisine": "coffee_shop",
      "website": "https://www.plantshed.com/",
      "outdoor_seating": "yes",
      "addr_state": "NY",
      "addr_city": "New York",
      "addr_postcode": "10025",
      "addr_street": "Amsterdam Avenue",
      "addr_housenumber": "723",
      "value": 39.11757486155926
    },
    {
      "id": 105694,
      "geometry": "POINT (-73.971056 40.794176)",
      "poi_name": "gertrude",
      "osm_id": 8641328557,
      "amenity": "cafe",
      "cuisine": "coffee_shop",
      "opening_hours": "Mo-Su 07:00-17:00",
      "website": "https://www.gertrudenyc.com",
      "outdoor_seating": "yes",
      "addr_state": "NY",
      "addr_city": "New York",
      "addr_postcode": "10025",
      "addr_street": "West 96th Street",
      "addr_housenumber": "204",
      "value": 39.11757486155926
    },
    {
      "id": 95730,
      "geometry": "POINT (-73.736072 40.952222)",
      "poi_name": "The Roasters Cafe",
      "osm_id": 6409467489,
      "amenity": "cafe",
      "outdoor_seating": "yes",
      "toilets": "customers",
      "addr_state": "NY",
      "addr_city": "Mamaroneck",
      "addr_postcode": "10543",
      "addr_street": "Mamaroneck Avenue",
      "addr_housenumber": "419",
      "value": 39.11757486155926
    },
    {
      "id": 96026,
      "geometry": "POINT (-73.472873 41.074848)",
      "poi_name": "Caff\u00e8 Nero",
      "osm_id": 6418413701,
      "amenity": "cafe",
      "cuisine": "coffee_shop",
      "internet_access": "wlan",
      "takeaway": "yes",
      "value": 39.11757486155926
    },
    {
      "id": 98217,
      "geometry": "POINT (-73.945142 40.815731)",
      "poi_name": "Acts III Bagels",
      "osm_id": 6511878535,
      "amenity": "cafe",
      "opening_hours": "Mo-Fr 07:00-17:00; Sa 08:00-16:00; Su closed",
      "website": "https://acts3bagels.com/",
      "phone": "+1 212 2812287",
      "takeaway": "yes",
      "addr_city": "New York",
      "addr_postcode": "10030",
      "addr_street": "West 135th Street",
      "addr_housenumber": "236",
      "value": 39.11757486155926
    },
    {
      "id": 99363,
      "geometry": "POINT (-73.956201 40.80294)",
      "poi_name": "Cafe Frederick",
      "osm_id": 6549322049,
      "amenity": "cafe",
      "cuisine": "cake;breakfast;coffee_shop",
      "opening_hours": "Mo-Su 09:00-17:00",
      "internet_access": "wlan",
      "phone": "+1-212-222-1987",
      "outdoor_seating": "yes",
      "addr_state": "NY",
      "addr_city": "New York",
      "addr_postcode": "10026",
      "addr_street": "Frederick Douglass Boulevard",
      "addr_housenumber": "2104",
      "value": 39.11757486155926
    },
    {
      "id": 102387,
      "geometry": "POINT (-73.952602 40.798812)",
      "poi_name": "Little Bean Cafe",
      "osm_id": 6680630128,
      "amenity": "cafe",
      "addr_street": "Central Park North",
      "addr_housenumber": "111",
      "value": 39.11757486155926
    },
    {
      "id": 107221,
      "geometry": "POINT (-73.423409 41.156408)",
      "poi_name": "Starbucks",
      "osm_id": 3545198693,
      "amenity": "cafe",
      "cuisine": "coffee_shop",
      "takeaway": "yes",
      "official_name": "Starbucks Coffee",
      "value": 39.11757486155926
    },
    {
      "id": 110398,
      "geometry": "POINT (-73.256018 41.142345)",
      "poi_name": "The Chelsea Cafe",
      "osm_id": 3700542178,
      "amenity": "cafe",
      "value": 39.11757486155926
    },
    {
      "id": 109577,
      "geometry": "POINT (-73.547468 41.107631)",
      "poi_name": "Starbucks",
      "osm_id": 3666219620,
      "amenity": "cafe",
      "cuisine": "coffee_shop",
      "takeaway": "yes",
      "official_name": "Starbucks Coffee",
      "value": 39.11757486155926
    },
    {
      "id": 110428,
      "geometry": "POINT (-73.250477 41.14602)",
      "poi_name": "Tony D's Sports Cafe",
      "osm_id": 3702088997,
      "amenity": "cafe",
      "value": 39.11757486155926
    },
    {
      "id": 108589,
      "geometry": "POINT (-73.945255 40.834513)",
      "poi_name": "Taszo Espresso Bar",
      "osm_id": 3627346235,
      "amenity": "cafe",
      "cuisine": "coffee_shop",
      "internet_access": "yes",
      "addr_state": "NY",
      "addr_city": "New York",
      "addr_postcode": "10032",
      "addr_street": "Edward M. Morgan Place",
      "addr_housenumber": "5",
      "value": 39.11757486155926
    },
    {
      "id": 108593,
      "geometry": "POINT (-73.945266 40.834619)",
      "poi_name": "Caffe Bene",
      "osm_id": 3627374568,
      "amenity": "cafe",
      "cuisine": "coffee_shop",
      "internet_access": "yes",
      "addr_state": "NY",
      "addr_city": "New York",
      "addr_postcode": "10032",
      "addr_street": "Edward M. Morgan Place",
      "addr_housenumber": "9",
      "value": 39.11757486155926
    },
    {
      "id": 110461,
      "geometry": "POINT (-73.246255 41.147949)",
      "poi_name": "Village Bagels",
      "osm_id": 3703771301,
      "amenity": "cafe",
      "cuisine": "bagel",
      "value": 39.11757486155926
    },
    {
      "id": 110989,
      "geometry": "POINT (-73.256822 41.141959)",
      "poi_name": "Catch A Healthy Habit Cafe",
      "osm_id": 3726748777,
      "amenity": "cafe",
      "cuisine": "juice",
      "value": 39.11757486155926
    },
    {
      "id": 110539,
      "geometry": "POINT (-73.227032 41.156835)",
      "poi_name": "Source Coffeehouse",
      "osm_id": 3707407915,
      "amenity": "cafe",
      "value": 39.11757486155926
    },
    {
      "id": 111008,
      "geometry": "POINT (-73.259817 41.140876)",
      "poi_name": "Quattro Pazzi",
      "osm_id": 3726955897,
      "amenity": "cafe",
      "cuisine": "italian",
      "value": 39.11757486155926
    },
    {
      "id": 111009,
      "geometry": "POINT (-73.262249 41.141383)",
      "poi_name": "Starbucks",
      "osm_id": 3726955907,
      "amenity": "cafe",
      "cuisine": "coffee_shop",
      "takeaway": "yes",
      "official_name": "Starbucks Coffee",
      "addr_state": "CT",
      "addr_city": "Fairfield",
      "addr_postcode": "06824",
      "addr_street": "Post Road",
      "addr_housenumber": "1740",
      "value": 39.11757486155926
    },
    {
      "id": 111010,
      "geometry": "POINT (-73.258474 41.140907)",
      "poi_name": "Starbucks",
      "osm_id": 3726955908,
      "amenity": "cafe",
      "cuisine": "coffee_shop",
      "opening_hours": "Mo-Sa 09:00-21:00; Su 10:00-18:00",
      "takeaway": "yes",
      "official_name": "Starbucks Coffee",
      "value": 39.11757486155926
    },
    {
      "id": 120195,
      "geometry": "POINT (-73.952662 40.810303)",
      "poi_name": "Starbucks",
      "osm_id": 9144041599,
      "amenity": "cafe",
      "cuisine": "coffee_shop",
      "takeaway": "yes",
      "official_name": "Starbucks Coffee",
      "value": 39.11757486155926
    },
    {
      "id": 113714,
      "geometry": "POINT (-73.960878 40.807525)",
      "poi_name": "Nous Espresso",
      "osm_id": 3843956495,
      "amenity": "cafe",
      "cuisine": "coffee_shop",
      "value": 39.11757486155926
    },
    {
      "id": 113717,
      "geometry": "POINT (-73.910147 40.885861)",
      "poi_name": "Starbucks",
      "osm_id": 3843979174,
      "amenity": "cafe",
      "cuisine": "coffee_shop",
      "internet_access": "wlan",
      "takeaway": "yes",
      "official_name": "Starbucks Coffee",
      "value": 39.11757486155926
    },
    {
      "id": 122035,
      "geometry": "POINT (-73.977728 40.783661)",
      "poi_name": "Bluestone Lane Upper West Side",
      "osm_id": 6784987781,
      "amenity": "cafe",
      "opening_hours": "Mo-Th 07:30-18:00; Fr-Su 07:30-19:00",
      "website": "https://bluestonelane.com/cafes/upper-west-side-417-amsterdam-ave-new-york/",
      "phone": "+1 718-374-6858",
      "outdoor_seating": "yes",
      "addr_street": "Amsterdam Avenue",
      "addr_housenumber": "417",
      "value": 39.11757486155926
    },
    {
      "id": 120452,
      "geometry": "POINT (-73.77997 41.036437)",
      "poi_name": "City Limits",
      "osm_id": 6704159993,
      "amenity": "cafe",
      "wheelchair": "yes",
      "opening_hours": "Su-Th 08:00-21:00; Fr,Sa 08:00-22:00",
      "value": 39.11757486155926
    },
    {
      "id": 124046,
      "geometry": "POINT (-73.977428 40.779588)",
      "poi_name": "Da Capo",
      "osm_id": 6898244691,
      "amenity": "cafe",
      "website": "https://www.dacaponyc.com/",
      "phone": "+ 1 646 882 0197",
      "addr_state": "NY",
      "addr_city": "New York",
      "addr_postcode": "10023",
      "addr_street": "Columbus Avenue",
      "addr_housenumber": "322",
      "value": 39.11757486155926
    },
    {
      "id": 139637,
      "geometry": "POINT (-73.94102 40.79287)",
      "poi_name": "Raspberry Deli & Grocery",
      "osm_id": 6206712391,
      "amenity": "cafe",
      "cuisine": "sandwich",
      "opening_hours": "Mo-Fr 06:00-15:30; Sa 06:00-12:00; Su 06:30-14:30",
      "phone": "+1 212-860-2615",
      "takeaway": "yes",
      "addr_street": "2nd Avenue",
      "addr_housenumber": "2127",
      "value": 39.11757486155926
    },
    {
      "id": 128545,
      "geometry": "POINT (-73.807733 40.989704)",
      "poi_name": "Parkway Cafe",
      "osm_id": 8168990850,
      "amenity": "cafe",
      "value": 39.11757486155926
    },
    {
      "id": 128965,
      "geometry": "POINT (-73.79959 41.017143)",
      "poi_name": "Starbucks",
      "osm_id": 8199760199,
      "amenity": "cafe",
      "cuisine": "coffee_shop",
      "takeaway": "yes",
      "official_name": "Starbucks Coffee",
      "value": 39.11757486155926
    },
    {
      "id": 128966,
      "geometry": "POINT (-73.808129 40.99015)",
      "poi_name": "Starbucks",
      "osm_id": 8199833132,
      "amenity": "cafe",
      "cuisine": "coffee_shop",
      "takeaway": "yes",
      "official_name": "Starbucks Coffee",
      "value": 39.11757486155926
    },
    {
      "id": 133835,
      "geometry": "POINT (-73.875974 41.014105)",
      "poi_name": "Climbing Wolf Coffee & Beer",
      "osm_id": 10012251967,
      "amenity": "cafe",
      "opening_hours": "Su 08:00-20:00; Mo 07:00-20:00; Tu-Th 07:00-23:00; Fr 07:00-23:00; Sa 08:00-01:00",
      "website": "https://climbingwolf.com",
      "phone": "+1 914-355-7108",
      "takeaway": "yes",
      "addr_state": "NY",
      "addr_city": "Dobbs Ferry",
      "addr_postcode": "10522",
      "addr_street": "Main Street",
      "addr_housenumber": "78",
      "value": 39.11757486155926
    },
    {
      "id": 133924,
      "geometry": "POINT (-73.857282 41.003121)",
      "poi_name": "Starbucks",
      "osm_id": 10016374800,
      "amenity": "cafe",
      "cuisine": "coffee_shop",
      "opening_hours": "Mo-Fr 05:30-21:00; Sa, Su 06:00-21:00",
      "website": "https://www.starbucks.com/store-locator/store/7455",
      "phone": "+1 914-674-5940",
      "takeaway": "yes",
      "drive_through": "yes",
      "official_name": "Starbucks Coffee",
      "addr_state": "NY",
      "addr_city": "Dobbs Ferry",
      "addr_postcode": "10522",
      "addr_street": "Stanley Avenue",
      "addr_housenumber": "45",
      "value": 39.11757486155926
    },
    {
      "id": 134583,
      "geometry": "POINT (-73.974269 40.791772)",
      "poi_name": "Blank Street Coffee",
      "osm_id": 11477076134,
      "amenity": "cafe",
      "cuisine": "coffee_shop",
      "takeaway": "yes",
      "outdoor_seating": "no",
      "addr_state": "NY",
      "addr_city": "New York",
      "addr_postcode": "10025",
      "addr_street": "Broadway",
      "addr_housenumber": "2461",
      "value": 39.11757486155926
    },
    {
      "id": 135482,
      "geometry": "POINT (-73.959344 40.801263)",
      "poi_name": "Mom's Food Market",
      "osm_id": 11517456127,
      "amenity": "cafe",
      "opening_hours": "24/7",
      "website": "https://www.momsfoodmarket.getsauce.com",
      "phone": "+1-646-964-4527",
      "addr_state": "NY",
      "addr_city": "New York",
      "addr_postcode": "10026",
      "addr_street": "Cathedral Parkway",
      "addr_housenumber": "321",
      "value": 39.11757486155926
    },
    {
      "id": 135483,
      "geometry": "POINT (-73.957591 40.80083)",
      "poi_name": "Purple Waves",
      "osm_id": 11517472730,
      "amenity": "cafe",
      "phone": "+1-212-927-1101",
      "addr_state": "NY",
      "addr_city": "New York",
      "addr_postcode": "10026",
      "addr_street": "West 110th Street",
      "addr_housenumber": "285",
      "value": 39.11757486155926
    },
    {
      "id": 135909,
      "geometry": "POINT (-73.961568 40.798879)",
      "poi_name": "MACC Deli",
      "osm_id": 11545491005,
      "amenity": "cafe",
      "phone": "+1-646-756-4299",
      "addr_state": "NY",
      "addr_city": "New York",
      "addr_postcode": "10025",
      "addr_street": "West 106th Street",
      "addr_housenumber": "51",
      "value": 39.11757486155926
    },
    {
      "id": 126880,
      "geometry": "POINT (-73.802148 41.047504)",
      "poi_name": "Crosswest Office Building",
      "osm_id": 8007225290,
      "amenity": "cafe",
      "cuisine": "burger;coffee_shop",
      "internet_access": "no",
      "outdoor_seating": "no",
      "addr_state": "NY",
      "addr_city": "White Plains",
      "addr_postcode": "10603",
      "addr_street": "Knollwood Road",
      "addr_housenumber": "399",
      "value": 39.11757486155926
    },
    {
      "id": 130200,
      "geometry": "POINT (-73.940637 40.792778)",
      "poi_name": "Lamb's Bread",
      "osm_id": 9859366273,
      "amenity": "cafe",
      "cuisine": "cannabis",
      "opening_hours": "Mo-Sa 11:00-21:00; Su 12:00-21:00",
      "website": "https://www.lambsbreadcafe.com/",
      "phone": "+1 646-649-3023",
      "addr_postcode": "10029",
      "addr_street": "2nd Avenue",
      "addr_housenumber": "2128",
      "value": 39.11757486155926
    },
    {
      "id": 134616,
      "geometry": "POINT (-73.980292 40.780068)",
      "poi_name": "Frame",
      "osm_id": 11479001393,
      "amenity": "cafe",
      "cuisine": "coffee_shop",
      "opening_hours": "Mo-Su 07:00-17:00",
      "outdoor_seating": "no",
      "value": 39.11757486155926
    },
    {
      "id": 134617,
      "geometry": "POINT (-73.979401 40.781326)",
      "poi_name": "Joe & The Juice",
      "osm_id": 11479001567,
      "amenity": "cafe",
      "cuisine": "coffee_shop",
      "takeaway": "yes",
      "value": 39.11757486155926
    },
    {
      "id": 135554,
      "geometry": "POINT (-73.973679 40.791584)",
      "poi_name": "Joe & The Juice",
      "osm_id": 11521280861,
      "amenity": "cafe",
      "cuisine": "coffee_shop",
      "opening_hours": "Mo-Su 07:00-19:00",
      "takeaway": "yes",
      "outdoor_seating": "no",
      "addr_state": "NY",
      "addr_city": "New York",
      "addr_postcode": "10025",
      "addr_street": "Broadway",
      "addr_housenumber": "2460",
      "value": 39.11757486155926
    },
    {
      "id": 141066,
      "geometry": "POINT (-73.954402 40.787132)",
      "poi_name": "Starbucks",
      "osm_id": 6270649485,
      "amenity": "cafe",
      "cuisine": "coffee_shop",
      "opening_hours": "05:00-21:30",
      "website": "https://www.starbucks.com/store-locator/store/12003/96th-madison-1378-madison-avenue-new-york-ny-101280712-us",
      "phone": "+1 212-534-7225",
      "takeaway": "yes",
      "official_name": "Starbucks Coffee",
      "addr_street": "Madison Avenue",
      "addr_housenumber": "1378",
      "value": 39.11757486155926
    },
    {
      "id": 145891,
      "geometry": "POINT (-73.95968 40.807226)",
      "poi_name": "Publique",
      "osm_id": 7395477870,
      "amenity": "cafe",
      "internet_access": "wlan",
      "outdoor_seating": "no",
      "addr_state": "NY",
      "addr_city": "New York",
      "addr_postcode": "10027",
      "addr_street": "West 118th Street",
      "addr_housenumber": "420",
      "value": 39.11757486155926
    },
    {
      "id": 141543,
      "geometry": "POINT (-73.416246 41.096493)",
      "poi_name": "Sono Baking Company & Cafe",
      "osm_id": 6289266385,
      "amenity": "cafe",
      "opening_hours": "Mo-Su 08:00-18:00",
      "internet_access": "wlan",
      "addr_street": "Hanford Place",
      "value": 39.11757486155926
    },
    {
      "id": 144361,
      "geometry": "POINT (-73.953159 40.807773)",
      "poi_name": "Zoe Caf\u00e9 and Hookah Lounge",
      "osm_id": 7259558970,
      "amenity": "cafe",
      "value": 39.11757486155926
    },
    {
      "id": 144810,
      "geometry": "POINT (-73.877937 40.831016)",
      "poi_name": "ABC Cafe",
      "osm_id": 7288725909,
      "amenity": "cafe",
      "cuisine": "deli;american;latin_american;snack;lunch",
      "internet_access": "no",
      "outdoor_seating": "no",
      "addr_state": "NY",
      "addr_city": "Bronx",
      "addr_postcode": "10472",
      "addr_street": "Ward Avenue",
      "addr_housenumber": "1265",
      "value": 39.11757486155926
    },
    {
      "id": 146816,
      "geometry": "POINT (-73.759399 40.932941)",
      "poi_name": "e-shot cafe",
      "osm_id": 7476550372,
      "amenity": "cafe",
      "addr_state": "NY",
      "addr_city": "Larchmont",
      "addr_postcode": "10538",
      "addr_street": "North Chatsworth Avenue",
      "addr_housenumber": "130",
      "value": 39.11757486155926
    },
    {
      "id": 146848,
      "geometry": "POINT (-73.75119 40.929487)",
      "poi_name": "Bradley's Desserts & Catering",
      "osm_id": 7482771083,
      "amenity": "cafe",
      "addr_state": "NY",
      "addr_city": "Larchmont",
      "addr_postcode": "10538",
      "addr_street": "Chatsworth Avenue",
      "addr_housenumber": "2",
      "value": 39.11757486155926
    },
    {
      "id": 146737,
      "geometry": "POINT (-73.746065 40.938611)",
      "poi_name": "Cafeto",
      "osm_id": 7472318313,
      "amenity": "cafe",
      "value": 39.11757486155926
    },
    {
      "id": 146861,
      "geometry": "POINT (-73.752042 40.927862)",
      "poi_name": "La Parisienne French Bakery Cafe",
      "osm_id": 7483352238,
      "amenity": "cafe",
      "addr_state": "NY",
      "addr_city": "Larchmont",
      "addr_postcode": "10538",
      "addr_street": "Boston Post Road",
      "addr_housenumber": "2116",
      "value": 39.11757486155926
    },
    {
      "id": 147113,
      "geometry": "POINT (-73.830271 40.867352)",
      "poi_name": "Starbucks",
      "osm_id": 7505992414,
      "amenity": "cafe",
      "cuisine": "coffee_shop",
      "opening_hours": "Mo-Su 06:00-18:00",
      "takeaway": "yes",
      "official_name": "Starbucks Coffee",
      "addr_state": "NY",
      "addr_city": "Bronx",
      "addr_postcode": "10475",
      "addr_street": "Baychester Avenue",
      "addr_housenumber": "346",
      "value": 39.11757486155926
    },
    {
      "id": 146930,
      "geometry": "POINT (-73.759613 40.932257)",
      "poi_name": "Starbucks",
      "osm_id": 7487671245,
      "amenity": "cafe",
      "cuisine": "coffee_shop",
      "takeaway": "yes",
      "official_name": "Starbucks Coffee",
      "addr_state": "NY",
      "addr_city": "Larchmont",
      "addr_postcode": "10538",
      "addr_street": "Palmer Avenue",
      "addr_housenumber": "1929",
      "value": 39.11757486155926
    },
    {
      "id": 146960,
      "geometry": "POINT (-73.759984 40.931937)",
      "poi_name": "East Ave Cafe",
      "osm_id": 7489709608,
      "amenity": "cafe",
      "addr_state": "NY",
      "addr_city": "Larchmont",
      "addr_postcode": "10538",
      "addr_street": "East Avenue",
      "addr_housenumber": "2",
      "value": 39.11757486155926
    },
    {
      "id": 148107,
      "geometry": "POINT (-73.236283 41.19767)",
      "poi_name": "Joseph's Bagel & Grill",
      "osm_id": 3929357216,
      "amenity": "cafe",
      "cuisine": "bagel",
      "value": 39.11757486155926
    },
    {
      "id": 147260,
      "geometry": "POINT (-73.74393 40.940037)",
      "poi_name": "Starbucks",
      "osm_id": 7519090083,
      "amenity": "cafe",
      "cuisine": "coffee_shop",
      "takeaway": "yes",
      "official_name": "Starbucks Coffee",
      "addr_state": "NY",
      "addr_city": "Mamaroneck",
      "addr_postcode": "10543",
      "addr_street": "West Boston Post Road",
      "addr_housenumber": "1030",
      "value": 39.11757486155926
    },
    {
      "id": 147665,
      "geometry": "POINT (-73.330566 41.138368)",
      "poi_name": "Starbucks",
      "osm_id": 7554135756,
      "amenity": "cafe",
      "cuisine": "coffee_shop",
      "takeaway": "yes",
      "official_name": "Starbucks Coffee",
      "value": 39.11757486155926
    },
    {
      "id": 148875,
      "geometry": "POINT (-73.534165 41.044576)",
      "poi_name": "Le Pain Quotidien",
      "osm_id": 3985529020,
      "amenity": "cafe",
      "cuisine": "coffee_shop",
      "internet_access": "yes",
      "phone": "+1-203-883-1774",
      "takeaway": "yes",
      "addr_state": "CT",
      "addr_city": "Stamford",
      "addr_postcode": "06902",
      "addr_street": "Canal Street",
      "addr_housenumber": "711",
      "value": 39.11757486155926
    },
    {
      "id": 151358,
      "geometry": "POINT (-73.62537 41.024784)",
      "poi_name": "Starbucks",
      "osm_id": 4095170793,
      "amenity": "cafe",
      "cuisine": "coffee_shop",
      "takeaway": "yes",
      "official_name": "Starbucks Coffee",
      "addr_state": "CT",
      "addr_city": "Greenwich",
      "addr_postcode": "06830",
      "addr_street": "Greenwich Avenue",
      "addr_housenumber": "301",
      "value": 39.11757486155926
    },
    {
      "id": 150327,
      "geometry": "POINT (-73.795722 41.011176)",
      "poi_name": "Starbucks",
      "osm_id": 4049762616,
      "amenity": "cafe",
      "cuisine": "coffee_shop",
      "takeaway": "yes",
      "official_name": "Starbucks Coffee",
      "value": 39.11757486155926
    },
    {
      "id": 160860,
      "geometry": "POINT (-73.967764 40.800135)",
      "poi_name": "Plowshares Coffee Roasters",
      "osm_id": 4850904724,
      "amenity": "cafe",
      "addr_street": "Broadway",
      "addr_housenumber": "2730",
      "value": 39.11757486155926
    },
    {
      "id": 153164,
      "geometry": "POINT (-73.904952 40.887366)",
      "poi_name": "An Beal Bocht Cafe",
      "osm_id": 4181508248,
      "amenity": "cafe",
      "opening_hours": "Mo-Su 10:00-04:00",
      "website": "http://www.anbealbochtcafe.com/",
      "phone": "+1 718 884 7127",
      "value": 39.11757486155926
    },
    {
      "id": 158432,
      "geometry": "POINT (-73.948532 40.828567)",
      "poi_name": "Chipped Cup Coffee & Victuals",
      "osm_id": 4747210026,
      "amenity": "cafe",
      "opening_hours": "Su, Sa 08:00-20:00; Mo-Fr 07:00-20:00",
      "website": "https://chippedcupcoffee.com",
      "internet_access": "yes",
      "phone": "+1 (212) 368-8881",
      "addr_state": "NY",
      "addr_city": "New York",
      "addr_postcode": "10031",
      "addr_street": "Broadway",
      "addr_housenumber": "3610",
      "value": 39.11757486155926
    },
    {
      "id": 160063,
      "geometry": "POINT (-73.963682 40.80755)",
      "poi_name": "Joe Coffee Company",
      "osm_id": 4816185281,
      "amenity": "cafe",
      "cuisine": "coffee_shop",
      "wheelchair": "no",
      "opening_hours": "Mo-Fr 08:00-20:00; Sa-Su 09:00-17:00",
      "internet_access": "wlan",
      "outdoor_seating": "yes",
      "addr_state": "NY",
      "addr_city": "New York",
      "addr_postcode": "10027",
      "addr_street": "Broadway",
      "addr_housenumber": "2950",
      "value": 39.11757486155926
    },
    {
      "id": 151731,
      "geometry": "POINT (-73.942647 40.823326)",
      "poi_name": "Starbucks",
      "osm_id": 4111168991,
      "amenity": "cafe",
      "cuisine": "coffee_shop",
      "opening_hours": "Mo-Th, Su 06:00-22:00; Fr 06:00-22:30; Sa 05:30-22:30",
      "website": "https://www.starbucks.com/store-locator/store/18230/145th-bradhurst-301-w-145th-st-new-york-ny-100393159-us",
      "phone": "+1 212-690-7835",
      "takeaway": "yes",
      "official_name": "Starbucks Coffee",
      "addr_postcode": "10039",
      "addr_street": "West 145th Street",
      "addr_housenumber": "301",
      "value": 39.11757486155926
    },
    {
      "id": 152230,
      "geometry": "POINT (-73.953436 40.787936)",
      "poi_name": "Le Pain Quotidien",
      "osm_id": 4133854273,
      "amenity": "cafe",
      "cuisine": "coffee_shop",
      "opening_hours": "Mo-Fr 07:00-18:00; Sa, Su 08:00-17:00",
      "website": "https://www.lepainquotidien.com/us/en/locations/97th_&_Madison/1399-Madison-Ave",
      "internet_access": "wlan",
      "phone": "+16466633149",
      "takeaway": "yes",
      "addr_street": "Madison Avenue",
      "addr_housenumber": "1399",
      "value": 39.11757486155926
    },
    {
      "id": 159586,
      "geometry": "POINT (-73.444746 41.09813)",
      "poi_name": "Starbucks",
      "osm_id": 4798987844,
      "amenity": "cafe",
      "cuisine": "coffee_shop",
      "takeaway": "yes",
      "official_name": "Starbucks Coffee",
      "addr_state": "CT",
      "addr_city": "Norwalk",
      "addr_postcode": "06854",
      "addr_street": "Connecticut Avenue",
      "addr_housenumber": "496",
      "value": 39.11757486155926
    },
    {
      "id": 162283,
      "geometry": "POINT (-73.963265 40.808062)",
      "poi_name": "Joe Coffee Company",
      "osm_id": 4924481993,
      "amenity": "cafe",
      "cuisine": "coffee_shop",
      "opening_hours": "Mo-Th 08:30-17:00; Fr 08:30-16:00",
      "website": "http://www.joenewyork.com/locations/columbia-dodge-hall/",
      "addr_postcode": "10027",
      "addr_street": "Broadway",
      "addr_housenumber": "2960",
      "value": 39.11757486155926
    },
    {
      "id": 164139,
      "geometry": "POINT (-73.858742 41.076381)",
      "poi_name": "coffee lab roasters",
      "osm_id": 9451361917,
      "amenity": "cafe",
      "cuisine": "coffee_shop",
      "addr_street": "Main Street",
      "value": 39.11757486155926
    },
    {
      "id": 166239,
      "geometry": "POINT (-73.934396 40.797714)",
      "poi_name": "Evelyn's Kitchen",
      "osm_id": 9581958450,
      "amenity": "cafe",
      "opening_hours": "Tu-Fr, Su 16:00-21:00",
      "website": "https://www.evelyns-kitchen.com/cafe",
      "phone": "+1 646-476-7906",
      "takeaway": "yes",
      "delivery": "yes",
      "addr_postcode": "10035",
      "addr_street": "1st Avenue",
      "addr_housenumber": "2137",
      "value": 39.11757486155926
    },
    {
      "id": 165541,
      "geometry": "POINT (-73.944311 40.814981)",
      "poi_name": "PROOF Coffee Roasters",
      "osm_id": 9543860017,
      "amenity": "cafe",
      "value": 39.11757486155926
    },
    {
      "id": 165542,
      "geometry": "POINT (-73.954123 40.804173)",
      "poi_name": "BO's Bagels",
      "osm_id": 9543863717,
      "amenity": "cafe",
      "cuisine": "bagel",
      "opening_hours": "08:00-15:00",
      "takeaway": "yes",
      "delivery": "yes",
      "addr_postcode": "10026",
      "addr_street": "West 116th Street",
      "addr_housenumber": "235",
      "value": 39.11757486155926
    },
    {
      "id": 168212,
      "geometry": "POINT (-73.843322 40.936219)",
      "poi_name": "Teahaus",
      "osm_id": 368053415,
      "amenity": "cafe",
      "cuisine": "coffee_shop",
      "building": "retail",
      "opening_hours": "Mo-Fr 10:00-17:00; Sa-Su 11:00-16:00",
      "addr_state": "NY",
      "value": 39.11757486155926
    },
    {
      "id": 166377,
      "geometry": "POINT (-73.954036 40.787004)",
      "poi_name": "Grabstein's Bagels",
      "osm_id": 9590309771,
      "amenity": "cafe",
      "cuisine": "bagel",
      "opening_hours": "Mo-Su 07:00-17:00",
      "website": "https://grabsteinsbagels.square.site/",
      "takeaway": "yes",
      "delivery": "yes",
      "addr_state": "NY",
      "addr_city": "New York",
      "addr_postcode": "10128",
      "addr_street": "East 96th Street",
      "addr_housenumber": "50",
      "value": 39.11757486155926
    },
    {
      "id": 169498,
      "geometry": "POINT (-73.976649 40.785117)",
      "poi_name": "Chalait",
      "osm_id": 2303950107,
      "amenity": "cafe",
      "cuisine": "coffee_shop",
      "opening_hours": "Mo-Fr 07:30-17:00; Sa-Su 08:30-18:00",
      "website": "https://www.chalait.com/",
      "addr_state": "NY",
      "addr_city": "New York",
      "addr_postcode": "10024",
      "addr_street": "Amsterdam Avenue",
      "addr_housenumber": "461",
      "value": 39.11757486155926
    },
    {
      "id": 169571,
      "geometry": "POINT (-73.961896 40.810196)",
      "poi_name": "Joe Coffee Company",
      "osm_id": 2308955289,
      "amenity": "cafe",
      "cuisine": "coffee_shop",
      "opening_hours": "Mo-Fr 08:00-20:00; Sa,Su 09:00-18:00",
      "website": "http://www.joenewyork.com/locations/columbia-university/",
      "capacity": "125",
      "internet_access": "yes",
      "phone": "+1-212-924-7400",
      "takeaway": "yes",
      "outdoor_seating": "no",
      "addr_state": "NY",
      "addr_city": "New York",
      "addr_postcode": "10027",
      "addr_street": "West 120th Street",
      "addr_housenumber": "550",
      "value": 39.11757486155926
    },
    {
      "id": 172645,
      "geometry": "POINT (-73.972998 40.785725)",
      "poi_name": "Joe Coffee Company",
      "osm_id": 2409398832,
      "amenity": "cafe",
      "cuisine": "coffee_shop",
      "wheelchair": "limited",
      "opening_hours": "Mo-Sa 07:00-20:00; Su 08:00-20:00",
      "website": "http://www.joenewyork.com/locations/upper-west/",
      "phone": "+1 212-875-0100",
      "addr_state": "NY",
      "addr_city": "New York",
      "addr_postcode": "10024",
      "addr_street": "Columbus Avenue",
      "addr_housenumber": "514",
      "value": 39.11757486155926
    },
    {
      "id": 170570,
      "geometry": "POINT (-73.960939 40.808949)",
      "poi_name": "Uris Deli",
      "osm_id": 2340960566,
      "amenity": "cafe",
      "value": 39.11757486155926
    },
    {
      "id": 170571,
      "geometry": "POINT (-73.960288 40.809496)",
      "poi_name": "Blue Java",
      "osm_id": 2340960685,
      "amenity": "cafe",
      "value": 39.11757486155926
    },
    {
      "id": 171613,
      "geometry": "POINT (-73.252586 41.181579)",
      "poi_name": "Starbucks",
      "osm_id": 2380572849,
      "amenity": "cafe",
      "cuisine": "coffee_shop",
      "operator": "Starbucks",
      "internet_access": "wlan",
      "takeaway": "yes",
      "official_name": "Starbucks Coffee",
      "addr_city": "Fairfield",
      "addr_street": "Black Rock Turnpike",
      "value": 39.11757486155926
    },
    {
      "id": 169991,
      "geometry": "POINT (-73.884175 40.994734)",
      "poi_name": "Hastings Station Cafe",
      "osm_id": 2324985629,
      "amenity": "cafe",
      "website": "https://www.hastingsstationcafe.com/",
      "addr_state": "NY",
      "addr_city": "Hastings-on-Hudson",
      "addr_postcode": "10706",
      "addr_street": "Southside Avenue",
      "addr_housenumber": "134",
      "value": 39.11757486155926
    },
    {
      "id": 170487,
      "geometry": "POINT (-73.967546 40.793206)",
      "poi_name": "Birch Coffee",
      "osm_id": 2338757145,
      "amenity": "cafe",
      "cuisine": "coffee_shop",
      "opening_hours": "Mo-Su 07:30-16:00",
      "website": "https://www.birchcoffee.com/",
      "value": 39.11757486155926
    },
    {
      "id": 175531,
      "geometry": "POINT (-73.980313 40.780121)",
      "poi_name": "Piccolo Cafe",
      "osm_id": 2524934986,
      "amenity": "cafe",
      "cuisine": "coffee_shop",
      "addr_state": "NY",
      "addr_city": "New York",
      "addr_postcode": "10023",
      "addr_street": "Amsterdam Avenue",
      "addr_housenumber": "313",
      "value": 39.11757486155926
    },
    {
      "id": 172808,
      "geometry": "POINT (-73.979207 40.78229)",
      "poi_name": "Bagel Talk",
      "osm_id": 2414094417,
      "amenity": "cafe",
      "cuisine": "bagel",
      "wheelchair": "no",
      "shop": "bakery",
      "value": 39.11757486155926
    },
    {
      "id": 172812,
      "geometry": "POINT (-73.975266 40.782644)",
      "poi_name": "World Coffee",
      "osm_id": 2414094437,
      "amenity": "cafe",
      "cuisine": "coffee_shop",
      "opening_hours": "Mo-Su 06:00-19:00",
      "addr_postcode": "10024",
      "addr_street": "Columbus Avenue",
      "addr_housenumber": "416",
      "value": 39.11757486155926
    },
    {
      "id": 173561,
      "geometry": "POINT (-73.976772 40.785996)",
      "poi_name": "Cafe Lalo",
      "osm_id": 2443892116,
      "amenity": "cafe",
      "opening_hours": "Mo-Th 08:00-02:00;Fr 08:00-04:00;Sa 09:00-04:00;Su 09:00-02:00",
      "website": "http://cafelalo.com/cafe/",
      "addr_street": "West 83rd Street",
      "value": 39.11757486155926
    },
    {
      "id": 173700,
      "geometry": "POINT (-73.971132 40.79254)",
      "poi_name": "Screme Gelato Bar",
      "osm_id": 2451205739,
      "amenity": "cafe",
      "cuisine": "ice_cream",
      "value": 39.11757486155926
    },
    {
      "id": 180312,
      "geometry": "POINT (-73.955726 40.813781)",
      "poi_name": "Plowshares Coffee Roasters",
      "osm_id": 10798119179,
      "amenity": "cafe",
      "cuisine": "coffee_shop",
      "opening_hours": "Mo-Fr 08:00-15:00; Sa-Su 09:00-16:00",
      "website": "https://www.plowsharescoffee.com/",
      "internet_access": "yes",
      "phone": "+1 212 222 0280",
      "outdoor_seating": "no",
      "addr_state": "NY",
      "addr_city": "New York",
      "addr_postcode": "10027",
      "addr_street": "Amsterdam Avenue",
      "addr_housenumber": "1351",
      "value": 39.11757486155926
    },
    {
      "id": 176547,
      "geometry": "POINT (-73.945077 40.807822)",
      "poi_name": "Starbucks",
      "osm_id": 2562438646,
      "amenity": "cafe",
      "cuisine": "coffee_shop",
      "opening_hours": "Su-Th 06:00-22:00; Fr-Sa 06:00-23:00",
      "internet_access": "wlan",
      "takeaway": "yes",
      "official_name": "Starbucks Coffee",
      "value": 39.11757486155926
    },
    {
      "id": 177326,
      "geometry": "POINT (-73.961804 40.80104)",
      "poi_name": "Cr\u00eapes on Columbus",
      "osm_id": 2583212030,
      "amenity": "cafe",
      "cuisine": "crepe",
      "website": "https://www.crepesoncolumbus.com/",
      "addr_state": "NY",
      "addr_city": "New York",
      "addr_postcode": "10025",
      "addr_street": "Columbus Avenue",
      "addr_housenumber": "990",
      "value": 39.11757486155926
    },
    {
      "id": 177730,
      "geometry": "POINT (-73.9399 40.84141)",
      "poi_name": "Mike's Bagels",
      "osm_id": 2603955352,
      "amenity": "cafe",
      "cuisine": "bagel",
      "value": 39.11757486155926
    },
    {
      "id": 177732,
      "geometry": "POINT (-73.939952 40.841336)",
      "poi_name": "Starbucks",
      "osm_id": 2603955361,
      "amenity": "cafe",
      "cuisine": "coffee_shop",
      "opening_hours": "Mo-Th 05:30-23:00; Fr 05:30-24:00; Sa 06:00-24:00; Su 06:00-23:00",
      "internet_access": "wlan",
      "takeaway": "yes",
      "official_name": "Starbucks Coffee",
      "value": 39.11757486155926
    },
    {
      "id": 177735,
      "geometry": "POINT (-73.949086 40.82355)",
      "poi_name": "Yellow Banana Snack Bar",
      "osm_id": 2603955364,
      "amenity": "cafe",
      "addr_state": "NY",
      "addr_city": "New York",
      "addr_postcode": "10031",
      "addr_street": "Amsterdam Avenue",
      "addr_housenumber": "1658",
      "value": 39.11757486155926
    },
    {
      "id": 185341,
      "geometry": "POINT (-73.735925 40.952115)",
      "poi_name": "SoBol",
      "osm_id": 7846424453,
      "amenity": "cafe",
      "addr_state": "NY",
      "addr_city": "Mamaroneck",
      "addr_postcode": "10543",
      "addr_street": "Mamaroneck Avenue",
      "addr_housenumber": "407",
      "value": 39.11757486155926
    },
    {
      "id": 185278,
      "geometry": "POINT (-73.73358 40.949718)",
      "poi_name": "Maison Margaux",
      "osm_id": 7844005322,
      "amenity": "cafe",
      "addr_state": "NY",
      "addr_city": "Mamaroneck",
      "addr_postcode": "10543",
      "addr_street": "Mamaroneck Avenue",
      "addr_housenumber": "152",
      "value": 39.11757486155926
    },
    {
      "id": 186633,
      "geometry": "POINT (-73.833742 40.940735)",
      "poi_name": "Slave To the Grind",
      "osm_id": 7938966034,
      "amenity": "cafe",
      "cuisine": "coffee_shop",
      "opening_hours": "Mo-Sa 06:30-20:00; Su 07:00-20:00",
      "internet_access": "wlan",
      "phone": "+1-914-961-7777",
      "outdoor_seating": "no",
      "addr_state": "NY",
      "addr_city": "Bronxville",
      "addr_postcode": "10708",
      "addr_street": "Pondfield Road",
      "addr_housenumber": "58",
      "value": 39.11757486155926
    },
    {
      "id": 186158,
      "geometry": "POINT (-73.739316 40.954403)",
      "poi_name": "La Chapincita Panader\u00eda y Caf\u00e9",
      "osm_id": 7914339218,
      "amenity": "cafe",
      "addr_state": "NY",
      "addr_city": "Mamaroneck",
      "addr_postcode": "10543",
      "addr_street": "Mamaroneck Avenue",
      "addr_housenumber": "640",
      "value": 39.11757486155926
    },
    {
      "id": 206083,
      "geometry": "POINT (-73.913529 40.832774)",
      "poi_name": "Jam Rock Cafe",
      "osm_id": 7195308557,
      "amenity": "cafe",
      "cuisine": "coffee_shop",
      "internet_access": "yes",
      "outdoor_seating": "no",
      "addr_state": "NY",
      "addr_city": "Bronx",
      "addr_postcode": "10456",
      "addr_street": "College Avenue",
      "addr_housenumber": "1205",
      "value": 39.11757486155926
    },
    {
      "id": 203599,
      "geometry": "POINT (-73.968635 40.798501)",
      "poi_name": "Peaky Barista",
      "osm_id": 7094126612,
      "amenity": "cafe",
      "description": "Family-owned, cozy and hip coffee shop with a European vibe.",
      "wheelchair": "limited",
      "opening_hours": "Mo-Fr 07:00-19:00; Sa, Su 08:00-19:00",
      "website": "https://peakybarista.com/",
      "phone": "+16466843037",
      "outdoor_seating": "no",
      "addr_street": "Broadway",
      "addr_housenumber": "2680",
      "value": 39.11757486155926
    },
    {
      "id": 205171,
      "geometry": "POINT (-73.972573 40.791353)",
      "poi_name": "Edgar's Cafe",
      "osm_id": 7159234142,
      "amenity": "cafe",
      "opening_hours": "Mo-Fr 08:00-24:00; Sa-Su 08:00-01:00",
      "website": "https://www.edgarscafe.com",
      "addr_state": "NY",
      "addr_city": "New York",
      "addr_postcode": "10025",
      "addr_street": "Amsterdam Avenue",
      "addr_housenumber": "650",
      "value": 39.11757486155926
    },
    {
      "id": 206084,
      "geometry": "POINT (-73.920101 40.832779)",
      "poi_name": "Caffeine on The Concourse",
      "osm_id": 7195334843,
      "amenity": "cafe",
      "cuisine": "coffee_shop;bakery",
      "opening_hours": "Sa 10:00-14:00",
      "website": "https://andrewfreedmanhome.org/",
      "internet_access": "no",
      "addr_state": "NY",
      "addr_city": "Bronx",
      "addr_postcode": "10452",
      "addr_street": "Grand Concourse",
      "addr_housenumber": "1125",
      "value": 39.11757486155926
    },
    {
      "id": 212293,
      "geometry": "POINT (-73.852074 40.834011)",
      "poi_name": "Caff\u00e9 Lanka",
      "osm_id": 5197668411,
      "amenity": "cafe",
      "addr_postcode": "10462",
      "addr_street": "Westchester Avenue",
      "addr_housenumber": "2166",
      "value": 39.11757486155926
    },
    {
      "id": 207168,
      "geometry": "POINT (-73.95375 40.788055)",
      "poi_name": "Joe & The Juice",
      "osm_id": 7239728455,
      "amenity": "cafe",
      "cuisine": "coffee_shop",
      "opening_hours": "Mo 07:30-19:00; Tu-Fr 07:00-19:00; Sa, Su 08:00-19:00",
      "website": "https://www.joejuice.com/stores?location=Y2876xbNJA",
      "takeaway": "yes",
      "addr_postcode": "10029",
      "addr_street": "Madison Avenue",
      "addr_housenumber": "1400",
      "value": 39.11757486155926
    },
    {
      "id": 207603,
      "geometry": "POINT (-73.939527 40.810508)",
      "poi_name": "OurtBox Cafe",
      "osm_id": 4953971785,
      "amenity": "cafe",
      "internet_access": "wlan",
      "value": 39.11757486155926
    },
    {
      "id": 212108,
      "geometry": "POINT (-73.85037 40.903688)",
      "poi_name": "Caf\u00e9 Restaurant",
      "osm_id": 5190573515,
      "amenity": "cafe",
      "addr_street": "White Plains Road",
      "addr_housenumber": "4703",
      "value": 39.11757486155926
    },
    {
      "id": 217741,
      "geometry": "POINT (-73.522456 41.392238)",
      "poi_name": "Starbucks",
      "osm_id": 9240607153,
      "amenity": "cafe",
      "cuisine": "coffee_shop",
      "takeaway": "yes",
      "official_name": "Starbucks Coffee",
      "value": 39.11757486155926
    },
    {
      "id": 214347,
      "geometry": "POINT (-73.94214 40.801238)",
      "poi_name": "Bitter Orange Cafe",
      "osm_id": 5269083208,
      "amenity": "cafe",
      "addr_street": "Park Avenue",
      "addr_housenumber": "1694",
      "value": 39.11757486155926
    },
    {
      "id": 214348,
      "geometry": "POINT (-73.942612 40.800618)",
      "poi_name": "UGC Eats",
      "osm_id": 5269083757,
      "amenity": "cafe",
      "addr_street": "Park Avenue",
      "addr_housenumber": "1674",
      "value": 39.11757486155926
    },
    {
      "id": 214350,
      "geometry": "POINT (-73.938491 40.797129)",
      "poi_name": "Capy",
      "osm_id": 5269095866,
      "amenity": "cafe",
      "addr_street": "East 116th Street",
      "addr_housenumber": "242",
      "value": 39.11757486155926
    },
    {
      "id": 214839,
      "geometry": "POINT (-73.945609 40.824207)",
      "poi_name": "Sugar Hill Cafe",
      "osm_id": 5281909155,
      "amenity": "cafe",
      "toilets": "yes",
      "addr_street": "West 145th Street",
      "addr_housenumber": "410",
      "value": 39.11757486155926
    },
    {
      "id": 221854,
      "geometry": "POINT (-73.937734 40.855175)",
      "poi_name": "Buunni",
      "osm_id": 10993142705,
      "amenity": "cafe",
      "cuisine": "american",
      "opening_hours": "Mo-Fr 07:00-18:00; Sa-Su 08:00-18:00",
      "website": "https://www.buunnicoffee.com/",
      "addr_postcode": "10033",
      "addr_street": "Pinehurst Avenue",
      "addr_housenumber": "213",
      "value": 39.11757486155926
    },
    {
      "id": 217910,
      "geometry": "POINT (-73.844078 40.851139)",
      "poi_name": "Starbucks",
      "osm_id": 9247618370,
      "amenity": "cafe",
      "cuisine": "coffee_shop",
      "takeaway": "yes",
      "official_name": "Starbucks Coffee",
      "outdoor_seating": "no",
      "addr_state": "NY",
      "addr_city": "Bronx",
      "addr_postcode": "10461",
      "addr_street": "Eastchester Road",
      "addr_housenumber": "1886",
      "value": 39.11757486155926
    },
    {
      "id": 221217,
      "geometry": "POINT (-73.94047 40.815098)",
      "poi_name": "Dunkin",
      "osm_id": 10969605150,
      "amenity": "cafe",
      "value": 39.11757486155926
    },
    {
      "id": 237776,
      "geometry": "POINT (-73.326501 41.138369)",
      "poi_name": "Barnes & Noble Cafe",
      "osm_id": 5848914283,
      "amenity": "cafe",
      "addr_state": "CT",
      "addr_city": "Westport",
      "addr_postcode": "06880",
      "addr_street": "Post Road East",
      "addr_housenumber": "1076",
      "value": 39.11757486155926
    },
    {
      "id": 230992,
      "geometry": "POINT (-73.944519 40.821301)",
      "poi_name": "Manhattanville Coffee",
      "osm_id": 4450364090,
      "amenity": "cafe",
      "website": "https://www.manhattanvillecoffee.com",
      "internet_access": "wlan",
      "value": 39.11757486155926
    },
    {
      "id": 237066,
      "geometry": "POINT (-73.980886 40.779316)",
      "poi_name": "Blue Bottle Coffee",
      "osm_id": 5817720353,
      "amenity": "cafe",
      "cuisine": "coffee_shop",
      "wheelchair": "yes",
      "opening_hours": "Mo 06:30-16:30; Tu 06:30-18:00; We 06:30-16:00; Th 06:30-15:30; Fr-Su 06:30-18:00",
      "website": "https://bluebottlecoffee.com/cafes/amsterdam-ave",
      "takeaway": "yes",
      "outdoor_seating": "yes",
      "addr_state": "NY",
      "addr_city": "New York",
      "addr_postcode": "10023",
      "addr_street": "Amsterdam Avenue",
      "addr_housenumber": "279",
      "value": 39.11757486155926
    },
    {
      "id": 222093,
      "geometry": "POINT (-73.977979 40.784032)",
      "poi_name": "Black Lab Cafe",
      "osm_id": 11005811332,
      "amenity": "cafe",
      "cuisine": "coffee_shop",
      "opening_hours": "Mo-Th 09:00-17:00, Fr-Sa 09:00-21:00, Su 09:00-20:00",
      "website": "https://www.blacklabcafe.com/",
      "phone": "+16463434089",
      "addr_state": "NY",
      "addr_city": "New York",
      "addr_postcode": "10024",
      "addr_street": "Amsterdam Avenue",
      "addr_housenumber": "420",
      "value": 39.11757486155926
    },
    {
      "id": 223079,
      "geometry": "POINT (-73.48615 41.060518)",
      "poi_name": "Roost",
      "osm_id": 11046702752,
      "amenity": "cafe",
      "wheelchair": "yes",
      "addr_street": "Boston Post Road",
      "addr_housenumber": "1950",
      "value": 39.11757486155926
    },
    {
      "id": 229270,
      "geometry": "POINT (-73.700691 41.046695)",
      "poi_name": "Starbucks",
      "osm_id": 4374788252,
      "amenity": "cafe",
      "cuisine": "coffee_shop",
      "wheelchair": "yes",
      "takeaway": "yes",
      "official_name": "Starbucks Coffee",
      "value": 39.11757486155926
    },
    {
      "id": 236152,
      "geometry": "POINT (-73.949007 40.788275)",
      "poi_name": "MY NY Bakery Cafe",
      "osm_id": 5782495654,
      "amenity": "cafe",
      "cuisine": "american",
      "opening_hours": "Mo, Tu, Su 07:00-19:00; We-Sa 07:00-24:00",
      "phone": "+1 212-722-7383",
      "addr_postcode": "10029",
      "addr_street": "Lexington Avenue",
      "addr_housenumber": "1565",
      "value": 39.11757486155926
    },
    {
      "id": 236153,
      "geometry": "POINT (-73.933728 40.794578)",
      "poi_name": "Love Cafe",
      "osm_id": 5782496201,
      "amenity": "cafe",
      "opening_hours": "Mo-Fr 06:00-17:00; Sa 07:00-14:30",
      "addr_street": "Pleasant Avenue",
      "addr_housenumber": "283",
      "value": 39.11757486155926
    },
    {
      "id": 237895,
      "geometry": "POINT (-73.965389 40.805511)",
      "poi_name": "Oren's Daily Roast",
      "osm_id": 5852314821,
      "amenity": "cafe",
      "opening_hours": "Mo-Fr 07:00-19:00; Sa,Su 07:00-18:00",
      "website": "https://www.orensdailyroast.com/ContentData2.aspx?Contentid=42",
      "phone": "+1 212-749-8779",
      "outdoor_seating": "no",
      "addr_state": "NY",
      "addr_city": "New York",
      "addr_postcode": "10025",
      "addr_street": "Broadway",
      "addr_housenumber": "2882",
      "value": 39.11757486155926
    },
    {
      "id": 238425,
      "geometry": "POINT (-73.940684 40.792282)",
      "poi_name": "Dear Mama Coffee",
      "osm_id": 5876977173,
      "amenity": "cafe",
      "wheelchair": "yes",
      "opening_hours": "Mo-Su 07:00-19:00",
      "website": "https://www.dearmamacoffee.com/",
      "internet_access": "wlan",
      "phone": "+1 929-279-2225",
      "toilets": "yes",
      "addr_state": "NY",
      "addr_city": "New York",
      "addr_street": "East 109th Street",
      "addr_housenumber": "308",
      "value": 39.11757486155926
    },
    {
      "id": 238123,
      "geometry": "POINT (-73.980316 40.775021)",
      "poi_name": "Joe Coffee Company",
      "osm_id": 5862744811,
      "amenity": "cafe",
      "opening_hours": "Mo-Su 07:00-20:00",
      "website": "http://www.joenewyork.com/locations/lincoln-center/",
      "phone": "+1 212-877-0244",
      "addr_postcode": "10023",
      "addr_street": "Columbus Avenue",
      "addr_housenumber": "187",
      "value": 39.11757486155926
    },
    {
      "id": 240537,
      "geometry": "POINT (-73.943995 40.79287)",
      "poi_name": "Dunkin\u2019s Donuts",
      "osm_id": 5978868291,
      "amenity": "cafe",
      "addr_street": "3rd Avenue",
      "addr_housenumber": "1964",
      "value": 39.11757486155926
    },
    {
      "id": 239774,
      "geometry": "POINT (-73.981588 40.776199)",
      "poi_name": "Noi Due Cafe",
      "osm_id": 5939562687,
      "amenity": "cafe",
      "opening_hours": "Su 11:00-22:30; Mo-Th 11:00-23:00",
      "phone": "+1-212-712-2222",
      "addr_street": "West 69th Street",
      "addr_housenumber": "143",
      "value": 39.11757486155926
    },
    {
      "id": 240290,
      "geometry": "POINT (-73.80181 41.187461)",
      "poi_name": "Tazza Cafe",
      "osm_id": 5965281082,
      "amenity": "cafe",
      "cuisine": "coffee_shop",
      "website": "https://tazzacafeny.com",
      "phone": "+1 914 488 5227",
      "addr_state": "NY",
      "addr_city": "Millwood",
      "addr_postcode": "10546",
      "addr_street": "Saw Mill River Road",
      "addr_housenumber": "230",
      "value": 39.11757486155926
    },
    {
      "id": 238487,
      "geometry": "POINT (-73.861386 40.835429)",
      "poi_name": "Starbucks",
      "osm_id": 5879931045,
      "amenity": "cafe",
      "cuisine": "coffee_shop",
      "opening_hours": "Mo-Th 06:00-22:30, Fr 05:30-23:00, Sa 06:00-23:00, Su 06:00-22:00",
      "takeaway": "yes",
      "official_name": "Starbucks Coffee",
      "addr_state": "NY",
      "addr_city": "Bronx",
      "addr_postcode": "10462",
      "addr_street": "Metropolitan Avenue",
      "addr_housenumber": "1385",
      "value": 39.11757486155926
    },
    {
      "id": 239511,
      "geometry": "POINT (-73.963829 40.806696)",
      "poi_name": "Caf\u00e9 East",
      "osm_id": 5924114805,
      "amenity": "cafe",
      "cuisine": "bubble_tea;pizza",
      "value": 39.11757486155926
    },
    {
      "id": 239512,
      "geometry": "POINT (-73.963766 40.80678)",
      "poi_name": "Blue Java",
      "osm_id": 5924114807,
      "amenity": "cafe",
      "value": 39.11757486155926
    },
    {
      "id": 239513,
      "geometry": "POINT (-73.963128 40.806527)",
      "poi_name": "Blue Java",
      "osm_id": 5924114808,
      "amenity": "cafe",
      "value": 39.11757486155926
    },
    {
      "id": 239534,
      "geometry": "POINT (-73.964908 40.807114)",
      "poi_name": "Starbucks",
      "osm_id": 5925003683,
      "amenity": "cafe",
      "cuisine": "coffee_shop",
      "takeaway": "yes",
      "official_name": "Starbucks Coffee",
      "addr_state": "NY",
      "addr_city": "New York",
      "addr_postcode": "10025",
      "addr_street": "Broadway",
      "addr_housenumber": "2929",
      "value": 39.11757486155926
    },
    {
      "id": 242115,
      "geometry": "POINT (-73.951362 40.791365)",
      "poi_name": "Superior Caf\u00e9",
      "osm_id": 6055272196,
      "amenity": "cafe",
      "opening_hours": "Mo-Fr 06:00-21:00; Sa 06:00-19:00; Su 06:00-17:00",
      "phone": "+1 646-666-0095",
      "takeaway": "yes",
      "delivery": "yes",
      "addr_postcode": "10029",
      "addr_street": "Madison Avenue",
      "addr_housenumber": "1490",
      "value": 39.11757486155926
    },
    {
      "id": 240689,
      "geometry": "POINT (-73.942412 40.84429)",
      "poi_name": "Hilltop Perk",
      "osm_id": 5984058502,
      "amenity": "cafe",
      "addr_street": "Haven Avenue",
      "addr_housenumber": "83",
      "value": 39.11757486155926
    },
    {
      "id": 243051,
      "geometry": "POINT (-73.941264 40.805824)",
      "poi_name": "Serengeti Teas & Spices",
      "osm_id": 7620039824,
      "amenity": "cafe",
      "addr_housenumber": "22",
      "value": 39.11757486155926
    }
  ],
  "answer_type": "name",
  "question_entities": {
    "[2]": {
      "distance": 80000,
      "text": "80 kilometers"
    },
    "[3]": {
      "main_category": "amenity",
      "sub_category": "university",
      "display_name": "The Juilliard School, New York, NY",
      "geo_wkt": "POINT (-73.983102 40.773839)",
      "poi": {
        "id": 167503,
        "geometry": "POINT (-73.983102 40.773839)",
        "poi_name": "The Juilliard School",
        "osm_id": 357607753,
        "amenity": "university",
        "website": "https://www.juilliard.edu/",
        "internet_access": "wlan",
        "phone": "+1-212-799-5000",
        "wikidata": "Q503246",
        "addr_state": "NY",
        "addr_city": "New York",
        "addr_postcode": "10023-6588",
        "addr_street": "Lincoln Center Plaza",
        "addr_housenumber": "60"
      }
    },
    "[4]": {
      "main_category": "leisure",
      "sub_category": "park",
      "display_name": "Scarsdale American Legion Post 52 Memorial Garden, Scarsdale, NY",
      "geo_wkt": "POINT (-73.762298 40.979409)",
      "poi": {
        "id": 248267,
        "geometry": "POINT (-73.762298 40.979409)",
        "poi_name": "Scarsdale American Legion Post 52 Memorial Garden",
        "osm_id": 7568161045,
        "leisure": "park",
        "website": "https://www.scarsdale.com/Facilities/Facility/Details/Memorial-Garden-37",
        "addr_state": "NY",
        "addr_city": "Scarsdale",
        "addr_postcode": "10583",
        "addr_street": "Mamaroneck Road",
        "addr_housenumber": "311"
      }
    },
    "[1]": {
      "main_category": "amenity",
      "sub_category": "cafe"
    }
  },
  "id": 1608,
  "type": "range:towards+name"
}