{
  "question": "Where can I find fast food restaurant as you progress towards Eagleville Road WRGT Trailhead and Parking, Jefferson, Ohio within 100 kilometers from Brown's Farm Barn, Fairview, PA?",
  "sql": "WITH\n    angle AS (SELECT degrees(ST_Azimuth(ST_GeomFromText('POINT (-80.172179 42.046723)',4326)::geography, ST_GeomFromText('POINT (-80.844899 41.715412)',4326)::geography)) AS value)\nSELECT * FROM pois,angle\nWHERE amenity = 'fast_food'\nAND ST_DWithin(pois.geometry, ST_GeomFromText('POINT (-80.172179 42.046723)',4326)::geography, 100000)\nAND (degrees(ST_Azimuth(ST_GeomFromText('POINT (-80.172179 42.046723)',4326)::geography, pois.geometry)) BETWEEN angle.value - 22.5 AND angle.value + 22.5);\n",
  "answers": [
    {
      "id": 28840,
      "geometry": "POINT (-80.304514 42.008017)",
      "poi_name": "Taco Bell",
      "osm_id": 8262936954,
      "amenity": "fast_food",
      "cuisine": "tex-mex",
      "website": "https://locations.tacobell.com/pa/girard/1017-e-main-street.html",
      "takeaway": "yes",
      "addr_state": "PA",
      "addr_city": "Girard",
      "addr_postcode": "16417",
      "addr_street": "East Main Street",
      "addr_housenumber": "1017",
      "value": 236.83920966981506
    },
    {
      "id": 88317,
      "geometry": "POINT (-80.798823 41.862181)",
      "poi_name": "Taco Bell",
      "osm_id": 8779187120,
      "amenity": "fast_food",
      "cuisine": "tex-mex",
      "website": "https://locations.tacobell.com/oh/ashtabula/1226-w-prospect.html",
      "takeaway": "yes",
      "addr_state": "OH",
      "addr_city": "Ashtabula",
      "addr_postcode": "44004",
      "addr_street": "West Prospect Road",
      "addr_housenumber": "1226",
      "value": 236.83920966981506
    },
    {
      "id": 59043,
      "geometry": "POINT (-81.053618 41.801193)",
      "poi_name": "Little Caesars",
      "osm_id": 5408497365,
      "amenity": "fast_food",
      "cuisine": "pizza",
      "takeaway": "yes",
      "addr_state": "OH",
      "addr_city": "Madison",
      "addr_postcode": "44057",
      "addr_street": "North Ridge Road",
      "addr_housenumber": "6590",
      "value": 236.83920966981506
    },
    {
      "id": 88196,
      "geometry": "POINT (-80.786794 41.854747)",
      "poi_name": "Domino's",
      "osm_id": 8773193602,
      "amenity": "fast_food",
      "cuisine": "pizza",
      "takeaway": "yes",
      "addr_state": "OH",
      "addr_city": "Ashtabula",
      "addr_postcode": "44004",
      "addr_street": "Main Avenue",
      "addr_housenumber": "5817",
      "value": 236.83920966981506
    },
    {
      "id": 88318,
      "geometry": "POINT (-80.799987 41.862336)",
      "poi_name": "Little Caesars",
      "osm_id": 8779196129,
      "amenity": "fast_food",
      "cuisine": "pizza",
      "website": "https://littlecaesars.com/en-us/store/7485/",
      "takeaway": "yes",
      "addr_state": "OH",
      "addr_city": "Ashtabula",
      "addr_postcode": "44004",
      "addr_street": "West Prospect Road",
      "addr_housenumber": "1245",
      "value": 236.83920966981506
    },
    {
      "id": 88319,
      "geometry": "POINT (-80.799894 41.862376)",
      "poi_name": "Subway",
      "osm_id": 8779196130,
      "amenity": "fast_food",
      "cuisine": "sandwich",
      "takeaway": "yes",
      "addr_state": "OH",
      "addr_city": "Ashtabula",
      "addr_postcode": "44004",
      "addr_street": "West Prospect Road",
      "addr_housenumber": "1243",
      "value": 236.83920966981506
    },
    {
      "id": 91323,
      "geometry": "POINT (-80.255426 42.030893)",
      "poi_name": "Burger King",
      "osm_id": 2060506016,
      "amenity": "fast_food",
      "cuisine": "burger",
      "website": "https://www.bk.com/",
      "takeaway": "yes",
      "addr_state": "PA",
      "addr_city": "Fairview",
      "addr_postcode": "16415",
      "addr_street": "West Ridge Road",
      "addr_housenumber": "7517",
      "value": 236.83920966981506
    },
    {
      "id": 105446,
      "geometry": "POINT (-80.557842 41.94424)",
      "poi_name": "McDonald's",
      "osm_id": 8629410923,
      "amenity": "fast_food",
      "cuisine": "burger",
      "website": "https://www.mcdonalds.com/us/en-us/location/oh/conneaut/312-state-st/5021.html",
      "takeaway": "yes",
      "addr_state": "OH",
      "addr_city": "Conneaut",
      "addr_postcode": "44030",
      "addr_street": "State Street",
      "addr_housenumber": "312",
      "value": 236.83920966981506
    },
    {
      "id": 105593,
      "geometry": "POINT (-80.764045 41.875424)",
      "poi_name": "McDonald's",
      "osm_id": 8635549127,
      "amenity": "fast_food",
      "cuisine": "burger",
      "website": "https://www.mcdonalds.com/us/en-us/location/oh/ashtabula/2424-e-prospect/4314.html",
      "takeaway": "yes",
      "addr_state": "OH",
      "addr_city": "Ashtabula",
      "addr_postcode": "44004",
      "addr_street": "North Ridge Road East",
      "addr_housenumber": "2424",
      "value": 236.83920966981506
    },
    {
      "id": 105515,
      "geometry": "POINT (-80.555869 41.943533)",
      "poi_name": "Domino's",
      "osm_id": 8632760030,
      "amenity": "fast_food",
      "cuisine": "pizza",
      "takeaway": "yes",
      "addr_state": "OH",
      "addr_city": "Conneaut",
      "addr_postcode": "44030",
      "addr_street": "Broad Street",
      "addr_housenumber": "226",
      "value": 236.83920966981506
    },
    {
      "id": 105597,
      "geometry": "POINT (-80.766501 41.875223)",
      "poi_name": "Dunkin'",
      "osm_id": 8635750475,
      "amenity": "fast_food",
      "cuisine": "donut;coffee_shop",
      "takeaway": "yes",
      "addr_state": "OH",
      "addr_city": "Ashtabula",
      "addr_postcode": "44004",
      "addr_street": "East Prospect Road",
      "addr_housenumber": "2222",
      "value": 236.83920966981506
    },
    {
      "id": 105598,
      "geometry": "POINT (-80.767124 41.875723)",
      "poi_name": "Subway",
      "osm_id": 8635864369,
      "amenity": "fast_food",
      "cuisine": "sandwich",
      "takeaway": "yes",
      "addr_state": "OH",
      "addr_city": "Ashtabula",
      "addr_postcode": "44004",
      "addr_street": "East Prospect Road",
      "addr_housenumber": "2203",
      "value": 236.83920966981506
    },
    {
      "id": 105602,
      "geometry": "POINT (-80.774293 41.87458)",
      "poi_name": "Dairy Queen",
      "osm_id": 8636142932,
      "amenity": "fast_food",
      "cuisine": "ice_cream;burger",
      "takeaway": "yes",
      "addr_state": "OH",
      "addr_city": "Ashtabula",
      "addr_postcode": "44004",
      "addr_street": "East Prospect Road",
      "addr_housenumber": "1723",
      "value": 236.83920966981506
    },
    {
      "id": 127656,
      "geometry": "POINT (-80.570661 41.913806)",
      "poi_name": "McDonald's",
      "osm_id": 8082089659,
      "amenity": "fast_food",
      "cuisine": "burger",
      "website": "https://www.mcdonalds.com/us/en-us/location/oh/conneaut/2-loves-drive/32991.html",
      "takeaway": "yes",
      "addr_state": "OH",
      "addr_city": "Conneaut",
      "addr_postcode": "44030",
      "addr_street": "Loves Drive",
      "addr_housenumber": "2",
      "value": 236.83920966981506
    },
    {
      "id": 119264,
      "geometry": "POINT (-80.948129 41.789261)",
      "poi_name": "Dunkin'",
      "osm_id": 9094351327,
      "amenity": "fast_food",
      "cuisine": "donut;coffee_shop",
      "takeaway": "yes",
      "addr_state": "OH",
      "addr_city": "Geneva",
      "addr_postcode": "44041",
      "addr_street": "South Broadway",
      "addr_housenumber": "1150",
      "value": 236.83920966981506
    },
    {
      "id": 119265,
      "geometry": "POINT (-80.947806 41.79168)",
      "poi_name": "Subway",
      "osm_id": 9094357710,
      "amenity": "fast_food",
      "cuisine": "sandwich",
      "takeaway": "yes",
      "addr_state": "OH",
      "addr_city": "Geneva",
      "addr_postcode": "44041",
      "addr_street": "South Broadway",
      "addr_housenumber": "1026",
      "value": 236.83920966981506
    },
    {
      "id": 119268,
      "geometry": "POINT (-81.048968 41.802471)",
      "poi_name": "Mr. Hero",
      "osm_id": 9094484661,
      "amenity": "fast_food",
      "cuisine": "sandwich",
      "addr_state": "OH",
      "addr_city": "Madison",
      "addr_postcode": "44057",
      "addr_street": "North Ridge Road",
      "addr_housenumber": "6663",
      "value": 236.83920966981506
    },
    {
      "id": 119269,
      "geometry": "POINT (-81.050624 41.801979)",
      "poi_name": "Burger King",
      "osm_id": 9094484713,
      "amenity": "fast_food",
      "cuisine": "burger",
      "takeaway": "yes",
      "addr_state": "OH",
      "addr_city": "Madison",
      "addr_postcode": "44057",
      "addr_street": "North Ridge Road",
      "addr_housenumber": "6634",
      "value": 236.83920966981506
    },
    {
      "id": 119270,
      "geometry": "POINT (-81.05116 41.802007)",
      "poi_name": "McDonald's",
      "osm_id": 9094492820,
      "amenity": "fast_food",
      "cuisine": "burger",
      "website": "https://www.mcdonalds.com/us/en-us/location/oh/madison/6626-n-ridge-rd/4458.html",
      "takeaway": "yes",
      "addr_state": "OH",
      "addr_city": "Madison",
      "addr_postcode": "44057",
      "addr_street": "North Ridge Road",
      "addr_housenumber": "6626",
      "value": 236.83920966981506
    },
    {
      "id": 119271,
      "geometry": "POINT (-81.051629 41.80214)",
      "poi_name": "Arby's",
      "osm_id": 9094492889,
      "amenity": "fast_food",
      "cuisine": "sandwich",
      "takeaway": "yes",
      "addr_state": "OH",
      "addr_city": "Madison",
      "addr_postcode": "44057",
      "addr_street": "North Ridge Road",
      "addr_housenumber": "6616",
      "value": 236.83920966981506
    },
    {
      "id": 119297,
      "geometry": "POINT (-81.053502 41.802313)",
      "poi_name": "Wendy's",
      "osm_id": 9095307944,
      "amenity": "fast_food",
      "cuisine": "burger",
      "takeaway": "yes",
      "addr_state": "OH",
      "addr_city": "Madison",
      "addr_postcode": "44057",
      "addr_street": "North Ridge Road",
      "addr_housenumber": "6598",
      "value": 236.83920966981506
    },
    {
      "id": 119298,
      "geometry": "POINT (-81.054881 41.802441)",
      "poi_name": "Taco Bell",
      "osm_id": 9095307960,
      "amenity": "fast_food",
      "cuisine": "tex-mex",
      "website": "https://locations.tacobell.com/oh/north-madison/6568-north-ridge-road.html",
      "takeaway": "yes",
      "addr_state": "OH",
      "addr_city": "Madison",
      "addr_postcode": "44057",
      "addr_street": "North Ridge Road",
      "addr_housenumber": "6568",
      "value": 236.83920966981506
    },
    {
      "id": 105811,
      "geometry": "POINT (-80.804059 41.892827)",
      "poi_name": "Subway",
      "osm_id": 8644457760,
      "amenity": "fast_food",
      "cuisine": "sandwich",
      "takeaway": "yes",
      "addr_state": "OH",
      "addr_city": "Ashtabula",
      "addr_postcode": "44004",
      "addr_street": "Lake Avenue",
      "addr_housenumber": "842",
      "value": 236.83920966981506
    },
    {
      "id": 105813,
      "geometry": "POINT (-80.805082 41.891754)",
      "poi_name": "McDonald's",
      "osm_id": 8644507662,
      "amenity": "fast_food",
      "cuisine": "burger",
      "website": "https://www.mcdonalds.com/us/en-us/location/oh/ashtabula/918-lake-ave/11344.html",
      "takeaway": "yes",
      "addr_state": "OH",
      "addr_city": "Ashtabula",
      "addr_postcode": "44004",
      "addr_street": "Lake Avenue",
      "addr_housenumber": "918",
      "value": 236.83920966981506
    },
    {
      "id": 105955,
      "geometry": "POINT (-80.947877 41.794778)",
      "poi_name": "Mr. Hero",
      "osm_id": 8656357020,
      "amenity": "fast_food",
      "cuisine": "sandwich",
      "addr_state": "OH",
      "addr_city": "Geneva",
      "addr_postcode": "44041",
      "addr_street": "South Broadway",
      "addr_housenumber": "772",
      "value": 236.83920966981506
    },
    {
      "id": 117760,
      "geometry": "POINT (-81.240566 41.662274)",
      "poi_name": "Chipotle",
      "osm_id": 9008801066,
      "amenity": "fast_food",
      "cuisine": "mexican",
      "opening_hours": "Mo-Su 10:45-22:00",
      "website": "https://locations.chipotle.com/oh/painesville/7689-crile-rd",
      "phone": "+1-440-354-4167",
      "takeaway": "yes",
      "drive_through": "yes",
      "official_name": "Chipotle Mexican Grill",
      "addr_state": "OH",
      "addr_city": "Painesville",
      "addr_postcode": "44077",
      "addr_street": "Crile Road",
      "addr_housenumber": "7689",
      "value": 236.83920966981506
    },
    {
      "id": 127657,
      "geometry": "POINT (-80.567468 41.914576)",
      "poi_name": "Burger King",
      "osm_id": 8082097596,
      "amenity": "fast_food",
      "cuisine": "burger",
      "takeaway": "yes",
      "addr_state": "OH",
      "addr_city": "Conneaut",
      "addr_postcode": "44030",
      "addr_street": "State Route 7",
      "addr_housenumber": "780",
      "value": 236.83920966981506
    },
    {
      "id": 140654,
      "geometry": "POINT (-80.947756 41.79205)",
      "poi_name": "KFC",
      "osm_id": 6254947395,
      "amenity": "fast_food",
      "cuisine": "chicken",
      "website": "https://locations.kfc.com/oh/geneva/1010-s-broadway",
      "takeaway": "yes",
      "addr_state": "OH",
      "addr_city": "Geneva",
      "addr_postcode": "44041",
      "addr_street": "South Broadway",
      "addr_housenumber": "1010",
      "value": 236.83920966981506
    },
    {
      "id": 128405,
      "geometry": "POINT (-80.75564 41.877521)",
      "poi_name": "KFC",
      "osm_id": 8155333837,
      "amenity": "fast_food",
      "cuisine": "chicken",
      "website": "https://locations.kfc.com/oh/ashtabula/3100-north-ridge-road",
      "takeaway": "yes",
      "addr_state": "OH",
      "addr_city": "Ashtabula",
      "addr_postcode": "44004",
      "addr_street": "North Ridge Road East",
      "addr_housenumber": "3100",
      "value": 236.83920966981506
    },
    {
      "id": 128205,
      "geometry": "POINT (-80.796583 41.863955)",
      "poi_name": "Arby's",
      "osm_id": 8137933696,
      "amenity": "fast_food",
      "cuisine": "sandwich",
      "takeaway": "yes",
      "addr_state": "OH",
      "addr_city": "Ashtabula",
      "addr_postcode": "44004",
      "addr_street": "West Prospect Road",
      "addr_housenumber": "1057",
      "value": 236.83920966981506
    },
    {
      "id": 128206,
      "geometry": "POINT (-80.795813 41.863562)",
      "poi_name": "Wendy's",
      "osm_id": 8137959628,
      "amenity": "fast_food",
      "cuisine": "burger",
      "takeaway": "yes",
      "addr_state": "OH",
      "addr_city": "Ashtabula",
      "addr_postcode": "44004",
      "addr_street": "West Prospect Road",
      "addr_housenumber": "1040",
      "value": 236.83920966981506
    },
    {
      "id": 128212,
      "geometry": "POINT (-80.806641 41.858568)",
      "poi_name": "Mr. Hero",
      "osm_id": 8138394000,
      "amenity": "fast_food",
      "cuisine": "sandwich",
      "addr_state": "OH",
      "addr_city": "Ashtabula",
      "addr_postcode": "44004",
      "addr_street": "West Prospect Road",
      "addr_housenumber": "1746",
      "value": 236.83920966981506
    },
    {
      "id": 132998,
      "geometry": "POINT (-80.759159 41.877088)",
      "poi_name": "Max's Pizza & Grill",
      "osm_id": 9975906226,
      "amenity": "fast_food",
      "cuisine": "pizza",
      "addr_state": "OH",
      "addr_city": "Ashtabula",
      "addr_postcode": "44004",
      "addr_street": "North Ridge Road East",
      "addr_housenumber": "2893",
      "value": 236.83920966981506
    },
    {
      "id": 184406,
      "geometry": "POINT (-80.303549 42.008595)",
      "poi_name": "Wendy's",
      "osm_id": 7788163606,
      "amenity": "fast_food",
      "cuisine": "burger",
      "takeaway": "yes",
      "addr_state": "PA",
      "addr_city": "Girard",
      "addr_postcode": "16417",
      "addr_street": "West Ridge Road",
      "addr_housenumber": "9175",
      "value": 236.83920966981506
    },
    {
      "id": 141596,
      "geometry": "POINT (-80.255197 42.032156)",
      "poi_name": "Domino's",
      "osm_id": 6291534756,
      "amenity": "fast_food",
      "cuisine": "pizza",
      "takeaway": "yes",
      "drive_through": "no",
      "addr_state": "PA",
      "addr_city": "Fairview",
      "addr_postcode": "16415",
      "addr_street": "West Ridge Road",
      "addr_housenumber": "7470",
      "value": 236.83920966981506
    },
    {
      "id": 152597,
      "geometry": "POINT (-80.855591 41.784633)",
      "poi_name": "McDonald's",
      "osm_id": 4150024978,
      "amenity": "fast_food",
      "cuisine": "burger",
      "website": "https://www.mcdonalds.com/us/en-us/location/oh/austinburg/2849-gh-drive/17647.html",
      "takeaway": "yes",
      "addr_state": "OH",
      "addr_city": "Austinburg",
      "addr_postcode": "44010",
      "addr_street": "G.H. Drive",
      "addr_housenumber": "2849",
      "value": 236.83920966981506
    },
    {
      "id": 152598,
      "geometry": "POINT (-80.855755 41.785146)",
      "poi_name": "Burger King",
      "osm_id": 4150024979,
      "amenity": "fast_food",
      "cuisine": "burger",
      "takeaway": "yes",
      "addr_state": "OH",
      "addr_city": "Austinburg",
      "addr_postcode": "44010",
      "addr_street": "State Route 45",
      "addr_housenumber": "2239",
      "value": 236.83920966981506
    },
    {
      "id": 180801,
      "geometry": "POINT (-81.046783 41.761746)",
      "poi_name": "McDonald's",
      "osm_id": 10819576416,
      "amenity": "fast_food",
      "cuisine": "burger",
      "website": "https://www.mcdonalds.com/us/en-us/location/oh/madison/559-river-st/19931.html",
      "takeaway": "yes",
      "addr_state": "OH",
      "addr_city": "Madison",
      "addr_postcode": "44057",
      "addr_street": "River Street",
      "addr_housenumber": "559",
      "value": 236.83920966981506
    },
    {
      "id": 184408,
      "geometry": "POINT (-80.303694 42.007854)",
      "poi_name": "Dairy Queen",
      "osm_id": 7788272477,
      "amenity": "fast_food",
      "cuisine": "ice_cream;burger",
      "takeaway": "yes",
      "addr_state": "PA",
      "addr_city": "Girard",
      "addr_postcode": "16417",
      "addr_street": "Westgate Drive",
      "addr_housenumber": "5085",
      "value": 236.83920966981506
    },
    {
      "id": 184409,
      "geometry": "POINT (-80.301702 42.009743)",
      "poi_name": "McDonald's",
      "osm_id": 7788331567,
      "amenity": "fast_food",
      "cuisine": "burger",
      "website": "https://www.mcdonalds.com/us/en-us/location/pa/girard/9123-west-ridge-rd/4277.html",
      "takeaway": "yes",
      "addr_state": "PA",
      "addr_city": "Girard",
      "addr_postcode": "16417",
      "addr_street": "West Ridge Road",
      "addr_housenumber": "9123",
      "value": 236.83920966981506
    },
    {
      "id": 184411,
      "geometry": "POINT (-80.302562 42.008306)",
      "poi_name": "Little Caesars",
      "osm_id": 7788395746,
      "amenity": "fast_food",
      "cuisine": "pizza",
      "website": "https://littlecaesars.com/en-us/store/6769/",
      "takeaway": "yes",
      "addr_city": "Girard",
      "addr_postcode": "16417",
      "addr_street": "West Ridge Road",
      "addr_housenumber": "9125",
      "value": 236.83920966981506
    },
    {
      "id": 184412,
      "geometry": "POINT (-80.302528 42.008244)",
      "poi_name": "Subway",
      "osm_id": 7788395747,
      "amenity": "fast_food",
      "cuisine": "sandwich",
      "takeaway": "yes",
      "addr_state": "PA",
      "addr_city": "Girard",
      "addr_postcode": "16417",
      "addr_street": "West Ridge Road",
      "addr_housenumber": "9125",
      "value": 236.83920966981506
    },
    {
      "id": 196491,
      "geometry": "POINT (-80.854355 41.784862)",
      "poi_name": "Taco Bell",
      "osm_id": 10582405157,
      "amenity": "fast_food",
      "cuisine": "tex-mex",
      "website": "https://locations.tacobell.com/oh/austinburg/2807-sidley-court.html",
      "takeaway": "yes",
      "addr_state": "OH",
      "addr_city": "Austinburg",
      "addr_postcode": "44010",
      "addr_street": "Sidley Court",
      "addr_housenumber": "2807",
      "value": 236.83920966981506
    },
    {
      "id": 196570,
      "geometry": "POINT (-80.770019 41.736849)",
      "poi_name": "Hardee's",
      "osm_id": 10586945992,
      "amenity": "fast_food",
      "cuisine": "burger",
      "website": "https://locations.hardees.com/oh/jefferson/65-s-chestnut-st",
      "takeaway": "yes",
      "addr_state": "OH",
      "addr_city": "Jefferson",
      "addr_postcode": "44047",
      "addr_street": "South Chestnut Street",
      "addr_housenumber": "65",
      "value": 236.83920966981506
    },
    {
      "id": 217388,
      "geometry": "POINT (-81.274622 41.700235)",
      "poi_name": "Little Caesars",
      "osm_id": 9219109644,
      "amenity": "fast_food",
      "cuisine": "pizza",
      "website": "https://littlecaesars.com/en-us/store/7522/",
      "takeaway": "yes",
      "addr_state": "OH",
      "addr_city": "Painesville",
      "addr_postcode": "44077",
      "addr_street": "Mentor Avenue",
      "addr_housenumber": "1479A",
      "value": 236.83920966981506
    },
    {
      "id": 243352,
      "geometry": "POINT (-80.748062 41.881604)",
      "poi_name": "Steak 'n Shake",
      "osm_id": 7641451866,
      "amenity": "fast_food",
      "cuisine": "burger",
      "takeaway": "yes",
      "addr_state": "OH",
      "addr_city": "Ashtabula",
      "addr_postcode": "44004",
      "addr_street": "North Ridge Road East",
      "addr_housenumber": "3615",
      "value": 236.83920966981506
    },
    {
      "id": 243353,
      "geometry": "POINT (-80.758697 41.877759)",
      "poi_name": "Bucks Donuts",
      "osm_id": 7641460844,
      "amenity": "fast_food",
      "cuisine": "donut",
      "addr_state": "OH",
      "addr_city": "Ashtabula",
      "addr_postcode": "44004",
      "addr_street": "North Ridge Road East",
      "addr_housenumber": "2875",
      "value": 236.83920966981506
    },
    {
      "id": 243356,
      "geometry": "POINT (-80.75809 41.877424)",
      "poi_name": "Chipotle",
      "osm_id": 7641589266,
      "amenity": "fast_food",
      "cuisine": "mexican",
      "takeaway": "yes",
      "official_name": "Chipotle Mexican Grill",
      "addr_state": "OH",
      "addr_city": "Ashtabula",
      "addr_postcode": "44004",
      "addr_street": "North Ridge Road East",
      "addr_housenumber": "2911",
      "value": 236.83920966981506
    },
    {
      "id": 243357,
      "geometry": "POINT (-80.75378 41.879241)",
      "poi_name": "Burger King",
      "osm_id": 7641659393,
      "amenity": "fast_food",
      "cuisine": "burger",
      "takeaway": "yes",
      "addr_state": "OH",
      "addr_city": "Ashtabula",
      "addr_postcode": "44004",
      "addr_street": "North Ridge Road East",
      "addr_housenumber": "3225",
      "value": 236.83920966981506
    }
  ],
  "answer_type": "loc",
  "question_entities": {
    "[2]": {
      "distance": 100000,
      "text": "100 kilometers"
    },
    "[3]": {
      "main_category": "leisure",
      "sub_category": "nature reserve",
      "display_name": "Brown's Farm Barn, Fairview, PA",
      "geo_wkt": "POINT (-80.172179 42.046723)",
      "poi": {
        "id": 267523,
        "geometry": "POINT (-80.172179 42.046723)",
        "poi_name": "Brown's Farm Barn",
        "osm_id": 7620791993,
        "leisure": "nature_reserve",
        "operator": "Millcreek Township",
        "addr_state": "PA",
        "addr_city": "Fairview",
        "addr_postcode": "16415",
        "addr_street": "Sterrettania Road",
        "addr_housenumber": "5774"
      }
    },
    "[4]": {
      "main_category": "leisure",
      "sub_category": "park",
      "display_name": "Eagleville Road WRGT Trailhead and Parking, Jefferson, Ohio",
      "geo_wkt": "POINT (-80.844899 41.715412)",
      "poi": {
        "id": 246522,
        "geometry": "POINT (-80.844899 41.715412)",
        "poi_name": "Eagleville Road WRGT Trailhead and Parking",
        "osm_id": 9804147199,
        "leisure": "park",
        "operator": "Western Reserve Greenway Trail",
        "addr_state": "Ohio",
        "addr_city": "Jefferson"
      }
    },
    "[1]": {
      "main_category": "amenity",
      "sub_category": "fast_food"
    }
  },
  "id": 1238,
  "type": "range:towards+loc"
}