{
  "question": "Where can I find a fast food restaurant to the northwest of Heavenly Heart Farm & Mini Petting Zoo, Edinburg, VA within 160 kilometers?",
  "sql": "\nWITH origin AS  (SELECT ST_GeomFromText('POINT (-78.658874 38.840265)',4326)::geography AS geometry)\nSELECT * FROM pois, origin\nWHERE ST_DWithin(pois.geometry, ST_GeomFromText('POINT (-78.658874 38.840265)',4326)::geography, 160000)\nAND amenity = 'fast_food'\nAND degrees(ST_Azimuth(origin.geometry, pois.geometry)) BETWEEN 292.5 AND 337.5;\n",
  "answers": [
    {
      "id": 38073,
      "geometry": "POINT (-78.658874 38.840265)",
      "poi_name": "Pizza Al's",
      "osm_id": 2844179718,
      "amenity": "fast_food",
      "cuisine": "pizza",
      "website": "https://www.pizzaals.com//",
      "phone": "+1-304-599-4040",
      "addr_state": "WV",
      "addr_city": "Morgantown",
      "addr_postcode": "26505",
      "addr_street": "University Avenue",
      "addr_housenumber": "2952"
    },
    {
      "id": 55735,
      "geometry": "POINT (-78.658874 38.840265)",
      "poi_name": "Jimmy John's",
      "osm_id": 10205274320,
      "amenity": "fast_food",
      "cuisine": "sandwich",
      "takeaway": "yes",
      "official_name": "Jimmy John's Gourmet Sandwiches",
      "addr_state": "WV",
      "addr_city": "Morgantown",
      "addr_postcode": "26505",
      "addr_street": "High Street",
      "addr_housenumber": "405"
    },
    {
      "id": 55803,
      "geometry": "POINT (-78.658874 38.840265)",
      "poi_name": "Burger & Bites",
      "osm_id": 10208344356,
      "amenity": "fast_food",
      "cuisine": "burger",
      "addr_state": "WV",
      "addr_city": "Morgantown",
      "addr_postcode": "26505",
      "addr_street": "Walnut Street",
      "addr_housenumber": "234"
    },
    {
      "id": 55747,
      "geometry": "POINT (-78.658874 38.840265)",
      "poi_name": "Nutrition Lounge",
      "osm_id": 10205347905,
      "amenity": "fast_food",
      "cuisine": "juice;smoothie",
      "addr_state": "WV",
      "addr_city": "Morgantown",
      "addr_postcode": "26505",
      "addr_street": "High Street",
      "addr_housenumber": "320"
    },
    {
      "id": 55851,
      "geometry": "POINT (-78.658874 38.840265)",
      "poi_name": "Pizza Hut Express",
      "osm_id": 10211059741,
      "amenity": "fast_food",
      "cuisine": "pizza",
      "website": "https://locations.pizzahut.com/pa/uniontown/120-matthew-dr",
      "takeaway": "yes",
      "addr_state": "PA",
      "addr_city": "Uniontown",
      "addr_postcode": "15401",
      "addr_street": "Matthew Drive",
      "addr_housenumber": "120"
    },
    {
      "id": 55980,
      "geometry": "POINT (-78.658874 38.840265)",
      "poi_name": "Big Shot Bob's House of Wings",
      "osm_id": 10220011398,
      "amenity": "fast_food",
      "cuisine": "wings",
      "opening_hours": "Mo-Th 11:00-23:00; Fr-Sa 11:00-00:00; Su 12:00-22:00",
      "website": "http://bigshotbobs.com/",
      "phone": "+1-724-550-4546",
      "takeaway": "yes",
      "addr_state": "PA",
      "addr_city": "Uniontown",
      "addr_postcode": "15401",
      "addr_street": "Walmart Drive",
      "addr_housenumber": "217"
    },
    {
      "id": 129773,
      "geometry": "POINT (-78.658874 38.840265)",
      "poi_name": "Chipotle",
      "osm_id": 9840109156,
      "amenity": "fast_food",
      "cuisine": "mexican",
      "takeaway": "yes",
      "official_name": "Chipotle Mexican Grill",
      "addr_state": "WV",
      "addr_city": "Morgantown",
      "addr_postcode": "26505",
      "addr_street": "High Street",
      "addr_housenumber": "461"
    },
    {
      "id": 129775,
      "geometry": "POINT (-78.658874 38.840265)",
      "poi_name": "Pita Pit",
      "osm_id": 9840109167,
      "amenity": "fast_food",
      "cuisine": "pita",
      "takeaway": "yes",
      "addr_state": "WV",
      "addr_city": "Morgantown",
      "addr_postcode": "26505",
      "addr_street": "High Street",
      "addr_housenumber": "387"
    },
    {
      "id": 151538,
      "geometry": "POINT (-78.658874 38.840265)",
      "poi_name": "Fat Anthony's",
      "osm_id": 4103943584,
      "amenity": "fast_food",
      "cuisine": "pizza",
      "takeaway": "yes",
      "delivery": "yes",
      "addr_state": "WV",
      "addr_city": "Morgantown",
      "addr_postcode": "26508"
    },
    {
      "id": 191073,
      "geometry": "POINT (-78.658874 38.840265)",
      "poi_name": "Walzzy's Hot Dogs",
      "osm_id": 1336322519,
      "amenity": "fast_food",
      "opening_hours": "Mo-Su 11:00-20:00",
      "website": "https://m.facebook.com/WalzzysHotdogs/?__nodl&_rdr",
      "phone": "+1-304-435-3445",
      "addr_state": "WV",
      "addr_city": "Morgantown",
      "addr_postcode": "26508",
      "addr_street": "Ashebrooke Square",
      "addr_housenumber": "512"
    },
    {
      "id": 191074,
      "geometry": "POINT (-78.658874 38.840265)",
      "poi_name": "Dragon Cafe",
      "osm_id": 1336331308,
      "amenity": "fast_food",
      "cuisine": "chinese",
      "website": "https://www.dragoncafewv.com/",
      "takeaway": "yes",
      "delivery": "no",
      "addr_state": "WV",
      "addr_city": "Morgantown",
      "addr_postcode": "26508",
      "addr_street": "Ashebrooke Square",
      "addr_housenumber": "510"
    },
    {
      "id": 202068,
      "geometry": "POINT (-78.658874 38.840265)",
      "poi_name": "Arby's",
      "osm_id": 676385476,
      "amenity": "fast_food",
      "cuisine": "sandwich",
      "opening_hours": "Mo-Su 09:45-22:30",
      "takeaway": "yes",
      "addr_state": "WV",
      "addr_city": "Morgantown",
      "addr_postcode": "26505",
      "addr_street": "Patteson Drive",
      "addr_housenumber": "331"
    },
    {
      "id": 227956,
      "geometry": "POINT (-78.658874 38.840265)",
      "poi_name": "Subway",
      "osm_id": 4324655757,
      "amenity": "fast_food",
      "cuisine": "sandwich",
      "takeaway": "yes",
      "addr_state": "WV",
      "addr_city": "Morgantown",
      "addr_postcode": "26505",
      "addr_street": "High Street"
    },
    {
      "id": 240892,
      "geometry": "POINT (-78.658874 38.840265)",
      "poi_name": "Domino's",
      "osm_id": 5998101092,
      "amenity": "fast_food",
      "cuisine": "pizza",
      "takeaway": "yes",
      "drive_through": "yes",
      "delivery": "yes",
      "addr_state": "WV",
      "addr_city": "Morgantown",
      "addr_postcode": "26505",
      "addr_street": "Van Voorhis Road",
      "addr_housenumber": "1159"
    }
  ],
  "answer_type": "loc",
  "question_entities": {
    "[1]": {
      "main_category": "amenity",
      "sub_category": "fast food restaurant"
    },
    "[2]": {
      "distance": 160000,
      "text": "160 kilometers"
    },
    "[3]": {
      "main_category": "tourism",
      "sub_category": "zoo",
      "display_name": "Heavenly Heart Farm & Mini Petting Zoo, Edinburg, VA",
      "geo_wkt": "POINT (-78.658874 38.840265)",
      "poi": {
        "id": 9965,
        "geometry": "POINT (-78.658874 38.840265)",
        "poi_name": "Heavenly Heart Farm & Mini Petting Zoo",
        "osm_id": 9081274336,
        "description": "Traveling petting zoo, open on location for special events or by appointment. Contact via email or phone for details.",
        "tourism": "zoo",
        "fee": "yes",
        "website": "https://www.heavenlyheartfarmandminipettingzoo.com/",
        "phone": "+1 540 984 3925",
        "zoo": "petting_zoo",
        "addr_state": "VA",
        "addr_city": "Edinburg",
        "addr_postcode": "22824",
        "addr_street": "Swover Creek Road",
        "addr_housenumber": "3795"
      }
    },
    "[4]": {
      "direction_desc": "northwest",
      "direction_predicate": "degrees(ST_Azimuth(origin.geometry, pois.geometry)) BETWEEN 292.5 AND 337.5"
    }
  },
  "id": 58,
  "type": "range:direction+loc"
}