{
  "question": "Which restaurant can I find along the route to Centennial High School Football Stadium, Roswell, GA within 80 kilometers from Mountain Park, Lilburn, GA?",
  "sql": "WITH\n    angle AS (SELECT degrees(ST_Azimuth(ST_GeomFromText('POINT (-84.118544 33.847394)',4326)::geography, ST_GeomFromText('POINT (-84.292979 34.007322)',4326)::geography)) AS value)\nSELECT * FROM pois,angle\nWHERE amenity = 'restaurant'\nAND ST_DWithin(pois.geometry, ST_GeomFromText('POINT (-84.118544 33.847394)',4326)::geography, 80000)\nAND (degrees(ST_Azimuth(ST_GeomFromText('POINT (-84.118544 33.847394)',4326)::geography, pois.geometry)) BETWEEN angle.value - 22.5 AND angle.value + 22.5);\n",
  "answers": [
    {
      "id": 28732,
      "geometry": "POINT (-84.258495 33.969034)",
      "poi_name": "Loving Hut",
      "osm_id": 8255274470,
      "amenity": "restaurant",
      "cuisine": "international",
      "value": 317.7711921280522
    },
    {
      "id": 28733,
      "geometry": "POINT (-84.256939 33.968856)",
      "poi_name": "Royal Bistro",
      "osm_id": 8255274471,
      "amenity": "restaurant",
      "cuisine": "thai",
      "website": "https://www.royal-bistro.com/",
      "phone": "+1-678-404-7733",
      "addr_state": "GA",
      "addr_city": "Peachtree Corners",
      "addr_postcode": "30092",
      "addr_street": "Spalding Drive",
      "addr_housenumber": "6365",
      "value": 317.7711921280522
    },
    {
      "id": 37210,
      "geometry": "POINT (-84.294806 34.074805)",
      "poi_name": "Smokejack",
      "osm_id": 2802546384,
      "amenity": "restaurant",
      "cuisine": "barbecue",
      "value": 317.7711921280522
    },
    {
      "id": 33930,
      "geometry": "POINT (-84.422782 33.979072)",
      "poi_name": "Kouzina Christos",
      "osm_id": 2687508275,
      "amenity": "restaurant",
      "cuisine": "greek;pizza;italian;american",
      "wheelchair": "yes",
      "opening_hours": "Tu-Sa 11:00-21:00; Su 11:00-15:00",
      "website": "https://www.kouzinachristos.com/",
      "internet_access": "wlan",
      "phone": "+1 (470) 689-3389",
      "takeaway": "yes",
      "outdoor_seating": "yes",
      "delivery": "no",
      "toilets": "yes",
      "addr_state": "GA",
      "addr_city": "Marietta",
      "addr_postcode": "30068",
      "addr_street": "Powers Ferry Road Southeast",
      "addr_housenumber": "1255",
      "value": 317.7711921280522
    },
    {
      "id": 34669,
      "geometry": "POINT (-84.216371 33.976764)",
      "poi_name": "Marco's Pizza",
      "osm_id": 2703140982,
      "amenity": "restaurant",
      "cuisine": "pizza",
      "value": 317.7711921280522
    },
    {
      "id": 34672,
      "geometry": "POINT (-84.212707 33.986436)",
      "poi_name": "Johnny's New York PIzza",
      "osm_id": 2703141029,
      "amenity": "restaurant",
      "cuisine": "pizza",
      "value": 317.7711921280522
    },
    {
      "id": 34921,
      "geometry": "POINT (-84.391464 34.003815)",
      "poi_name": "Bella Italia",
      "osm_id": 2706603525,
      "amenity": "restaurant",
      "cuisine": "italian",
      "website": "http://www.bellaitaliacuisine.com/",
      "addr_city": "Roswell",
      "addr_postcode": "30075",
      "addr_street": "Marietta Highway",
      "addr_housenumber": "880",
      "value": 317.7711921280522
    },
    {
      "id": 34964,
      "geometry": "POINT (-84.390799 34.005309)",
      "poi_name": "Star Pizza and Pasta",
      "osm_id": 2707752635,
      "amenity": "restaurant",
      "cuisine": "pizza",
      "opening_hours": "Mo-Th 11:00-23:00; Fr-Sa 11:00-23:30; Su 11:30-12:30",
      "website": "https://www.starpizza.com/",
      "phone": "+1-770-650-6717",
      "addr_city": "Roswell",
      "addr_postcode": "30075",
      "addr_street": "Marietta Highway",
      "addr_housenumber": "1000",
      "value": 317.7711921280522
    },
    {
      "id": 35120,
      "geometry": "POINT (-84.480144 34.042753)",
      "poi_name": "Mellow Mushroom",
      "osm_id": 2711012710,
      "amenity": "restaurant",
      "cuisine": "pizza",
      "opening_hours": "Mo-Th 11:00-22:00; Fr-Sa 11:00-23:00; Su 12:00-22:00",
      "website": "https://mellowmushroom.com/store/shallowford",
      "phone": "+1-770-516-1500",
      "addr_city": "Marietta",
      "addr_postcode": "30066",
      "addr_street": "Shallowford Road Northeast",
      "addr_housenumber": "2421",
      "value": 317.7711921280522
    },
    {
      "id": 36042,
      "geometry": "POINT (-84.590716 34.058504)",
      "poi_name": "The Jammin Pie",
      "osm_id": 2745631763,
      "amenity": "restaurant",
      "cuisine": "italian",
      "website": "https://peaceloveandpizza.com/",
      "addr_postcode": "30144",
      "addr_street": "Wade Green Road Northwest",
      "addr_housenumber": "4200",
      "value": 317.7711921280522
    },
    {
      "id": 37392,
      "geometry": "POINT (-84.237129 34.093502)",
      "poi_name": "Tarahumata",
      "osm_id": 2810148149,
      "amenity": "restaurant",
      "cuisine": "mexican",
      "value": 317.7711921280522
    },
    {
      "id": 37190,
      "geometry": "POINT (-84.266279 34.088153)",
      "poi_name": "The Original Pancake House",
      "osm_id": 2801366314,
      "amenity": "restaurant",
      "cuisine": "breakfast;pancake",
      "addr_state": "GA",
      "addr_city": "Alpharetta",
      "addr_postcode": "30004",
      "addr_street": "Windward Parkway",
      "addr_housenumber": "5530",
      "value": 317.7711921280522
    },
    {
      "id": 37191,
      "geometry": "POINT (-84.26615 34.08816)",
      "poi_name": "Thai 2",
      "osm_id": 2801366391,
      "amenity": "restaurant",
      "cuisine": "thai",
      "value": 317.7711921280522
    },
    {
      "id": 37250,
      "geometry": "POINT (-84.23541 34.057603)",
      "poi_name": "Madras Chetinaad",
      "osm_id": 2805194162,
      "amenity": "restaurant",
      "cuisine": "indian",
      "value": 317.7711921280522
    },
    {
      "id": 38721,
      "geometry": "POINT (-84.410766 33.965467)",
      "poi_name": "Johnny's New York Style Pizza",
      "osm_id": 2880415201,
      "amenity": "restaurant",
      "cuisine": "pizza",
      "opening_hours": "Mo-We 11:00-21:00; Th-Sa 11:00-22:00; Su 11:30-20:30",
      "website": "https://johnnyspizza.com/location-template.php?location=marietta-lower-roswell",
      "phone": "+1 (678) 560-2228",
      "addr_city": "Marietta",
      "addr_postcode": "30062",
      "addr_street": "Lower Roswell Road",
      "addr_housenumber": "4880",
      "value": 317.7711921280522
    },
    {
      "id": 38298,
      "geometry": "POINT (-84.232267 33.954203)",
      "poi_name": "Cicis",
      "osm_id": 2856152521,
      "amenity": "restaurant",
      "cuisine": "pizza;buffet",
      "value": 317.7711921280522
    },
    {
      "id": 37441,
      "geometry": "POINT (-84.24112 34.092789)",
      "poi_name": "Firefly",
      "osm_id": 2810966452,
      "amenity": "restaurant",
      "cuisine": "american",
      "value": 317.7711921280522
    },
    {
      "id": 37982,
      "geometry": "POINT (-84.24049 34.093486)",
      "poi_name": "Papouli's",
      "osm_id": 2840121228,
      "amenity": "restaurant",
      "cuisine": "greek",
      "opening_hours": "11:00-21:00",
      "addr_city": "Alpharetta",
      "addr_postcode": "30005",
      "addr_street": "Windward Parkway",
      "addr_housenumber": "3070",
      "value": 317.7711921280522
    },
    {
      "id": 38517,
      "geometry": "POINT (-84.361703 34.073487)",
      "poi_name": "Etris Kitchen & Bar",
      "osm_id": 2869079431,
      "amenity": "restaurant",
      "cuisine": "pizza",
      "opening_hours": "Mo-Th 17:00-22:00, Fr-Sa 17:00-23:00",
      "website": "http://www.etriskitchen.com/",
      "addr_city": "Roswell",
      "addr_postcode": "30075",
      "addr_street": "Etris Road",
      "addr_housenumber": "12020",
      "value": 317.7711921280522
    },
    {
      "id": 40254,
      "geometry": "POINT (-84.580706 34.113178)",
      "poi_name": "Pizza 3.14",
      "osm_id": 2963752091,
      "amenity": "restaurant",
      "cuisine": "pizza",
      "opening_hours": "Su-Th 11:00-21:00; Fr-Sa 11:00-22:00",
      "website": "http://pizza314.com/",
      "phone": "+1-678-401-7250",
      "addr_state": "GA",
      "addr_city": "Woodstock",
      "addr_postcode": "30189",
      "addr_street": "Bells Ferry Road",
      "addr_housenumber": "6424",
      "value": 317.7711921280522
    },
    {
      "id": 43642,
      "geometry": "POINT (-84.335234 33.94986)",
      "poi_name": "First Watch",
      "osm_id": 3125098667,
      "amenity": "restaurant",
      "cuisine": "american;breakfast",
      "official_name": "First Watch The Daytime Cafe",
      "value": 317.7711921280522
    },
    {
      "id": 41225,
      "geometry": "POINT (-84.334316 33.949066)",
      "poi_name": "Cafe at Pharr",
      "osm_id": 3007676376,
      "amenity": "restaurant",
      "opening_hours": "Mo-Sa 10:30-16:00",
      "addr_state": "GA",
      "addr_city": "Dunwoody",
      "addr_postcode": "30338",
      "addr_street": "Chamblee Dunwoody Road",
      "addr_housenumber": "5533",
      "value": 317.7711921280522
    },
    {
      "id": 43643,
      "geometry": "POINT (-84.335056 33.950003)",
      "poi_name": "Marlow's Tavern",
      "osm_id": 3125098668,
      "amenity": "restaurant",
      "value": 317.7711921280522
    },
    {
      "id": 47471,
      "geometry": "POINT (-84.440233 33.977592)",
      "poi_name": "Chopsticks China Bistro",
      "osm_id": 3328613184,
      "amenity": "restaurant",
      "cuisine": "chinese",
      "opening_hours": "Su-Sa 10:30-22:00",
      "website": "http://www.chopsticksptc.com/",
      "phone": "+1 (770) 971-8118",
      "addr_state": "GA",
      "addr_city": "Marietta",
      "addr_postcode": "30062",
      "addr_street": "Roswell Road",
      "addr_housenumber": "3822",
      "value": 317.7711921280522
    },
    {
      "id": 48627,
      "geometry": "POINT (-84.219543 33.971839)",
      "poi_name": "Kool Runnings",
      "osm_id": 3392636263,
      "amenity": "restaurant",
      "cuisine": "jamaican",
      "opening_hours": "Mo-Th 11:00-22:00; Fr -Sa 11:00-24:00; Su 11:00-21:00",
      "website": "https://koolrunningsrestaurant.com/",
      "phone": "+1-770-441-0207",
      "takeaway": "yes",
      "addr_state": "GA",
      "addr_city": "Norcross",
      "addr_postcode": "30092",
      "addr_street": "Peachtree Parkway Northwest",
      "addr_housenumber": "5450",
      "value": 317.7711921280522
    },
    {
      "id": 47441,
      "geometry": "POINT (-84.42453 33.986549)",
      "poi_name": "Capozzi's",
      "osm_id": 3326375766,
      "amenity": "restaurant",
      "cuisine": "pizza",
      "opening_hours": "Mo-Th 11:00-22:00; Fr 11:00-22:00; Su 12:00-21:00",
      "website": "http://www.capozzispizza.com/",
      "phone": "+1 (770) 321-5550",
      "addr_state": "GA",
      "addr_city": "Marietta",
      "addr_postcode": "30062",
      "addr_street": "Roswell Road",
      "addr_housenumber": "4285",
      "value": 317.7711921280522
    },
    {
      "id": 48338,
      "geometry": "POINT (-84.528649 34.032548)",
      "poi_name": "Jameric International Cuisine",
      "osm_id": 3377331693,
      "amenity": "restaurant",
      "cuisine": "jamaican",
      "wheelchair": "yes",
      "opening_hours": "Mo-Th 11:00-21:00; Fr,Sa 11:00-22:00; Su 11:00-18:00",
      "website": "https://jamericinternationalcuisine.business.site",
      "value": 317.7711921280522
    },
    {
      "id": 54053,
      "geometry": "POINT (-84.571073 34.035102)",
      "poi_name": "Rico! Tropical Grill",
      "osm_id": 10112398553,
      "amenity": "restaurant",
      "website": "https://ricotropicalgrill.com/",
      "phone": "+1 770 485 1970",
      "addr_state": "GA",
      "addr_city": "Kennesaw",
      "addr_postcode": "30144",
      "addr_street": "Chastain Road Northwest",
      "addr_housenumber": "745",
      "value": 317.7711921280522
    },
    {
      "id": 48710,
      "geometry": "POINT (-84.219087 33.969901)",
      "poi_name": "My Friends' Place",
      "osm_id": 3397017794,
      "amenity": "restaurant",
      "cuisine": "sandwich",
      "opening_hours": "Mo-Fr 07:00-15:00, Sa 11:00-14:00",
      "website": "https://myfriendsplacedeli.com/",
      "takeaway": "yes",
      "addr_state": "GA",
      "addr_city": "Norcross",
      "addr_postcode": "30092",
      "addr_street": "Peachtree Parkway Northwest",
      "addr_housenumber": "5450",
      "value": 317.7711921280522
    },
    {
      "id": 48740,
      "geometry": "POINT (-84.218931 33.979814)",
      "poi_name": "Ted's Montana Grill",
      "osm_id": 3398186518,
      "amenity": "restaurant",
      "cuisine": "american",
      "value": 317.7711921280522
    },
    {
      "id": 48741,
      "geometry": "POINT (-84.218953 33.98)",
      "poi_name": "Mambo Italiano",
      "osm_id": 3398186519,
      "amenity": "restaurant",
      "cuisine": "italian",
      "value": 317.7711921280522
    },
    {
      "id": 48742,
      "geometry": "POINT (-84.218201 33.980739)",
      "poi_name": "Grace 1720",
      "osm_id": 3398186545,
      "amenity": "restaurant",
      "value": 317.7711921280522
    },
    {
      "id": 48745,
      "geometry": "POINT (-84.218521 33.97907)",
      "poi_name": "Omaha Steaks",
      "osm_id": 3398186558,
      "amenity": "restaurant",
      "value": 317.7711921280522
    },
    {
      "id": 48746,
      "geometry": "POINT (-84.218379 33.979002)",
      "poi_name": "Atlanta Bread Company",
      "osm_id": 3398186560,
      "amenity": "restaurant",
      "value": 317.7711921280522
    },
    {
      "id": 48747,
      "geometry": "POINT (-84.217899 33.980116)",
      "poi_name": "Thai Spice",
      "osm_id": 3398208542,
      "amenity": "restaurant",
      "cuisine": "thai",
      "value": 317.7711921280522
    },
    {
      "id": 48748,
      "geometry": "POINT (-84.217632 33.980457)",
      "poi_name": "Cheeky",
      "osm_id": 3398208543,
      "amenity": "restaurant",
      "value": 317.7711921280522
    },
    {
      "id": 48749,
      "geometry": "POINT (-84.216028 33.982402)",
      "poi_name": "La Parrilla Mexican Restaurant",
      "osm_id": 3398208562,
      "amenity": "restaurant",
      "value": 317.7711921280522
    },
    {
      "id": 48750,
      "geometry": "POINT (-84.215716 33.982797)",
      "poi_name": "Jason's Deli",
      "osm_id": 3398208566,
      "amenity": "restaurant",
      "cuisine": "sandwich",
      "value": 317.7711921280522
    },
    {
      "id": 51376,
      "geometry": "POINT (-84.349557 33.983015)",
      "poi_name": "Buffalo Wild Wings",
      "osm_id": 532470374,
      "amenity": "restaurant",
      "cuisine": "chicken;american",
      "addr_state": "GA",
      "value": 317.7711921280522
    },
    {
      "id": 48709,
      "geometry": "POINT (-84.219087 33.969767)",
      "poi_name": "Samui Thai Cuisine",
      "osm_id": 3397017793,
      "amenity": "restaurant",
      "cuisine": "thai",
      "website": "http://samuithaicuisine-ga.com/",
      "addr_state": "GA",
      "addr_city": "Norcross",
      "addr_postcode": "30092",
      "addr_street": "Peachtree Parkway Northwest",
      "addr_housenumber": "5450",
      "value": 317.7711921280522
    },
    {
      "id": 49608,
      "geometry": "POINT (-84.492447 34.018455)",
      "poi_name": "Judy's Country Kitchen",
      "osm_id": 3443724803,
      "amenity": "restaurant",
      "cuisine": "southern",
      "opening_hours": "Mo-Sa 11:00-21:00",
      "phone": "+1 (678) 388-8680",
      "addr_state": "GA",
      "addr_city": "Marietta",
      "addr_postcode": "30066",
      "addr_street": "Sandy Plains Road Northeast",
      "addr_housenumber": "2745",
      "value": 317.7711921280522
    },
    {
      "id": 58154,
      "geometry": "POINT (-84.289604 34.062046)",
      "poi_name": "Thai Thai",
      "osm_id": 5365890522,
      "amenity": "restaurant",
      "cuisine": "thai",
      "value": 317.7711921280522
    },
    {
      "id": 54349,
      "geometry": "POINT (-84.610643 34.047742)",
      "poi_name": "La Bamba",
      "osm_id": 10128642299,
      "amenity": "restaurant",
      "cuisine": "mexican",
      "value": 317.7711921280522
    },
    {
      "id": 58050,
      "geometry": "POINT (-84.313948 34.042034)",
      "poi_name": "Miller's Ale House",
      "osm_id": 5360748013,
      "amenity": "restaurant",
      "cuisine": "american",
      "value": 317.7711921280522
    },
    {
      "id": 58051,
      "geometry": "POINT (-84.314248 34.04058)",
      "poi_name": "On The Border",
      "osm_id": 5360748014,
      "amenity": "restaurant",
      "cuisine": "tex-mex",
      "official_name": "On The Border Mexican Grill & Cantina",
      "value": 317.7711921280522
    },
    {
      "id": 56188,
      "geometry": "POINT (-84.294914 34.070089)",
      "poi_name": "Sid\u2019s Pizza",
      "osm_id": 10226749603,
      "amenity": "restaurant",
      "cuisine": "pizza",
      "value": 317.7711921280522
    },
    {
      "id": 56332,
      "geometry": "POINT (-84.294876 34.070603)",
      "poi_name": "Hibachi Express",
      "osm_id": 10232121051,
      "amenity": "restaurant",
      "cuisine": "asian",
      "value": 317.7711921280522
    },
    {
      "id": 56333,
      "geometry": "POINT (-84.294893 34.070701)",
      "poi_name": "Bagel Boys Cafe",
      "osm_id": 10232121052,
      "amenity": "restaurant",
      "value": 317.7711921280522
    },
    {
      "id": 58049,
      "geometry": "POINT (-84.315702 34.040992)",
      "poi_name": "Ray's",
      "osm_id": 5360748011,
      "amenity": "restaurant",
      "value": 317.7711921280522
    },
    {
      "id": 76034,
      "geometry": "POINT (-84.325581 34.060276)",
      "poi_name": "Star Pizza & Pasta",
      "osm_id": 9757426922,
      "amenity": "restaurant",
      "cuisine": "pizza",
      "website": "https://www.starpizzapasta.com",
      "phone": "+1-770-667-3000",
      "addr_state": "GA",
      "addr_city": "Roswell",
      "addr_postcode": "30076",
      "addr_street": "Alpharetta Highway",
      "addr_housenumber": "11490",
      "value": 317.7711921280522
    },
    {
      "id": 58261,
      "geometry": "POINT (-84.276214 34.071537)",
      "poi_name": "Kona",
      "osm_id": 5369166216,
      "amenity": "restaurant",
      "cuisine": "sushi;steak",
      "value": 317.7711921280522
    },
    {
      "id": 58262,
      "geometry": "POINT (-84.276761 34.071262)",
      "poi_name": "Goldbergs",
      "osm_id": 5369166217,
      "amenity": "restaurant",
      "value": 317.7711921280522
    },
    {
      "id": 58263,
      "geometry": "POINT (-84.276822 34.071418)",
      "poi_name": "Caffe Antico",
      "osm_id": 5369166218,
      "amenity": "restaurant",
      "cuisine": "pizza",
      "value": 317.7711921280522
    },
    {
      "id": 58264,
      "geometry": "POINT (-84.276696 34.071569)",
      "poi_name": "Marlow's Tavern",
      "osm_id": 5369166220,
      "amenity": "restaurant",
      "value": 317.7711921280522
    },
    {
      "id": 58266,
      "geometry": "POINT (-84.27814 34.070974)",
      "poi_name": "El Felix",
      "osm_id": 5369166854,
      "amenity": "restaurant",
      "cuisine": "mexican",
      "value": 317.7711921280522
    },
    {
      "id": 58267,
      "geometry": "POINT (-84.279225 34.070972)",
      "poi_name": "Colletta",
      "osm_id": 5369166856,
      "amenity": "restaurant",
      "value": 317.7711921280522
    },
    {
      "id": 58274,
      "geometry": "POINT (-84.289765 34.061937)",
      "poi_name": "Grouchy's NY Deli",
      "osm_id": 5369193294,
      "amenity": "restaurant",
      "cuisine": "sandwich",
      "value": 317.7711921280522
    },
    {
      "id": 58275,
      "geometry": "POINT (-84.273081 34.070667)",
      "poi_name": "South Kitchen",
      "osm_id": 5369193296,
      "amenity": "restaurant",
      "value": 317.7711921280522
    },
    {
      "id": 66272,
      "geometry": "POINT (-84.486054 34.088657)",
      "poi_name": "Buffalo's Cafe",
      "osm_id": 5732999837,
      "amenity": "restaurant",
      "cuisine": "wings",
      "takeaway": "yes",
      "outdoor_seating": "yes",
      "delivery": "no",
      "addr_state": "GA",
      "addr_city": "Woodstock",
      "addr_postcode": "30188",
      "addr_street": "GA-92",
      "addr_housenumber": "12035",
      "value": 317.7711921280522
    },
    {
      "id": 66273,
      "geometry": "POINT (-84.485132 34.090269)",
      "poi_name": "Los Bravos",
      "osm_id": 5732999868,
      "amenity": "restaurant",
      "cuisine": "mexican",
      "website": "losbravosatlanta.net",
      "takeaway": "yes",
      "outdoor_seating": "yes",
      "delivery": "no",
      "addr_state": "GA",
      "addr_city": "Woodstock",
      "addr_postcode": "30188",
      "addr_street": "Trickum Road",
      "addr_housenumber": "3342",
      "value": 317.7711921280522
    },
    {
      "id": 66933,
      "geometry": "POINT (-84.31844 34.019095)",
      "poi_name": "McAlister's Deli",
      "osm_id": 11216872995,
      "amenity": "restaurant",
      "cuisine": "sandwich",
      "addr_housenumber": "1425",
      "value": 317.7711921280522
    },
    {
      "id": 66934,
      "geometry": "POINT (-84.318877 34.019241)",
      "poi_name": "Rasa Sayang Asian Kitchen",
      "osm_id": 11216872996,
      "amenity": "restaurant",
      "cuisine": "asian",
      "value": 317.7711921280522
    },
    {
      "id": 67394,
      "geometry": "POINT (-84.795569 34.166916)",
      "poi_name": "Ate Track Bar & Grill",
      "osm_id": 11234790108,
      "amenity": "restaurant",
      "cuisine": "american",
      "opening_hours": "Tu-Th 11:00-20:00; Fr 11:00-21:00; Sa 12:00-21:00",
      "website": "http://www.atetrackbar.com/",
      "phone": "+14703154369",
      "outdoor_seating": "yes",
      "addr_state": "GA",
      "addr_city": "Cartersville",
      "addr_postcode": "30120",
      "addr_street": "North Wall Street",
      "addr_housenumber": "25",
      "value": 317.7711921280522
    },
    {
      "id": 67395,
      "geometry": "POINT (-84.79492 34.198394)",
      "poi_name": "Zen Ramen and Sushi Burrito",
      "osm_id": 11234790109,
      "amenity": "restaurant",
      "cuisine": "japanese",
      "opening_hours": "We-Th 11:30-20:30; Fr-Sa 11:30-21:30; Su 12:00-20:00",
      "phone": "+14702277125",
      "outdoor_seating": "no",
      "addr_state": "GA",
      "addr_city": "Cartersville",
      "addr_postcode": "30120",
      "addr_street": "Joe Frank Harris Parkway Southeast",
      "addr_housenumber": "957",
      "value": 317.7711921280522
    },
    {
      "id": 69151,
      "geometry": "POINT (-84.570436 34.034465)",
      "poi_name": "Morning Shift",
      "osm_id": 11296070118,
      "amenity": "restaurant",
      "cuisine": "american;coffee_shop",
      "wheelchair": "yes",
      "opening_hours": "Mo-Fr 06:30-13:30; Sa-Su 06:30-15:30",
      "website": "https://www.morningshiftkennesaw.com/",
      "internet_access": "wlan",
      "phone": "+1 470-668-7518",
      "addr_street": "Chastain Road Northwest",
      "addr_housenumber": "745",
      "value": 317.7711921280522
    },
    {
      "id": 69152,
      "geometry": "POINT (-84.570433 34.034395)",
      "poi_name": "Late Shift Pizza & Wings",
      "osm_id": 11296070119,
      "amenity": "restaurant",
      "cuisine": "american",
      "wheelchair": "yes",
      "opening_hours": "Mo 19:30-02:00; Tu-Su 16:30-02:00",
      "website": "https://nightshiftpizza.com/",
      "internet_access": "wlan",
      "phone": "+1 470-668-7518",
      "addr_street": "Chastain Road Northwest",
      "addr_housenumber": "745",
      "value": 317.7711921280522
    },
    {
      "id": 58219,
      "geometry": "POINT (-84.272532 34.098842)",
      "poi_name": "Blue River Tavern",
      "osm_id": 5368445518,
      "amenity": "restaurant",
      "value": 317.7711921280522
    },
    {
      "id": 58220,
      "geometry": "POINT (-84.272512 34.099232)",
      "poi_name": "Bobby G's",
      "osm_id": 5368446021,
      "amenity": "restaurant",
      "value": 317.7711921280522
    },
    {
      "id": 63226,
      "geometry": "POINT (-84.459819 34.237225)",
      "poi_name": "Taco Mac",
      "osm_id": 5605132639,
      "amenity": "restaurant",
      "opening_hours": "Mo-Su 11:00-00:00",
      "website": "https://locations.tacomac.com/ga/canton/1810-cumming-highway.html",
      "phone": "+1-770-479-7900",
      "takeaway": "yes",
      "outdoor_seating": "yes",
      "delivery": "no",
      "addr_state": "GA",
      "addr_city": "Canton",
      "addr_postcode": "30115",
      "addr_street": "Cumming Highway",
      "addr_housenumber": "1810",
      "value": 317.7711921280522
    },
    {
      "id": 63228,
      "geometry": "POINT (-84.460003 34.236593)",
      "poi_name": "La Parrilla",
      "osm_id": 5605218419,
      "amenity": "restaurant",
      "opening_hours": "Su-We 11:00-22:00, Th-Sa 11:00-22:30",
      "website": "https://laparrilla.com/",
      "phone": "+1-770-479-8781",
      "takeaway": "yes",
      "outdoor_seating": "yes",
      "delivery": "no",
      "addr_state": "GA",
      "addr_city": "Canton",
      "addr_postcode": "30115",
      "addr_street": "Cumming Highway",
      "addr_housenumber": "1810",
      "value": 317.7711921280522
    },
    {
      "id": 67057,
      "geometry": "POINT (-84.334807 33.947509)",
      "poi_name": "NFA",
      "osm_id": 11221477437,
      "amenity": "restaurant",
      "value": 317.7711921280522
    },
    {
      "id": 70236,
      "geometry": "POINT (-84.247019 34.138771)",
      "poi_name": "Maki Sushi",
      "osm_id": 11352611737,
      "amenity": "restaurant",
      "cuisine": "sushi",
      "value": 317.7711921280522
    },
    {
      "id": 70245,
      "geometry": "POINT (-84.280825 34.092361)",
      "poi_name": "La Parrilla",
      "osm_id": 11352635571,
      "amenity": "restaurant",
      "cuisine": "mexican",
      "value": 317.7711921280522
    },
    {
      "id": 73694,
      "geometry": "POINT (-84.796322 34.164816)",
      "poi_name": "Jefferson's",
      "osm_id": 9650593708,
      "amenity": "restaurant",
      "opening_hours": "Mo-Th 11:00-22:00; Fr-Sa 11:00-23:00; Su 11:30-22:00",
      "website": "https://jeffersons.com/all-locations/cartersville/",
      "phone": "+1 (770) 334-2069",
      "addr_state": "GA",
      "addr_city": "Cartersville",
      "addr_postcode": "30120",
      "addr_street": "West Main Street",
      "addr_housenumber": "28",
      "value": 317.7711921280522
    },
    {
      "id": 74104,
      "geometry": "POINT (-84.795475 34.167256)",
      "poi_name": "Appalachian Grill",
      "osm_id": 9667290425,
      "amenity": "restaurant",
      "cuisine": "southern",
      "opening_hours": "Tu-Th 11:00-20:00; Fr 11:00-21:00; Sa 12:00-21:00",
      "website": "http://appalachiangrill.com/",
      "phone": "+1 (770) 607-5357",
      "addr_state": "GA",
      "addr_city": "Cartersville",
      "addr_postcode": "30120",
      "addr_street": "East Church Street",
      "addr_housenumber": "14",
      "value": 317.7711921280522
    },
    {
      "id": 75531,
      "geometry": "POINT (-84.817528 34.152948)",
      "poi_name": "Sixes Tavern",
      "osm_id": 9735490065,
      "amenity": "restaurant",
      "cuisine": "american",
      "opening_hours": "Mo-Th 11:00-22:00; Fr-Sa 11:00-23:59; Su 11:00-22:00",
      "website": "https://www.sixescartersville.com/",
      "phone": "+1 (770) 334-8998",
      "addr_state": "GA",
      "addr_city": "Cartersville",
      "addr_postcode": "30120",
      "addr_street": "Henderson Drive",
      "addr_housenumber": "650",
      "value": 317.7711921280522
    },
    {
      "id": 75957,
      "geometry": "POINT (-84.174512 33.925018)",
      "poi_name": "Las Islitas Mexican Bar & Grill",
      "osm_id": 9753311871,
      "amenity": "restaurant",
      "opening_hours": "Mo-Th, Su 10:00-22:00, Fr, Sa 10:00-23:30",
      "website": "https://lasislitasmexicanbargrill.business.site",
      "phone": "470-545-2629",
      "addr_state": "GA",
      "addr_city": "Norcross",
      "addr_postcode": "30093",
      "addr_street": "5125 Willow Oak Trail NW",
      "value": 317.7711921280522
    },
    {
      "id": 76094,
      "geometry": "POINT (-84.32558 34.060333)",
      "poi_name": "Rheas II",
      "osm_id": 9759696939,
      "amenity": "restaurant",
      "cuisine": "burger",
      "phone": "+1-770-569-4944",
      "addr_state": "GA",
      "addr_city": "Roswell",
      "addr_postcode": "30076",
      "addr_street": "Alpharetta Highway",
      "addr_housenumber": "11490",
      "value": 317.7711921280522
    },
    {
      "id": 76385,
      "geometry": "POINT (-84.653025 34.075981)",
      "poi_name": "Waffle House",
      "osm_id": 9775244996,
      "amenity": "restaurant",
      "cuisine": "american",
      "opening_hours": "24/7",
      "value": 317.7711921280522
    },
    {
      "id": 76392,
      "geometry": "POINT (-84.655119 34.082037)",
      "poi_name": "Waffle House",
      "osm_id": 9775264441,
      "amenity": "restaurant",
      "cuisine": "american",
      "opening_hours": "24/7",
      "value": 317.7711921280522
    },
    {
      "id": 76396,
      "geometry": "POINT (-84.676515 34.075389)",
      "poi_name": "Pizza Hut",
      "osm_id": 9775264501,
      "amenity": "restaurant",
      "cuisine": "pizza",
      "value": 317.7711921280522
    },
    {
      "id": 76717,
      "geometry": "POINT (-84.34127 34.04409)",
      "poi_name": "Tin Drum Asian Kitchen",
      "osm_id": 9789308142,
      "amenity": "restaurant",
      "cuisine": "asian",
      "website": "https://locations.tindrumasiankitchen.com/ll/US/GA/Roswell/10800-Alpharetta-Highway",
      "phone": "+1-770-641-5082",
      "addr_state": "GA",
      "addr_city": "Roswell",
      "addr_postcode": "30076",
      "addr_street": "Alpharetta Highway",
      "addr_housenumber": "10800",
      "value": 317.7711921280522
    },
    {
      "id": 76719,
      "geometry": "POINT (-84.341078 34.044463)",
      "poi_name": "Poke Life",
      "osm_id": 9789310069,
      "amenity": "restaurant",
      "website": "https://poke4life.com",
      "phone": "+1-678-878-3868",
      "addr_state": "GA",
      "addr_city": "Roswell",
      "addr_postcode": "30076",
      "addr_street": "Alpharetta Highway",
      "addr_housenumber": "10800",
      "value": 317.7711921280522
    },
    {
      "id": 79221,
      "geometry": "POINT (-84.382016 34.059508)",
      "poi_name": "Taco Mac",
      "osm_id": 786209878,
      "amenity": "restaurant",
      "cuisine": "bar&grill",
      "opening_hours": "Mo-Sa 11:00-02:00, Su 11:00-24:00",
      "website": "http://www.tacomac.com/",
      "phone": "+1-678-795-0080",
      "addr_housenumber": "685",
      "value": 317.7711921280522
    },
    {
      "id": 78737,
      "geometry": "POINT (-84.336539 33.947482)",
      "poi_name": "J. Christopher's",
      "osm_id": 761863992,
      "amenity": "restaurant",
      "value": 317.7711921280522
    },
    {
      "id": 78738,
      "geometry": "POINT (-84.335949 33.950517)",
      "poi_name": "Mellow Mushroom",
      "osm_id": 761864017,
      "amenity": "restaurant",
      "cuisine": "pizza",
      "value": 317.7711921280522
    },
    {
      "id": 78739,
      "geometry": "POINT (-84.333125 33.950532)",
      "poi_name": "El Azteca",
      "osm_id": 761864087,
      "amenity": "restaurant",
      "cuisine": "mexican",
      "opening_hours": "Mo-Th 11:00-22:00; Fr 11:00-23:00; Sa 12:00-23:00; Su 12:00-22:00",
      "website": "https://www.elaztecaatlanta.com/",
      "phone": "+1 (770) 399-7757",
      "addr_state": "GA",
      "addr_city": "Dunwoody",
      "addr_postcode": "30338",
      "addr_street": "Dunwoody Village Parkway",
      "addr_housenumber": "1412",
      "value": 317.7711921280522
    },
    {
      "id": 76693,
      "geometry": "POINT (-84.276508 34.091074)",
      "poi_name": "Chick'nCone",
      "osm_id": 9788553695,
      "amenity": "restaurant",
      "cuisine": "chicken",
      "website": "https://chickncone.com/",
      "addr_state": "GA",
      "addr_city": "Alpharetta",
      "addr_postcode": "30004",
      "addr_street": "Windward Parkway",
      "addr_housenumber": "5215",
      "value": 317.7711921280522
    },
    {
      "id": 78800,
      "geometry": "POINT (-84.214003 34.06205)",
      "poi_name": "Adobo Taqueria and Tequila Bar",
      "osm_id": 763276477,
      "amenity": "restaurant",
      "value": 317.7711921280522
    },
    {
      "id": 78956,
      "geometry": "POINT (-84.320903 34.04463)",
      "poi_name": "Moksha",
      "osm_id": 767239462,
      "amenity": "restaurant",
      "cuisine": "indian",
      "website": "http://www.mokshaatl.com/",
      "value": 317.7711921280522
    },
    {
      "id": 79222,
      "geometry": "POINT (-84.234014 34.05708)",
      "poi_name": "Taco Mac",
      "osm_id": 786209899,
      "amenity": "restaurant",
      "cuisine": "bar&grill",
      "opening_hours": "11:00-02:00",
      "website": "http://www.tacomac.com/",
      "phone": "+1-404-754-9290",
      "addr_housenumber": "4305",
      "value": 317.7711921280522
    },
    {
      "id": 79230,
      "geometry": "POINT (-84.568377 34.037329)",
      "poi_name": "Taco Mac",
      "osm_id": 786584016,
      "amenity": "restaurant",
      "cuisine": "american",
      "opening_hours": "Mo-Fr 11:00-02:00, Sa 11:00-03:00, Su 11:00-24:00",
      "phone": "+1-770-874-7781",
      "addr_housenumber": "600",
      "value": 317.7711921280522
    },
    {
      "id": 85917,
      "geometry": "POINT (-84.677806 34.065982)",
      "poi_name": "Henry's Louisiana Grill",
      "osm_id": 1908311545,
      "amenity": "restaurant",
      "website": "https://www.chefhenrys.com/",
      "addr_postcode": "30101",
      "addr_street": "N. Main Street",
      "addr_housenumber": "4835",
      "value": 317.7711921280522
    },
    {
      "id": 79379,
      "geometry": "POINT (-84.539772 34.084398)",
      "poi_name": "Taco Mac",
      "osm_id": 802231635,
      "amenity": "restaurant",
      "cuisine": "bar&grill",
      "opening_hours": "Mo-Sa 11:00-02:00, Su 11:00-24:00",
      "phone": "+1-770-517-0030",
      "addr_housenumber": "9020",
      "value": 317.7711921280522
    },
    {
      "id": 79380,
      "geometry": "POINT (-84.27958 34.093237)",
      "poi_name": "Taco Mac",
      "osm_id": 802231641,
      "amenity": "restaurant",
      "cuisine": "bar&grill",
      "opening_hours": "11:00-02:00",
      "phone": "+1-770-346-9119",
      "addr_housenumber": "875",
      "value": 317.7711921280522
    },
    {
      "id": 80728,
      "geometry": "POINT (-84.206934 33.91338)",
      "poi_name": "Pappadeaux Seafood",
      "osm_id": 894860488,
      "amenity": "restaurant",
      "value": 317.7711921280522
    },
    {
      "id": 80729,
      "geometry": "POINT (-84.207276 33.909556)",
      "poi_name": "Denny's",
      "osm_id": 894860496,
      "amenity": "restaurant",
      "cuisine": "american",
      "outdoor_seating": "no",
      "value": 317.7711921280522
    },
    {
      "id": 80731,
      "geometry": "POINT (-84.208896 33.910365)",
      "poi_name": "Cracker Barrel",
      "osm_id": 894860498,
      "amenity": "restaurant",
      "cuisine": "american",
      "official_name": "Cracker Barrel Old Country Store",
      "value": 317.7711921280522
    },
    {
      "id": 80733,
      "geometry": "POINT (-84.170575 33.92203)",
      "poi_name": "Waffle House",
      "osm_id": 894860526,
      "amenity": "restaurant",
      "cuisine": "american",
      "opening_hours": "24/7",
      "value": 317.7711921280522
    },
    {
      "id": 86756,
      "geometry": "POINT (-84.193112 34.018388)",
      "poi_name": "Pasta and Tapas",
      "osm_id": 1949973066,
      "amenity": "restaurant",
      "addr_state": "GA",
      "addr_city": "Johns Creek",
      "addr_postcode": "30097",
      "addr_street": "Medlock Bridge Road",
      "addr_housenumber": "9700",
      "value": 317.7711921280522
    },
    {
      "id": 94790,
      "geometry": "POINT (-84.208834 33.969369)",
      "poi_name": "Sabor Latino",
      "osm_id": 6375928085,
      "amenity": "restaurant",
      "value": 317.7711921280522
    },
    {
      "id": 87308,
      "geometry": "POINT (-84.293948 34.074176)",
      "poi_name": "JINYA Ramen Bar",
      "osm_id": 8707053006,
      "amenity": "restaurant",
      "cuisine": "ramen",
      "opening_hours": "Mo-Su 11:00-10:00",
      "addr_state": "GA",
      "addr_city": "Alpharetta",
      "addr_postcode": "30009",
      "addr_street": "South Broad Street",
      "addr_housenumber": "401",
      "value": 317.7711921280522
    },
    {
      "id": 92112,
      "geometry": "POINT (-84.21298 33.942544)",
      "poi_name": "Paizanos",
      "osm_id": 2104736155,
      "amenity": "restaurant",
      "cuisine": "italian",
      "website": "https://www.paizanos.com/",
      "value": 317.7711921280522
    },
    {
      "id": 94402,
      "geometry": "POINT (-84.426166 33.982629)",
      "poi_name": "California Pizza Kitchen",
      "osm_id": 2240666909,
      "amenity": "restaurant",
      "cuisine": "pizza",
      "opening_hours": "Mo-Th 11:00-21:30; Fr-Sa 11:00-22:00; Su 11:00-21:00",
      "website": "https://www.cpk.com/locations/pine-straw",
      "phone": "+1 (770) 971-7950",
      "addr_state": "GA",
      "addr_city": "Marietta",
      "addr_postcode": "30062",
      "addr_street": "Roswell Road",
      "addr_housenumber": "4250",
      "value": 317.7711921280522
    },
    {
      "id": 87246,
      "geometry": "POINT (-84.495776 34.013865)",
      "poi_name": "Catfish Hox",
      "osm_id": 8700034943,
      "amenity": "restaurant",
      "website": "http://www.catfishhox.com/",
      "phone": "+1 (770) 726-9925",
      "addr_state": "GA",
      "addr_city": "Marietta",
      "addr_postcode": "30066",
      "addr_street": "Sandy Plains Road Northeast",
      "addr_housenumber": "2595",
      "value": 317.7711921280522
    },
    {
      "id": 88293,
      "geometry": "POINT (-84.580779 34.113387)",
      "poi_name": "Wow Pho & Grill",
      "osm_id": 8778017122,
      "amenity": "restaurant",
      "cuisine": "vietnamese",
      "opening_hours": "11:00-21:00",
      "website": "https://www.wowphogrill.com/",
      "phone": "+1-678-383-6099",
      "addr_state": "GA",
      "addr_city": "Woodstock",
      "addr_postcode": "30189",
      "addr_street": "Bells Ferry Road",
      "addr_housenumber": "6424",
      "value": 317.7711921280522
    },
    {
      "id": 88294,
      "geometry": "POINT (-84.581407 34.11401)",
      "poi_name": "JD's Bar-B-Que",
      "osm_id": 8778017123,
      "amenity": "restaurant",
      "cuisine": "barbecue",
      "opening_hours": "11:00-21:00",
      "website": "https://jdsbbq.com/",
      "phone": "678-445-7730",
      "addr_state": "GA",
      "addr_city": "Woodstock",
      "addr_postcode": "30189",
      "addr_street": "Bells Ferry Road",
      "addr_housenumber": "6426",
      "value": 317.7711921280522
    },
    {
      "id": 88296,
      "geometry": "POINT (-84.581485 34.111641)",
      "poi_name": "El Don Tacos Truck",
      "osm_id": 8778017131,
      "amenity": "restaurant",
      "cuisine": "mexican",
      "opening_hours": "Mo-Su 11:00-20:00",
      "addr_state": "GA",
      "addr_city": "Woodstock",
      "addr_postcode": "30189",
      "addr_street": "Bells Ferry Road",
      "addr_housenumber": "6410",
      "value": 317.7711921280522
    },
    {
      "id": 88815,
      "geometry": "POINT (-84.271777 33.988436)",
      "poi_name": "Moon: Indian Cuisine",
      "osm_id": 8796702757,
      "amenity": "restaurant",
      "cuisine": "indian",
      "value": 317.7711921280522
    },
    {
      "id": 94978,
      "geometry": "POINT (-84.499596 34.1289)",
      "poi_name": "Samurai Dragon",
      "osm_id": 6382541870,
      "amenity": "restaurant",
      "website": "https://www.samuraidragonwoodstock.com/",
      "phone": "+1-678-445-5599",
      "addr_state": "GA",
      "addr_city": "Woodstock",
      "addr_postcode": "30188",
      "addr_street": "Old Highway 5",
      "addr_housenumber": "6242",
      "value": 317.7711921280522
    },
    {
      "id": 97590,
      "geometry": "POINT (-84.578082 34.087758)",
      "poi_name": "Tacos El Don",
      "osm_id": 6484452438,
      "amenity": "restaurant",
      "cuisine": "mexican",
      "value": 317.7711921280522
    },
    {
      "id": 97494,
      "geometry": "POINT (-84.284087 34.069634)",
      "poi_name": "Salata",
      "osm_id": 6481837240,
      "amenity": "restaurant",
      "cuisine": "salad",
      "opening_hours": "Su 11:00-17:00; Mo-Sa 11:00-21:00",
      "website": "https://www.salata.com/",
      "phone": "1 470 233 7498",
      "addr_street": "Old Milton Parkway",
      "addr_housenumber": "2560",
      "value": 317.7711921280522
    },
    {
      "id": 97591,
      "geometry": "POINT (-84.57797 34.087374)",
      "poi_name": "Wing City",
      "osm_id": 6484452439,
      "amenity": "restaurant",
      "cuisine": "chicken",
      "value": 317.7711921280522
    },
    {
      "id": 97592,
      "geometry": "POINT (-84.574546 34.088081)",
      "poi_name": "Tacos El Sabor",
      "osm_id": 6484452441,
      "amenity": "restaurant",
      "cuisine": "mexican",
      "value": 317.7711921280522
    },
    {
      "id": 100674,
      "geometry": "POINT (-84.364004 33.960378)",
      "poi_name": "Hong Kong City",
      "osm_id": 6595219310,
      "amenity": "restaurant",
      "cuisine": "chinese",
      "opening_hours": "Su 12:00-22:30, Mo-Th 11:00-22:30, Fr-Sa 11:00-23:00",
      "website": "https://www.hongkongcity-ga.com/",
      "phone": "+1-770-393-3035",
      "addr_state": "GA",
      "addr_city": "Atlanta",
      "addr_postcode": "30350",
      "addr_street": "Roswell Road",
      "addr_housenumber": "7509",
      "value": 317.7711921280522
    },
    {
      "id": 102731,
      "geometry": "POINT (-84.307465 34.037441)",
      "poi_name": "Buca di Beppo",
      "osm_id": 8454778762,
      "amenity": "restaurant",
      "cuisine": "italian",
      "phone": "+17706439463",
      "addr_state": "GA",
      "addr_city": "Alpharetta",
      "addr_postcode": "30022",
      "addr_street": "Mansell Road",
      "addr_housenumber": "1865",
      "value": 317.7711921280522
    },
    {
      "id": 101729,
      "geometry": "POINT (-84.610109 34.377118)",
      "poi_name": "Garland Mountain Grill",
      "osm_id": 6641718094,
      "amenity": "restaurant",
      "building": "yes",
      "opening_hours": "We-Sa 09:00-17:00; Su 11:00-18:00",
      "website": "http://garlandmountain.com/grill/",
      "phone": "+1 (770) 345-0303",
      "addr_state": "GA",
      "addr_city": "Waleska",
      "addr_postcode": "30183",
      "addr_street": "Garland Mountain Trail",
      "addr_housenumber": "2618",
      "value": 317.7711921280522
    },
    {
      "id": 102737,
      "geometry": "POINT (-84.382097 34.058075)",
      "poi_name": "Willy's Mexicana Grill",
      "osm_id": 8455202437,
      "amenity": "restaurant",
      "addr_state": "GA",
      "addr_city": "Roswell",
      "addr_postcode": "30075",
      "addr_street": "West Crossville Road",
      "addr_housenumber": "660",
      "value": 317.7711921280522
    },
    {
      "id": 102738,
      "geometry": "POINT (-84.381261 34.059915)",
      "poi_name": "Your Pie Pizza",
      "osm_id": 8455205706,
      "amenity": "restaurant",
      "addr_state": "GA",
      "addr_city": "Roswell",
      "addr_postcode": "30075",
      "addr_street": "West Crossville Road",
      "addr_housenumber": "625",
      "value": 317.7711921280522
    },
    {
      "id": 102741,
      "geometry": "POINT (-84.381287 34.060311)",
      "poi_name": "Marlow's Tavern",
      "osm_id": 8455214659,
      "amenity": "restaurant",
      "addr_state": "GA",
      "addr_city": "Roswell",
      "addr_postcode": "30075",
      "addr_street": "West Crossville Road",
      "addr_housenumber": "625",
      "value": 317.7711921280522
    },
    {
      "id": 102742,
      "geometry": "POINT (-84.381191 34.059793)",
      "poi_name": "El Torero Mexican",
      "osm_id": 8455240162,
      "amenity": "restaurant",
      "addr_state": "GA",
      "addr_city": "Roswell",
      "addr_postcode": "30075",
      "addr_street": "West Crossville Road",
      "addr_housenumber": "625",
      "value": 317.7711921280522
    },
    {
      "id": 103148,
      "geometry": "POINT (-84.344389 34.03447)",
      "poi_name": "I Luv Ph\u1edf",
      "osm_id": 8486619150,
      "amenity": "restaurant",
      "cuisine": "vietnamese;noodle",
      "value": 317.7711921280522
    },
    {
      "id": 104111,
      "geometry": "POINT (-84.582685 34.030156)",
      "poi_name": "Mellow Mushroom",
      "osm_id": 8547497135,
      "amenity": "restaurant",
      "cuisine": "pizza",
      "opening_hours": "Su-Th 11:00-21:00; Fr-Sa 11:00-22:00",
      "website": "https://mellowmushroom.com/location/ga-kennesaw-1133-chastain-rd-nw-30144/",
      "phone": "+1 (770) 426-9900",
      "addr_state": "GA",
      "addr_city": "Kennesaw",
      "addr_postcode": "30144",
      "addr_street": "Chastain Road",
      "addr_housenumber": "1133",
      "value": 317.7711921280522
    },
    {
      "id": 107805,
      "geometry": "POINT (-84.492608 34.013055)",
      "poi_name": "Pizza Hut",
      "osm_id": 3578675941,
      "amenity": "restaurant",
      "cuisine": "pizza",
      "opening_hours": "Su-Th 11:00-23:00; Fr-Sa 11:00-23:59",
      "phone": "+1 (770) 578-4200",
      "takeaway": "yes",
      "delivery": "yes",
      "addr_state": "GA",
      "addr_city": "Marietta",
      "addr_postcode": "30062",
      "addr_street": "East Piedmont Road Northeast",
      "addr_housenumber": "2520",
      "value": 317.7711921280522
    },
    {
      "id": 107936,
      "geometry": "POINT (-84.410534 33.965506)",
      "poi_name": "Sakura Japanese Restaurant",
      "osm_id": 3584594741,
      "amenity": "restaurant",
      "cuisine": "sushi",
      "opening_hours": "Mo-Th 11:30-14:30, 17:00-22:00; Fr 11:30-14:30, 17:00-22:30; Sa 17:00-22:30",
      "phone": "+1 (770) 565-6369",
      "addr_city": "Marietta",
      "addr_postcode": "30068",
      "addr_street": "Lower Roswell Road",
      "addr_housenumber": "4880",
      "value": 317.7711921280522
    },
    {
      "id": 126677,
      "geometry": "POINT (-84.318105 34.021121)",
      "poi_name": "JP Sushi",
      "osm_id": 7990658016,
      "amenity": "restaurant",
      "cuisine": "sushi",
      "website": "http://www.jpsushi.com/",
      "phone": "+1-770-645-2460",
      "takeaway": "yes",
      "addr_state": "GA",
      "addr_city": "Roswell",
      "addr_postcode": "30076",
      "addr_street": "Old Alabama Road",
      "addr_housenumber": "1530",
      "value": 317.7711921280522
    },
    {
      "id": 115794,
      "geometry": "POINT (-84.422502 33.979054)",
      "poi_name": "Mediterranean Grill",
      "osm_id": 8912548807,
      "amenity": "restaurant",
      "opening_hours": "Mo-Sa 11:00-21:30; Su 11:00-21:00",
      "website": "https://www.mediterraneangrill.com/",
      "phone": "+1 (678) 996-0045",
      "addr_state": "GA",
      "addr_city": "Marietta",
      "addr_postcode": "30068",
      "addr_street": "Powers Ferry Road Southeast",
      "addr_housenumber": "1255",
      "value": 317.7711921280522
    },
    {
      "id": 115795,
      "geometry": "POINT (-84.42264 33.97901)",
      "poi_name": "1255 Social",
      "osm_id": 8912548808,
      "amenity": "restaurant",
      "opening_hours": "closed",
      "website": "https://1255social.com/",
      "addr_state": "GA",
      "addr_city": "Marietta",
      "addr_postcode": "30068",
      "addr_street": "Powers Ferry Road Southeast",
      "addr_housenumber": "1255",
      "value": 317.7711921280522
    },
    {
      "id": 126266,
      "geometry": "POINT (-84.763716 34.206195)",
      "poi_name": "Cracker Barrel",
      "osm_id": 6991069739,
      "amenity": "restaurant",
      "cuisine": "american",
      "opening_hours": "Su-Th 06:00-22:00; Fr-Sa 06:00-23:00",
      "website": "https://locations.crackerbarrel.com/ga/cartersville/59/",
      "phone": "770-386-6973",
      "official_name": "Cracker Barrel Old Country Store",
      "addr_street": "Canton Highway",
      "addr_housenumber": "5361",
      "value": 317.7711921280522
    },
    {
      "id": 126623,
      "geometry": "POINT (-84.27056 34.022849)",
      "poi_name": "The Pearl Chinese & Thai",
      "osm_id": 7986482279,
      "amenity": "restaurant",
      "cuisine": "chinese;sushi;thai",
      "opening_hours": "Tu-Su 11:00-09:00; PH unknown",
      "website": "https://www.pearlchinesethai.com/",
      "phone": "+1-678-532-1788",
      "delivery": "yes",
      "value": 317.7711921280522
    },
    {
      "id": 126624,
      "geometry": "POINT (-84.270291 34.023115)",
      "poi_name": "Altobeli's Restaurant & Piano Bar",
      "osm_id": 7986482281,
      "amenity": "restaurant",
      "cuisine": "italian",
      "opening_hours": "Su-Th 16:00-21:30; Fr-Sa 16:00-22:00; PH unknown",
      "website": "https://www.altobelis2go.com",
      "phone": "+1-770-664-8055",
      "takeaway": "yes",
      "delivery": "no",
      "addr_city": "Johns Creek",
      "addr_postcode": "30022",
      "addr_street": "Old Alabama Road",
      "addr_housenumber": "3000",
      "value": 317.7711921280522
    },
    {
      "id": 108286,
      "geometry": "POINT (-84.493364 34.017231)",
      "poi_name": "Wings & Burger Haven",
      "osm_id": 3607907693,
      "amenity": "restaurant",
      "cuisine": "american",
      "opening_hours": "Mo-Sa 10:30-22:00; Su 12:00-21:00",
      "website": "http://www.wingsmarietta.com/",
      "phone": "+1 (770) 971-9915",
      "takeaway": "yes",
      "delivery": "yes",
      "addr_state": "GA",
      "addr_city": "Marietta",
      "addr_street": "Sandy Plains Road Northeast",
      "addr_housenumber": "2745",
      "value": 317.7711921280522
    },
    {
      "id": 109064,
      "geometry": "POINT (-84.495624 34.013968)",
      "poi_name": "Sprayberry Deli & Treats",
      "osm_id": 3648166151,
      "amenity": "restaurant",
      "opening_hours": "Mo-Sa 07:00-21:00; Su 08:00-17:00",
      "phone": "+1 (770) 973-4979",
      "value": 317.7711921280522
    },
    {
      "id": 114961,
      "geometry": "POINT (-84.419328 34.17558)",
      "poi_name": "Johhny's Pizza",
      "osm_id": 3903771104,
      "amenity": "restaurant",
      "cuisine": "pizza",
      "opening_hours": "11:00-22:00",
      "takeaway": "yes",
      "delivery": "no",
      "addr_state": "GA",
      "addr_city": "Canton",
      "addr_postcode": "30115",
      "addr_street": "Hickory Flat Highway",
      "addr_housenumber": "6142",
      "value": 317.7711921280522
    },
    {
      "id": 114962,
      "geometry": "POINT (-84.418559 34.174276)",
      "poi_name": "Shane's Rib Shack",
      "osm_id": 3903771105,
      "amenity": "restaurant",
      "cuisine": "barbecue",
      "opening_hours": "11:00-21:00",
      "takeaway": "yes",
      "delivery": "no",
      "addr_street": "East Cherokee Drive",
      "addr_housenumber": "2864",
      "value": 317.7711921280522
    },
    {
      "id": 114963,
      "geometry": "POINT (-84.421366 34.177085)",
      "poi_name": "Frosty Frog Creamery & Cafe",
      "osm_id": 3903771112,
      "amenity": "restaurant",
      "cuisine": "ice_cream",
      "opening_hours": "Mo-Sa 09:00-21:00; Su 11:00-15:00",
      "website": "https://www.frostyfrogcreamery.com/",
      "shop": "bakery",
      "phone": "+1 (770) 704-9333",
      "addr_state": "GA",
      "addr_city": "Canton",
      "addr_postcode": "30115",
      "addr_street": "Hickory Flat Highway",
      "addr_housenumber": "6205",
      "value": 317.7711921280522
    },
    {
      "id": 126153,
      "geometry": "POINT (-84.784216 34.170653)",
      "poi_name": "Applebee's",
      "osm_id": 6986046387,
      "amenity": "restaurant",
      "cuisine": "american",
      "opening_hours": "Su-We 11:00-00:00; Th-Sa 11:00-02:00",
      "website": "https://www.applebees.com/en/restaurants-cartersville-ga/185-cherokee-place-91007",
      "phone": "+1-770-382-2822",
      "official_name": "Applebee's Neighborhood Grill & Bar",
      "addr_street": "Cherokee Place",
      "addr_housenumber": "185",
      "value": 317.7711921280522
    },
    {
      "id": 126446,
      "geometry": "POINT (-84.482122 34.254486)",
      "poi_name": "Riverstone Corner Bistro",
      "osm_id": 7003528552,
      "amenity": "restaurant",
      "opening_hours": "Mo-Sa 11:00-22:00",
      "website": "https://www.rcbcanton.com/",
      "phone": "+1-770-704-7325",
      "addr_street": "Reinhardt College Parkway",
      "addr_housenumber": "135",
      "value": 317.7711921280522
    },
    {
      "id": 126450,
      "geometry": "POINT (-84.479262 34.250124)",
      "poi_name": "Outback Steakhouse",
      "osm_id": 7003592239,
      "amenity": "restaurant",
      "cuisine": "american;steak",
      "opening_hours": "Mo-Th 16:00-21:30; Fr-Sa 11:00-22:30; Su 11:00-21:00",
      "website": "https://www.outback.com/locations/ga/canton",
      "phone": "770-720-9702",
      "addr_street": "Reinhardt College Parkway",
      "addr_housenumber": "3",
      "value": 317.7711921280522
    },
    {
      "id": 126710,
      "geometry": "POINT (-84.327458 34.042983)",
      "poi_name": "Hibachi Express",
      "osm_id": 7993772717,
      "amenity": "restaurant",
      "cuisine": "japanese",
      "value": 317.7711921280522
    },
    {
      "id": 126615,
      "geometry": "POINT (-84.278922 34.019265)",
      "poi_name": "The Derby Pub Sports Grille",
      "osm_id": 7986482216,
      "amenity": "restaurant",
      "cuisine": "american",
      "value": 317.7711921280522
    },
    {
      "id": 126616,
      "geometry": "POINT (-84.279018 34.019743)",
      "poi_name": "Double's Pizza",
      "osm_id": 7986482222,
      "amenity": "restaurant",
      "cuisine": "pizza",
      "opening_hours": "Sa-Su 11:00-23:00; PH unknown",
      "website": "http://doublespizza.com/",
      "phone": "+1-770-642-1818",
      "takeaway": "yes",
      "delivery": "yes",
      "addr_state": "GA",
      "addr_city": "Alpharetta",
      "addr_postcode": "30022",
      "addr_street": "Nesbit Ferry Road",
      "addr_housenumber": "9850",
      "value": 317.7711921280522
    },
    {
      "id": 126617,
      "geometry": "POINT (-84.271527 34.020455)",
      "poi_name": "Charlton's Grill and Tap",
      "osm_id": 7986482231,
      "amenity": "restaurant",
      "cuisine": "american",
      "website": "http://charltonsgrillandtap.com/",
      "phone": "+1-770-442-9005",
      "takeaway": "yes",
      "delivery": "yes",
      "addr_state": "GA",
      "addr_city": "Johns Creek",
      "addr_postcode": "30022",
      "addr_street": "Old Alabama Road",
      "addr_housenumber": "3005",
      "value": 317.7711921280522
    },
    {
      "id": 126618,
      "geometry": "POINT (-84.271725 34.020433)",
      "poi_name": "Santino's",
      "osm_id": 7986482232,
      "amenity": "restaurant",
      "cuisine": "pizza",
      "opening_hours": "Mo-Fr 11:30-16:00; PH unknown",
      "website": "https://www.santinosrestaurantandpizzeria.com/",
      "phone": "+1-770-751-0300",
      "addr_state": "GA",
      "addr_city": "Johns Creek",
      "addr_postcode": "30022",
      "addr_street": "Old Alabama Road",
      "addr_housenumber": "3005",
      "value": 317.7711921280522
    },
    {
      "id": 126620,
      "geometry": "POINT (-84.272201 34.020468)",
      "poi_name": "Village Burger",
      "osm_id": 7986482237,
      "amenity": "restaurant",
      "cuisine": "burger",
      "opening_hours": "Su-Th 11:00-20:00; Fr-Sa 11:00-21:00; PH unknown",
      "website": "https://villageburger.com/Johns-Creek",
      "phone": "+1-770-676-9942",
      "addr_state": "GA",
      "addr_city": "Alpharetta",
      "addr_postcode": "30022",
      "addr_street": "Old Alabama Road",
      "addr_housenumber": "3005",
      "value": 317.7711921280522
    },
    {
      "id": 126621,
      "geometry": "POINT (-84.273395 34.020448)",
      "poi_name": "Sushi Sumo",
      "osm_id": 7986482246,
      "amenity": "restaurant",
      "cuisine": "sushi",
      "opening_hours": "Mo,We-Fr 11:00-22:00; Sa 12:00-22:00; Su 15:30-22:00; PH unknown",
      "website": "https://www.alpharettasushisumo.com/",
      "phone": "+1-770-752-8488",
      "delivery": "yes",
      "addr_state": "GA",
      "addr_city": "Alpharetta",
      "addr_postcode": "30022",
      "addr_street": "Old Alabama Road",
      "addr_housenumber": "3005",
      "value": 317.7711921280522
    },
    {
      "id": 126711,
      "geometry": "POINT (-84.343323 34.043761)",
      "poi_name": "Another Broken Egg Cafe",
      "osm_id": 7993772723,
      "amenity": "restaurant",
      "cuisine": "american;breakfast",
      "wheelchair": "yes",
      "opening_hours": "Mo-Fr 07:00-14:00; Sa-Su 07:00-15:00",
      "website": "https://www.anotherbrokenegg.com/locations/roswell-ga/",
      "internet_access": "wlan",
      "phone": "+1 678-878-2210",
      "outdoor_seating": "yes",
      "toilets": "yes",
      "addr_street": "Alpharetta Highway",
      "addr_housenumber": "10800",
      "value": 317.7711921280522
    },
    {
      "id": 127222,
      "geometry": "POINT (-84.468584 34.088092)",
      "poi_name": "Sidelines Grille",
      "osm_id": 8042517683,
      "amenity": "restaurant",
      "value": 317.7711921280522
    },
    {
      "id": 127702,
      "geometry": "POINT (-84.317277 34.021099)",
      "poi_name": "Wings 101",
      "osm_id": 8086245429,
      "amenity": "restaurant",
      "cuisine": "wings",
      "value": 317.7711921280522
    },
    {
      "id": 127223,
      "geometry": "POINT (-84.485303 34.086671)",
      "poi_name": "Pizza Hut",
      "osm_id": 8042531191,
      "amenity": "restaurant",
      "cuisine": "pizza",
      "value": 317.7711921280522
    },
    {
      "id": 127735,
      "geometry": "POINT (-84.294153 34.074529)",
      "poi_name": "Chiringa",
      "osm_id": 8089917804,
      "amenity": "restaurant",
      "cuisine": "american",
      "value": 317.7711921280522
    },
    {
      "id": 127736,
      "geometry": "POINT (-84.294158 34.074842)",
      "poi_name": "Bottwalla",
      "osm_id": 8089917805,
      "amenity": "restaurant",
      "cuisine": "indian",
      "value": 317.7711921280522
    },
    {
      "id": 128248,
      "geometry": "POINT (-84.331422 34.120079)",
      "poi_name": "The Union",
      "osm_id": 8142796209,
      "amenity": "restaurant",
      "cuisine": "american",
      "opening_hours": "Mo-Su 11:00-21:00",
      "website": "https://www.theunionrestaurant.com/",
      "addr_state": "GA",
      "addr_city": "Milton",
      "addr_postcode": "30004",
      "addr_street": "Providence Road",
      "addr_housenumber": "14275",
      "value": 317.7711921280522
    },
    {
      "id": 129567,
      "geometry": "POINT (-84.796339 34.164168)",
      "poi_name": "The Local Bar & Grill",
      "osm_id": 9830373727,
      "amenity": "restaurant",
      "opening_hours": "Mo-Th 16:00-00:30; Fr-Sa 12:00-02:00; Su 12:30-00:00",
      "phone": "+1 (678) 719-8588",
      "addr_state": "GA",
      "addr_city": "Cartersville",
      "addr_postcode": "30120",
      "addr_street": "South Erwin Street",
      "addr_housenumber": "120",
      "value": 317.7711921280522
    },
    {
      "id": 128300,
      "geometry": "POINT (-84.260665 34.096611)",
      "poi_name": "Moctezuma Mexican Grill",
      "osm_id": 8147708594,
      "amenity": "restaurant",
      "cuisine": "mexican",
      "opening_hours": "Mo-Th 11:00-21:00; Fr-Sa 11:00-22:00; Su 12:00-21:00",
      "phone": "+1 (470) 235-3819",
      "addr_state": "GA",
      "addr_city": "Alpharetta",
      "addr_postcode": "30004",
      "addr_street": "Morris Road",
      "addr_housenumber": "13020",
      "value": 317.7711921280522
    },
    {
      "id": 129487,
      "geometry": "POINT (-84.817777 34.153485)",
      "poi_name": "Neena's Pizza",
      "osm_id": 9827013922,
      "amenity": "restaurant",
      "cuisine": "pizza",
      "opening_hours": "Mo-Th 11:00-21:00; Fr-Sa 11:00-22:00; Su 12:00-21:00",
      "website": "https://www.neenasnewyorkpizza.com/",
      "phone": "+1 (770) 387-1188",
      "addr_state": "GA",
      "addr_city": "Cartersville",
      "addr_postcode": "30120",
      "addr_street": "Henderson Drive",
      "addr_housenumber": "650",
      "value": 317.7711921280522
    },
    {
      "id": 129514,
      "geometry": "POINT (-84.816616 34.153536)",
      "poi_name": "DRIFT Nutrition",
      "osm_id": 9828722507,
      "amenity": "restaurant",
      "cuisine": "american",
      "opening_hours": "Mo-Fr 06:00-18:00; Sa 08:00-16:00; Su 09:00-15:00",
      "phone": "+1 (678) 719-8428",
      "addr_state": "GA",
      "addr_city": "Cartersville",
      "addr_postcode": "30120",
      "addr_street": "Henderson Drive",
      "addr_housenumber": "650",
      "value": 317.7711921280522
    },
    {
      "id": 134309,
      "geometry": "POINT (-84.538979 34.105314)",
      "poi_name": "Cava Restaurant",
      "osm_id": 11463644196,
      "amenity": "restaurant",
      "cuisine": "american",
      "value": 317.7711921280522
    },
    {
      "id": 136989,
      "geometry": "POINT (-84.786221 34.170639)",
      "poi_name": "Tokyo Japanese Steak & Sushi",
      "osm_id": 6080246880,
      "amenity": "restaurant",
      "cuisine": "japanese",
      "phone": "(770) 387-9575",
      "addr_street": "East Church Street",
      "addr_housenumber": "402",
      "value": 317.7711921280522
    },
    {
      "id": 135442,
      "geometry": "POINT (-84.820122 34.137569)",
      "poi_name": "El Charro Mexican Grill",
      "osm_id": 11515019869,
      "amenity": "restaurant",
      "cuisine": "mexican",
      "value": 317.7711921280522
    },
    {
      "id": 136130,
      "geometry": "POINT (-84.511614 34.192179)",
      "poi_name": "Viva Mexico Mexican Restaurant",
      "osm_id": 11563750536,
      "amenity": "restaurant",
      "cuisine": "mexican",
      "description": "Mexican Restaurant, Family Restaurant, Bar and Grill, Restaurant, Mexican Cuisine, Mexican Food, Lunch, Dinner, Dine In, Take Out",
      "opening_hours": "Mo-Th 11:00-21:30, Fr-Sa 11:00-22:00, Su 11:00-21:00",
      "website": "https://vivamexicorestaurantcanton.com",
      "phone": "+1 770-720-3342",
      "addr_state": "GA",
      "addr_city": "Canton",
      "addr_postcode": "30114",
      "addr_street": "130 Prominence Point Pkwy",
      "value": 317.7711921280522
    },
    {
      "id": 139133,
      "geometry": "POINT (-84.203984 33.902918)",
      "poi_name": "El Grill Tacos y Tortas",
      "osm_id": 6184564586,
      "amenity": "restaurant",
      "value": 317.7711921280522
    },
    {
      "id": 139311,
      "geometry": "POINT (-84.283997 34.069588)",
      "poi_name": "Chuy's",
      "osm_id": 6192799860,
      "amenity": "restaurant",
      "cuisine": "tex-mex",
      "opening_hours": "Su-Th 11:00-22:00; Fr-Sa 11:00-23:00",
      "website": "https://www.chuys.com/",
      "phone": "+1 (678) 722-3580",
      "takeaway": "yes",
      "addr_state": "GA",
      "addr_city": "Alpharetta",
      "addr_postcode": "30009",
      "addr_street": "Old Milton Parkway",
      "addr_housenumber": "2560",
      "value": 317.7711921280522
    },
    {
      "id": 139312,
      "geometry": "POINT (-84.28492 34.069956)",
      "poi_name": "Burger 21",
      "osm_id": 6192799861,
      "amenity": "restaurant",
      "cuisine": "burger",
      "website": "https://www.burger21.com/",
      "phone": "+1 (678) 381-1422",
      "addr_state": "GA",
      "addr_city": "Alpharetta",
      "addr_postcode": "30009",
      "addr_street": "Old Milton Parkway",
      "addr_housenumber": "2500",
      "value": 317.7711921280522
    },
    {
      "id": 140846,
      "geometry": "POINT (-84.293941 34.075084)",
      "poi_name": "Shade Street Food + Bar",
      "osm_id": 6262733194,
      "amenity": "restaurant",
      "cuisine": "international",
      "addr_state": "GA",
      "addr_city": "Alpharetta",
      "addr_postcode": "30009",
      "addr_street": "North Broad Street",
      "addr_housenumber": "10",
      "value": 317.7711921280522
    },
    {
      "id": 140176,
      "geometry": "POINT (-84.296584 34.072013)",
      "poi_name": "Crust Pasta and Pizzeria",
      "osm_id": 6235003754,
      "amenity": "restaurant",
      "cuisine": "italian",
      "addr_state": "GA",
      "addr_city": "Alpharetta",
      "addr_postcode": "30009",
      "addr_street": "South Main Street",
      "addr_housenumber": "131",
      "value": 317.7711921280522
    },
    {
      "id": 140177,
      "geometry": "POINT (-84.522192 34.068366)",
      "poi_name": "Ray's Donuts",
      "osm_id": 6235021256,
      "amenity": "restaurant",
      "cuisine": "donut",
      "opening_hours": "Mo-Su 05:00-15:00",
      "outdoor_seating": "no",
      "addr_state": "GA",
      "addr_city": "Marietta",
      "addr_postcode": "30066",
      "addr_street": "Canton Road Northeast",
      "addr_housenumber": "4805",
      "value": 317.7711921280522
    },
    {
      "id": 152055,
      "geometry": "POINT (-84.221199 33.953859)",
      "poi_name": "Shane's Rib Shack",
      "osm_id": 4124644989,
      "amenity": "restaurant",
      "value": 317.7711921280522
    },
    {
      "id": 143238,
      "geometry": "POINT (-84.16505 33.91424)",
      "poi_name": "Ike\u2019s Cafe & Grill",
      "osm_id": 6333152285,
      "amenity": "restaurant",
      "cuisine": "african",
      "value": 317.7711921280522
    },
    {
      "id": 147775,
      "geometry": "POINT (-84.338707 33.935474)",
      "poi_name": "Chilli\u2019s",
      "osm_id": 7560940585,
      "amenity": "restaurant",
      "value": 317.7711921280522
    },
    {
      "id": 147782,
      "geometry": "POINT (-84.139928 33.894207)",
      "poi_name": "Taco N Madre",
      "osm_id": 7563082160,
      "amenity": "restaurant",
      "value": 317.7711921280522
    },
    {
      "id": 147783,
      "geometry": "POINT (-84.140182 33.894612)",
      "poi_name": "Rozana Restaurant",
      "osm_id": 7563082162,
      "amenity": "restaurant",
      "value": 317.7711921280522
    },
    {
      "id": 147784,
      "geometry": "POINT (-84.141244 33.895485)",
      "poi_name": "Chinese Wok Express",
      "osm_id": 7563190853,
      "amenity": "restaurant",
      "cuisine": "chinese",
      "value": 317.7711921280522
    },
    {
      "id": 147785,
      "geometry": "POINT (-84.142302 33.894254)",
      "poi_name": "Cafe Kinh Do",
      "osm_id": 7563190862,
      "amenity": "restaurant",
      "value": 317.7711921280522
    },
    {
      "id": 147786,
      "geometry": "POINT (-84.141968 33.894009)",
      "poi_name": "ATL Pho Vietnamese Noodle Soup & Grill",
      "osm_id": 7563190865,
      "amenity": "restaurant",
      "cuisine": "vietnamese",
      "value": 317.7711921280522
    },
    {
      "id": 147861,
      "geometry": "POINT (-84.429271 34.468962)",
      "poi_name": "I Love New York Pizza Bar",
      "osm_id": 7567476209,
      "amenity": "restaurant",
      "cuisine": "pizza",
      "opening_hours": "Tu-We 16:00-20:00; Th-Sa 16:00-22:00; Su 16:00-20:00",
      "website": "https://www.nypizzajasper.com/",
      "phone": "+1 (706) 253-3030",
      "addr_state": "GA",
      "addr_city": "Jasper",
      "addr_postcode": "30143",
      "addr_street": "Depot Street",
      "addr_housenumber": "50",
      "value": 317.7711921280522
    },
    {
      "id": 149822,
      "geometry": "POINT (-84.208027 33.908364)",
      "poi_name": "The Varsity",
      "osm_id": 4027056619,
      "amenity": "restaurant",
      "opening_hours": "Mo-Su 11:00-21:00",
      "outdoor_seating": "yes",
      "value": 317.7711921280522
    },
    {
      "id": 151178,
      "geometry": "POINT (-84.235485 33.953345)",
      "poi_name": "Happy Sumo Japanese Steak and Sushi Bar",
      "osm_id": 4085713401,
      "amenity": "restaurant",
      "value": 317.7711921280522
    },
    {
      "id": 151179,
      "geometry": "POINT (-84.235772 33.952489)",
      "poi_name": "El Torero Mexican Restaurant",
      "osm_id": 4085714296,
      "amenity": "restaurant",
      "value": 317.7711921280522
    },
    {
      "id": 151181,
      "geometry": "POINT (-84.23554 33.953203)",
      "poi_name": "Wok-n-roll Chinese Restaurant",
      "osm_id": 4085715132,
      "amenity": "restaurant",
      "value": 317.7711921280522
    },
    {
      "id": 151182,
      "geometry": "POINT (-84.236062 33.95278)",
      "poi_name": "Mellow Mushroom",
      "osm_id": 4085715221,
      "amenity": "restaurant",
      "cuisine": "pizza",
      "value": 317.7711921280522
    },
    {
      "id": 151183,
      "geometry": "POINT (-84.235605 33.95293)",
      "poi_name": "Wings 101",
      "osm_id": 4085715518,
      "amenity": "restaurant",
      "value": 317.7711921280522
    },
    {
      "id": 155280,
      "geometry": "POINT (-84.212807 33.98651)",
      "poi_name": "Ten Bistro",
      "osm_id": 4279113789,
      "amenity": "restaurant",
      "value": 317.7711921280522
    },
    {
      "id": 157331,
      "geometry": "POINT (-84.600996 34.048978)",
      "poi_name": "Barbeque Street",
      "osm_id": 4702857730,
      "amenity": "restaurant",
      "cuisine": "barbecue",
      "website": "http://www.bbqstreet.com/",
      "phone": "+1 (770) 419-2626",
      "addr_state": "GA",
      "addr_city": "Kennesaw",
      "addr_postcode": "30144",
      "addr_street": "Cherokee Street Northwest",
      "addr_housenumber": "3895",
      "value": 317.7711921280522
    },
    {
      "id": 155424,
      "geometry": "POINT (-84.277477 34.092064)",
      "poi_name": "Connors Steak & Seafood",
      "osm_id": 4285562922,
      "amenity": "restaurant",
      "value": 317.7711921280522
    },
    {
      "id": 155425,
      "geometry": "POINT (-84.272706 34.089088)",
      "poi_name": "Ichibahn Steak House",
      "osm_id": 4285562923,
      "amenity": "restaurant",
      "cuisine": "sushi;hibachi",
      "value": 317.7711921280522
    },
    {
      "id": 155426,
      "geometry": "POINT (-84.272019 34.089543)",
      "poi_name": "Nahm Thai",
      "osm_id": 4285562924,
      "amenity": "restaurant",
      "cuisine": "thai",
      "value": 317.7711921280522
    },
    {
      "id": 157255,
      "geometry": "POINT (-84.214678 33.980665)",
      "poi_name": "CAVA",
      "osm_id": 4696251026,
      "amenity": "restaurant",
      "cuisine": "mediterranean",
      "opening_hours": "Mo-Su 10:45-22:00",
      "website": "https://cava.com/",
      "addr_state": "GA",
      "addr_city": "Peachtree Corners",
      "addr_postcode": "30092",
      "addr_street": "Peachtree Parkway Northwest",
      "addr_housenumber": "5150",
      "value": 317.7711921280522
    },
    {
      "id": 166030,
      "geometry": "POINT (-84.419724 33.977995)",
      "poi_name": "Mellow Mushroom",
      "osm_id": 9571665586,
      "amenity": "restaurant",
      "cuisine": "pizza",
      "opening_hours": "Mo-Th 11:00-21:00; Fr-Sa 11:00-21:30; Su 11:00-21:00",
      "website": "https://mellowmushroom.com/location/ga-marietta-1205-johnson-ferry-road-30068/",
      "phone": "+1 (770) 809-0844",
      "addr_state": "GA",
      "addr_city": "Marietta",
      "addr_postcode": "30068",
      "addr_street": "Johnson Ferry Road Northeast",
      "addr_housenumber": "1205",
      "value": 317.7711921280522
    },
    {
      "id": 164214,
      "geometry": "POINT (-84.351316 33.981053)",
      "poi_name": "Pizza Hut",
      "osm_id": 9456211885,
      "amenity": "restaurant",
      "cuisine": "pizza",
      "value": 317.7711921280522
    },
    {
      "id": 166031,
      "geometry": "POINT (-84.419023 33.976966)",
      "poi_name": "J. Christopher's",
      "osm_id": 9571668703,
      "amenity": "restaurant",
      "cuisine": "breakfast",
      "opening_hours": "Mo-Su 07:00-14:00",
      "website": "https://jchristophers.com/locations/east-cobb/",
      "phone": "+1 (770) 579-6800",
      "addr_state": "GA",
      "addr_city": "Marietta",
      "addr_postcode": "30068",
      "addr_street": "Johnson Ferry Road Northeast",
      "addr_housenumber": "1205",
      "value": 317.7711921280522
    },
    {
      "id": 166032,
      "geometry": "POINT (-84.418216 33.97671)",
      "poi_name": "My Friend's Place",
      "osm_id": 9571670244,
      "amenity": "restaurant",
      "opening_hours": "Mo-Fr 10:00-15:00; Sa 11:00-15:00",
      "website": "https://myfriendsplacedeli.com/",
      "phone": "+1 (770) 971-0124",
      "addr_state": "GA",
      "addr_city": "Marietta",
      "addr_postcode": "30068",
      "addr_street": "Johnson Ferry Road Northeast",
      "addr_housenumber": "1205",
      "value": 317.7711921280522
    },
    {
      "id": 166150,
      "geometry": "POINT (-84.428337 33.979689)",
      "poi_name": "Seed Kitchen & Bar",
      "osm_id": 9576903559,
      "amenity": "restaurant",
      "opening_hours": "Tu-Th 11:30-14:30, 17:00-21:00; Fr-Sa 11:30-14:30, 17:00-22:00; Su 11:00-15:00, 17:00-21:00",
      "website": "https://www.eatatseed.com/",
      "phone": "+1 (678) 214-6888",
      "addr_state": "GA",
      "addr_city": "Marietta",
      "addr_postcode": "30068",
      "addr_street": "Johnson Ferry Road Northeast",
      "addr_housenumber": "1311",
      "value": 317.7711921280522
    },
    {
      "id": 173467,
      "geometry": "POINT (-84.208497 33.898585)",
      "poi_name": "Thai Restaurant of Norcross",
      "osm_id": 2440633485,
      "amenity": "restaurant",
      "cuisine": "thai",
      "value": 317.7711921280522
    },
    {
      "id": 172609,
      "geometry": "POINT (-84.549641 34.179891)",
      "poi_name": "LasPalmas",
      "osm_id": 2408221130,
      "amenity": "restaurant",
      "cuisine": "mexican",
      "value": 317.7711921280522
    },
    {
      "id": 179245,
      "geometry": "POINT (-84.528768 34.026607)",
      "poi_name": "Frankie's Italian Ristorante & Pizzeria",
      "osm_id": 10754708527,
      "amenity": "restaurant",
      "wheelchair": "yes",
      "opening_hours": "Mo-Th 11:00-20:30; Fr-Sa 11:00-21:00; Su 12:00-20:30",
      "website": "https://frankiesitalianga.com/",
      "phone": "tel:%20770-419-8931",
      "addr_street": "Canton Road",
      "addr_housenumber": "3085",
      "value": 317.7711921280522
    },
    {
      "id": 174140,
      "geometry": "POINT (-84.213111 33.941666)",
      "poi_name": "Mojito's",
      "osm_id": 2466664693,
      "amenity": "restaurant",
      "cuisine": "caribbean",
      "value": 317.7711921280522
    },
    {
      "id": 174141,
      "geometry": "POINT (-84.21289 33.942504)",
      "poi_name": "Zapata's",
      "osm_id": 2466664698,
      "amenity": "restaurant",
      "cuisine": "mexican",
      "value": 317.7711921280522
    },
    {
      "id": 178888,
      "geometry": "POINT (-84.492258 34.011969)",
      "poi_name": "Zama Mexican Cuisine and Margarita Bar",
      "osm_id": 10742570565,
      "amenity": "restaurant",
      "opening_hours": "Mo-Su 11:00-22:30",
      "value": 317.7711921280522
    },
    {
      "id": 178904,
      "geometry": "POINT (-84.528227 34.023246)",
      "poi_name": "Smitty's Lockdown BBQ & Grill",
      "osm_id": 10742638936,
      "amenity": "restaurant",
      "cuisine": "barbecue",
      "wheelchair": "yes",
      "opening_hours": "Tu-Sa 11:00-21:00; Su 12:00-20:00; Mo off",
      "website": "https://lockdownbbq.com/",
      "phone": "+1 678-813-5227",
      "addr_street": "Canton Road",
      "addr_housenumber": "2900",
      "value": 317.7711921280522
    },
    {
      "id": 178482,
      "geometry": "POINT (-84.463698 34.037716)",
      "poi_name": "Paradise South of the Border",
      "osm_id": 10728295846,
      "amenity": "restaurant",
      "wheelchair": "yes",
      "opening_hours": "Mo-Su 11:00-22:00",
      "website": "https://www.paradisegrille.net",
      "internet_access": "wlan",
      "phone": "+1 770-790-5475",
      "addr_street": "Sandy Plains Road",
      "addr_housenumber": "3605",
      "value": 317.7711921280522
    },
    {
      "id": 178483,
      "geometry": "POINT (-84.463342 34.037778)",
      "poi_name": "Paradise Grille",
      "osm_id": 10728295847,
      "amenity": "restaurant",
      "opening_hours": "Mo-Su 11:00-22:00",
      "website": "https://www.paradisegrille.net/",
      "phone": "+1 770-579-6226",
      "addr_street": "Sandy Plains Road",
      "addr_housenumber": "3605",
      "value": 317.7711921280522
    },
    {
      "id": 179258,
      "geometry": "POINT (-84.527958 34.026904)",
      "poi_name": "Johnboy's Country Buffet",
      "osm_id": 10754920922,
      "amenity": "restaurant",
      "wheelchair": "yes",
      "opening_hours": "Mo-Sa 11:00-21:00; Su 11:00-20:00",
      "phone": "+1 770-422-6747",
      "addr_street": "Canton Road",
      "addr_housenumber": "3050",
      "value": 317.7711921280522
    },
    {
      "id": 180649,
      "geometry": "POINT (-84.677191 34.065756)",
      "poi_name": "Fusco\u2019s via Roma Italian Trattoria",
      "osm_id": 10812998907,
      "amenity": "restaurant",
      "cuisine": "italian",
      "addr_state": "GA",
      "addr_city": "Acworth",
      "addr_postcode": "30101",
      "addr_street": "South Main Street",
      "addr_housenumber": "4851A",
      "value": 317.7711921280522
    },
    {
      "id": 179943,
      "geometry": "POINT (-84.528647 34.017872)",
      "poi_name": "El Rodeo Mexican Restaurant",
      "osm_id": 10783300634,
      "amenity": "restaurant",
      "cuisine": "mexican",
      "wheelchair": "yes",
      "opening_hours": "Mo-Th 11:00-20:00; Fr,Sa 11:00-21:00; Su off",
      "phone": "+1 770-429-1072",
      "value": 317.7711921280522
    },
    {
      "id": 179462,
      "geometry": "POINT (-84.209742 33.939568)",
      "poi_name": "Michoacan",
      "osm_id": 10764304943,
      "amenity": "restaurant",
      "cuisine": "mexican",
      "opening_hours": "Mo-Su 08:30-21:30",
      "value": 317.7711921280522
    },
    {
      "id": 179469,
      "geometry": "POINT (-84.255861 33.966412)",
      "poi_name": "Clean Eatz",
      "osm_id": 10764550110,
      "amenity": "restaurant",
      "website": "https://locations.cleaneatz.com/ga/norcross/meal-prep-61.html",
      "value": 317.7711921280522
    },
    {
      "id": 180431,
      "geometry": "POINT (-84.529767 34.039502)",
      "poi_name": "Brewster's Neighborhood Grille",
      "osm_id": 10800853614,
      "amenity": "restaurant",
      "cuisine": "american",
      "opening_hours": "Mo-Sa 11:00-02:00, Su 11:00-24:00",
      "website": "https://www.brewstersgrille.com/",
      "phone": "+1 770-591-1291",
      "takeaway": "yes",
      "outdoor_seating": "no",
      "addr_street": "Canton Road",
      "addr_housenumber": "3595",
      "value": 317.7711921280522
    },
    {
      "id": 180432,
      "geometry": "POINT (-84.529663 34.039512)",
      "poi_name": "Mr. Wonton Chinese Food",
      "osm_id": 10800853615,
      "amenity": "restaurant",
      "cuisine": "chinese",
      "opening_hours": "Su-Th 11:00-21:30; Fr,Sa 11:00-22:00",
      "website": "https://www.mrwontononline.com/",
      "phone": "+1 770-591-4288",
      "addr_street": "Canton Road",
      "addr_housenumber": "3595",
      "value": 317.7711921280522
    },
    {
      "id": 180650,
      "geometry": "POINT (-84.677277 34.065731)",
      "poi_name": "Pizza By Fuscos",
      "osm_id": 10812998908,
      "amenity": "restaurant",
      "cuisine": "pizza",
      "addr_state": "GA",
      "addr_city": "Acworth",
      "addr_postcode": "30101",
      "addr_street": "South Main Street",
      "addr_housenumber": "4815",
      "value": 317.7711921280522
    },
    {
      "id": 180652,
      "geometry": "POINT (-84.677402 34.0658)",
      "poi_name": "Miss L's Sandwich Shop",
      "osm_id": 10812998911,
      "amenity": "restaurant",
      "addr_state": "GA",
      "addr_city": "Acworth",
      "addr_postcode": "30101",
      "addr_street": "South Main Street",
      "addr_housenumber": "4817",
      "value": 317.7711921280522
    },
    {
      "id": 180752,
      "geometry": "POINT (-84.528423 34.030098)",
      "poi_name": "Jimmy Mac's",
      "osm_id": 10816569149,
      "amenity": "restaurant",
      "wheelchair": "yes",
      "opening_hours": "Mo-Fr 11:30-02:00, Sa 11:30-03:00, Su 00:30-02:00",
      "internet_access": "wlan",
      "phone": "+1 770-794-9700",
      "outdoor_seating": "no",
      "addr_street": "Canton Road",
      "addr_housenumber": "3206",
      "value": 317.7711921280522
    },
    {
      "id": 180653,
      "geometry": "POINT (-84.678039 34.066153)",
      "poi_name": "The Fountain",
      "osm_id": 10812998914,
      "amenity": "restaurant",
      "addr_state": "GA",
      "addr_city": "Acworth",
      "addr_postcode": "30101",
      "addr_street": "North Main Street",
      "addr_housenumber": "4843",
      "value": 317.7711921280522
    },
    {
      "id": 181644,
      "geometry": "POINT (-84.302876 34.041456)",
      "poi_name": "Jason's Deli",
      "osm_id": 10858555298,
      "amenity": "restaurant",
      "cuisine": "sandwich",
      "value": 317.7711921280522
    },
    {
      "id": 180777,
      "geometry": "POINT (-84.52867 34.03767)",
      "poi_name": "Shangrila Bistro",
      "osm_id": 10817141960,
      "amenity": "restaurant",
      "cuisine": "chinese",
      "wheelchair": "yes",
      "opening_hours": "Mo-Th 11:00-22:00; Fr,Sa 11:00-22:30; Su 11:30-22:00",
      "phone": "+1 678-388-7878",
      "addr_street": "Canton Road",
      "addr_housenumber": "3545",
      "value": 317.7711921280522
    },
    {
      "id": 180837,
      "geometry": "POINT (-84.527456 34.023156)",
      "poi_name": "Johnny's Pizza",
      "osm_id": 10820722314,
      "amenity": "restaurant",
      "cuisine": "pizza",
      "wheelchair": "yes",
      "opening_hours": "Mo-Th 11:00-20:00; Fr 11:00-22:00; Sa-Su 12:00-21:00",
      "website": "https://johnnyspizza.com/location/marietta-canton-rd/",
      "phone": "+1 678-797-0505",
      "takeaway": "yes",
      "outdoor_seating": "no",
      "delivery": "yes",
      "addr_street": "Canton Road",
      "addr_housenumber": "2392",
      "value": 317.7711921280522
    },
    {
      "id": 180819,
      "geometry": "POINT (-84.460252 34.036355)",
      "poi_name": "WZ Tavern",
      "osm_id": 10820288627,
      "amenity": "restaurant",
      "cuisine": "american",
      "wheelchair": "yes",
      "opening_hours": "Mo-Th 11:00-20:00; Fr-Sa 11:00-21:00; Su 12:00-20:00",
      "website": "https://wztavern.com/",
      "phone": "+1 770-977-3712",
      "addr_street": "Shallowford Road Northeast",
      "addr_housenumber": "3052",
      "value": 317.7711921280522
    },
    {
      "id": 183387,
      "geometry": "POINT (-84.41114 33.966762)",
      "poi_name": "101 Bagel Cafe",
      "osm_id": 10926986606,
      "amenity": "restaurant",
      "value": 317.7711921280522
    },
    {
      "id": 184550,
      "geometry": "POINT (-84.295544 34.00515)",
      "poi_name": "Monterrey Mexican Restaurant",
      "osm_id": 7798636318,
      "amenity": "restaurant",
      "cuisine": "mexican",
      "wheelchair": "yes",
      "opening_hours": "Mo-Su,PH 11:00-22:00",
      "phone": "+1-770-650-0430",
      "addr_state": "GA",
      "addr_city": "Roswell",
      "addr_postcode": "30076",
      "addr_street": "Holcomb Bridge Road",
      "addr_housenumber": "2300",
      "value": 317.7711921280522
    },
    {
      "id": 184349,
      "geometry": "POINT (-84.293822 34.004007)",
      "poi_name": "Pizza Hut",
      "osm_id": 7784004654,
      "amenity": "restaurant",
      "cuisine": "pizza",
      "addr_state": "GA",
      "addr_city": "Roswell",
      "addr_postcode": "30076",
      "addr_street": "Holcomb Bridge Road",
      "addr_housenumber": "2300",
      "value": 317.7711921280522
    },
    {
      "id": 184551,
      "geometry": "POINT (-84.293808 34.004914)",
      "poi_name": "Asian Kitchen",
      "osm_id": 7798636323,
      "amenity": "restaurant",
      "cuisine": "asian",
      "opening_hours": "Mo-Sa 11:30-21:30; PH unknown",
      "website": "https://www.asiankitchenroswell.com",
      "phone": "+1-770-587-5680",
      "takeaway": "yes",
      "outdoor_seating": "no",
      "delivery": "yes",
      "addr_state": "GA",
      "addr_city": "Roswell",
      "addr_postcode": "30076",
      "addr_street": "Holcomb Bridge Road",
      "addr_housenumber": "2300",
      "value": 317.7711921280522
    },
    {
      "id": 184465,
      "geometry": "POINT (-84.290338 33.984325)",
      "poi_name": "Grand Stand Tavern",
      "osm_id": 7792850740,
      "amenity": "restaurant",
      "cuisine": "american;steak;fish",
      "opening_hours": "We-Sa 11:00-15:00 open \"Lunch and Pizza/Bar Menu\" || Fr-Sa 17:00-21:00 open \"Dinner and Pizza/Bar Menu\" || Fr-Sa 11:00-21:00, Su 11:00-20:00 open \"Pizza/Bar Menu\"; PH off",
      "website": "https://www.horseshoebendcc.com/club-menus",
      "phone": "+1-770-992-2310",
      "addr_state": "GA",
      "addr_city": "Roswell",
      "addr_postcode": "30076",
      "addr_street": "Steeplechase Lane",
      "addr_housenumber": "2100",
      "value": 317.7711921280522
    },
    {
      "id": 184870,
      "geometry": "POINT (-84.312778 34.019768)",
      "poi_name": "From the Earth Brewing",
      "osm_id": 7818544720,
      "amenity": "restaurant",
      "cuisine": "american",
      "value": 317.7711921280522
    },
    {
      "id": 184475,
      "geometry": "POINT (-84.290356 33.984235)",
      "poi_name": "Far Turn",
      "osm_id": 7792960575,
      "amenity": "restaurant",
      "cuisine": "american;snack",
      "opening_hours": "10:00-6:00; Mo,PH off",
      "value": 317.7711921280522
    },
    {
      "id": 184476,
      "geometry": "POINT (-84.278534 33.991245)",
      "poi_name": "Waffle House",
      "osm_id": 7793061602,
      "amenity": "restaurant",
      "cuisine": "american",
      "opening_hours": "24/7",
      "addr_state": "GA",
      "addr_city": "Alpharetta",
      "addr_postcode": "30022",
      "addr_street": "Holcomb Bridge Road",
      "addr_housenumber": "2850",
      "value": 317.7711921280522
    },
    {
      "id": 185092,
      "geometry": "POINT (-84.309654 34.016418)",
      "poi_name": "Four Seasons Wings",
      "osm_id": 7832887060,
      "amenity": "restaurant",
      "cuisine": "wings",
      "opening_hours": "Tu-Sa 11:00-19:30; Su 12:00-19:30; PH unknown",
      "website": "https://www.4seasonwingsro.com",
      "phone": "+1-678-534-5018",
      "takeaway": "yes",
      "addr_state": "GA",
      "addr_city": "Roswell",
      "addr_postcode": "30076",
      "addr_street": "Holcomb Bridge Road",
      "addr_housenumber": "1580",
      "value": 317.7711921280522
    },
    {
      "id": 186259,
      "geometry": "POINT (-84.452478 34.08181)",
      "poi_name": "Peace, Love, and Pizza",
      "osm_id": 7923866949,
      "amenity": "restaurant",
      "cuisine": "pizza",
      "value": 317.7711921280522
    },
    {
      "id": 185216,
      "geometry": "POINT (-84.274028 33.987414)",
      "poi_name": "di Paolo",
      "osm_id": 7838424648,
      "amenity": "restaurant",
      "cuisine": "italian",
      "opening_hours": "Tu-Th 17:30-21:00; Fr-Sa 17:30-22:00; Su 17:30-21:00",
      "website": "https://www.dipaolorestaurant.com/",
      "phone": "+1-770-587-1051",
      "addr_state": "GA",
      "addr_city": "Roswell",
      "addr_postcode": "30075",
      "addr_street": "Holcomb Bridge Road",
      "addr_housenumber": "8560",
      "value": 317.7711921280522
    },
    {
      "id": 185494,
      "geometry": "POINT (-84.34209 34.033307)",
      "poi_name": "Pizza Hut",
      "osm_id": 7859421376,
      "amenity": "restaurant",
      "cuisine": "pizza",
      "addr_state": "GA",
      "addr_city": "Roswell",
      "addr_postcode": "30076",
      "addr_street": "Holcomb Bridge Road",
      "addr_housenumber": "663",
      "value": 317.7711921280522
    },
    {
      "id": 185499,
      "geometry": "POINT (-84.329175 34.022621)",
      "poi_name": "La Parranda Taqueria Bar & Grill",
      "osm_id": 7859459987,
      "amenity": "restaurant",
      "cuisine": "mexican",
      "opening_hours": "Mo-Su 09:00-03:00; PH open",
      "phone": "+1-770-864-9036",
      "addr_state": "GA",
      "addr_city": "Roswell",
      "addr_postcode": "30076",
      "addr_street": "Holcomb Bridge Road",
      "addr_housenumber": "1085",
      "value": 317.7711921280522
    },
    {
      "id": 185884,
      "geometry": "POINT (-84.224852 34.051264)",
      "poi_name": "Tadka",
      "osm_id": 7888800770,
      "amenity": "restaurant",
      "cuisine": "indian",
      "opening_hours": "Mo-Th 11:30-14:30,17:30-22:00; Fr 11:30-14:30,17:30-23:00; Sa 12:00-15:30,17:30-23:00; Su 12:00-15:30,17:30-22:00; PH unknown",
      "website": "http://www.tadkarestaurant.com",
      "phone": "+1-770-622-1445",
      "addr_city": "Johns Creek",
      "addr_postcode": "30022",
      "addr_street": "State Bridge Road",
      "addr_housenumber": "11105",
      "value": 317.7711921280522
    },
    {
      "id": 185540,
      "geometry": "POINT (-84.286797 34.022608)",
      "poi_name": "Bambinelli's",
      "osm_id": 7863181090,
      "amenity": "restaurant",
      "cuisine": "italian",
      "value": 317.7711921280522
    },
    {
      "id": 186261,
      "geometry": "POINT (-84.377837 34.055126)",
      "poi_name": "Johnny's Pizza",
      "osm_id": 7923866956,
      "amenity": "restaurant",
      "cuisine": "pizza",
      "value": 317.7711921280522
    },
    {
      "id": 186263,
      "geometry": "POINT (-84.422691 34.064973)",
      "poi_name": "Aroma Indian Bistro",
      "osm_id": 7923866958,
      "amenity": "restaurant",
      "cuisine": "indian",
      "addr_state": "GA",
      "addr_city": "Roswell",
      "addr_street": "Alabama Road",
      "addr_housenumber": "4750",
      "value": 317.7711921280522
    },
    {
      "id": 186264,
      "geometry": "POINT (-84.520687 34.086762)",
      "poi_name": "Gondolier Pizza",
      "osm_id": 7923866961,
      "amenity": "restaurant",
      "cuisine": "pizza",
      "value": 317.7711921280522
    },
    {
      "id": 188092,
      "geometry": "POINT (-84.194632 33.88455)",
      "poi_name": "Taj Mahal Restaurant",
      "osm_id": 1127281443,
      "amenity": "restaurant",
      "value": 317.7711921280522
    },
    {
      "id": 186801,
      "geometry": "POINT (-84.27529 33.991315)",
      "poi_name": "China Heaven",
      "osm_id": 7946461395,
      "amenity": "restaurant",
      "cuisine": "chinese",
      "value": 317.7711921280522
    },
    {
      "id": 186802,
      "geometry": "POINT (-84.270713 33.985291)",
      "poi_name": "Sushi Uchi",
      "osm_id": 7946461396,
      "amenity": "restaurant",
      "cuisine": "sushi",
      "value": 317.7711921280522
    },
    {
      "id": 186803,
      "geometry": "POINT (-84.274303 33.990011)",
      "poi_name": "Jamaican Deli",
      "osm_id": 7946461397,
      "amenity": "restaurant",
      "cuisine": "caribbean",
      "opening_hours": "Mo-Fr 12:00-17:00",
      "website": "https://jamaicandeli.com/",
      "phone": "+1-678-353-6130",
      "addr_state": "GA",
      "addr_city": "Roswell",
      "addr_postcode": "30076",
      "addr_street": "Holcomb Bridge Road",
      "addr_housenumber": "2880",
      "value": 317.7711921280522
    },
    {
      "id": 187113,
      "geometry": "POINT (-84.26799 34.022332)",
      "poi_name": "Reveille",
      "osm_id": 7973156729,
      "amenity": "restaurant",
      "cuisine": "american;breakfast",
      "opening_hours": "Mo-Su 07:00-14:00; PH unkown",
      "website": "https://reveillecafe.com/locations/haynes-bridge/",
      "phone": "+1-770-360-0970",
      "addr_city": "Alpharetta",
      "addr_postcode": "30022",
      "addr_street": "Haynes Bridge Road",
      "addr_housenumber": "9925",
      "value": 317.7711921280522
    },
    {
      "id": 186815,
      "geometry": "POINT (-84.27086 33.988049)",
      "poi_name": "taste... a seasonal bistro",
      "osm_id": 7947152351,
      "amenity": "restaurant",
      "cuisine": "american",
      "opening_hours": "Mo-Fr 11:00-18:00; PH unknown",
      "website": "https://www.taste-bistro.com/",
      "phone": "+1-770-284-0805",
      "addr_state": "GA",
      "addr_city": "Alpharetta",
      "addr_postcode": "30022",
      "addr_street": "Holcomb Bridge Road",
      "addr_housenumber": "8465",
      "value": 317.7711921280522
    },
    {
      "id": 186817,
      "geometry": "POINT (-84.269834 33.987664)",
      "poi_name": "Yummy Top",
      "osm_id": 7947152360,
      "amenity": "restaurant",
      "cuisine": "chinese",
      "addr_state": "GA",
      "addr_city": "Alpharetta",
      "addr_postcode": "30022",
      "addr_street": "Holcomb Bridge Road",
      "addr_housenumber": "8465",
      "value": 317.7711921280522
    },
    {
      "id": 186961,
      "geometry": "POINT (-84.278616 34.018896)",
      "poi_name": "Mojito Caf\u00e9",
      "osm_id": 7961169121,
      "amenity": "restaurant",
      "cuisine": "latin_american;cuban",
      "opening_hours": "Mo-Th 11:00-09:00; Fr-Sa 11:00-22:00; Su closed; PH unknown",
      "website": "https://www.mojitocafetogo.com/",
      "phone": "+1-770-642-7147",
      "addr_state": "GA",
      "addr_city": "Johns Creek",
      "addr_postcode": "30022",
      "addr_street": "Nesbit Ferry Road",
      "addr_housenumber": "9850",
      "value": 317.7711921280522
    },
    {
      "id": 187061,
      "geometry": "POINT (-84.309753 34.016493)",
      "poi_name": "Happiness Chinese Cuisine",
      "osm_id": 7968552819,
      "amenity": "restaurant",
      "cuisine": "chinese",
      "value": 317.7711921280522
    },
    {
      "id": 187496,
      "geometry": "POINT (-84.20774 33.913128)",
      "poi_name": "Cracker Barrel",
      "osm_id": 1073430378,
      "amenity": "restaurant",
      "cuisine": "american",
      "official_name": "Cracker Barrel Old Country Store",
      "value": 317.7711921280522
    },
    {
      "id": 190386,
      "geometry": "POINT (-84.426033 33.983804)",
      "poi_name": "Willy's Mexicana Grill",
      "osm_id": 1291644955,
      "amenity": "restaurant",
      "cuisine": "mexican",
      "opening_hours": "Mo-Su 11:00-22:00",
      "website": "http://www.willys.com/",
      "phone": "+1 (770) 973-1726",
      "addr_state": "GA",
      "addr_city": "Marietta",
      "addr_postcode": "30062",
      "addr_street": "Roswell Road",
      "addr_housenumber": "4250",
      "value": 317.7711921280522
    },
    {
      "id": 189158,
      "geometry": "POINT (-84.411167 33.964269)",
      "poi_name": "Ted's Montana Grill",
      "osm_id": 1216819691,
      "amenity": "restaurant",
      "cuisine": "american",
      "opening_hours": "Su-Th 11:00-22:00; Fr-Sa 11:00-23:00",
      "website": "https://www.tedsmontanagrill.com/tmg042.html",
      "phone": "+1 (770) 578-8337",
      "addr_state": "GA",
      "addr_city": "Marietta",
      "addr_postcode": "30068",
      "addr_street": "Johnson Ferry Road Northeast",
      "addr_housenumber": "640",
      "value": 317.7711921280522
    },
    {
      "id": 189178,
      "geometry": "POINT (-84.412269 33.96821)",
      "poi_name": "Mellow Mushroom",
      "osm_id": 1216944062,
      "amenity": "restaurant",
      "cuisine": "pizza",
      "opening_hours": "Mo-Th 11:00-22:00; Fr 11:00-23:00; Sa 11:00-22:00; Su 11:30-22:00",
      "website": "https://mellowmushroom.com/store/olde-towne",
      "phone": "+1 (770) 579-3500",
      "addr_state": "GA",
      "addr_city": "Marietta",
      "addr_postcode": "30068",
      "addr_street": "Johnson Ferry Road Northeast",
      "addr_housenumber": "736",
      "value": 317.7711921280522
    },
    {
      "id": 202305,
      "geometry": "POINT (-84.781174 34.173607)",
      "poi_name": "Kobe Steak and Sushi",
      "osm_id": 7020554794,
      "amenity": "restaurant",
      "cuisine": "japanese;sushi",
      "opening_hours": "Mo-Th 11:00-14:00,16:30-22:00; Fr 11:00-14:00,16:30-22:30; Sa 12:00-22:30; Su 12:00-22:00",
      "website": "https://kobecartersville.com/",
      "phone": "+1-470-888-2969",
      "addr_street": "Cherokee Place",
      "addr_housenumber": "465",
      "value": 317.7711921280522
    },
    {
      "id": 194454,
      "geometry": "POINT (-84.610456 34.047754)",
      "poi_name": "Jet's Pizza",
      "osm_id": 10274129834,
      "amenity": "restaurant",
      "cuisine": "pizza",
      "value": 317.7711921280522
    },
    {
      "id": 197319,
      "geometry": "POINT (-84.330009 34.04215)",
      "poi_name": "Persian Kabob World",
      "osm_id": 10633773428,
      "amenity": "restaurant",
      "opening_hours": "Mo-Th 11:00-19:30; Fr 11:00-20:30; Sa 12:00-20:30",
      "phone": "+1 770-696-2115",
      "outdoor_seating": "no",
      "addr_street": "Mansell Road",
      "addr_housenumber": "1055",
      "value": 317.7711921280522
    },
    {
      "id": 196208,
      "geometry": "POINT (-84.424029 34.062941)",
      "poi_name": "El Jinete Mexican Restaurant",
      "osm_id": 10568700981,
      "amenity": "restaurant",
      "cuisine": "mexican",
      "website": "https://www.eljinetemexicanrestaurant.com/",
      "phone": "770-650-0850",
      "addr_state": "GA",
      "addr_city": "Roswell",
      "addr_postcode": "30075",
      "addr_street": "Woodstock Road",
      "addr_housenumber": "4681",
      "value": 317.7711921280522
    },
    {
      "id": 202537,
      "geometry": "POINT (-84.778623 34.175107)",
      "poi_name": "Shane's Rib Shack",
      "osm_id": 7034882877,
      "amenity": "restaurant",
      "cuisine": "barbecue",
      "opening_hours": "Mo-Sa 11:00-21:00; Su 11:00-20:00",
      "website": "https://www.shanesribshack.com/locations/cartersville-ga/",
      "phone": "+1-770-607-0033",
      "addr_street": "East Main Street",
      "addr_housenumber": "644",
      "value": 317.7711921280522
    },
    {
      "id": 202427,
      "geometry": "POINT (-84.785445 34.168218)",
      "poi_name": "LongHorn Steakhouse",
      "osm_id": 7024296812,
      "amenity": "restaurant",
      "cuisine": "steak_house",
      "opening_hours": "Su-Th 11:00-22:00; Fr-Sa 11:00-23:00",
      "website": "https://www.longhornsteakhouse.com/locations/ga/cartersville/cartersville/5093",
      "phone": "+1-770-607-0280",
      "addr_street": "East Main Street",
      "addr_housenumber": "463",
      "value": 317.7711921280522
    },
    {
      "id": 202428,
      "geometry": "POINT (-84.788068 34.165861)",
      "poi_name": "Ming Moon",
      "osm_id": 7024303211,
      "amenity": "restaurant",
      "cuisine": "chinese",
      "opening_hours": "Su,Mo,We,Th 11:00-22:00; Fr-Sa 11:00-22:30",
      "website": "https://mingmooncg.com/",
      "phone": "+1-770-383-3388",
      "addr_street": "South Morningside Drive",
      "addr_housenumber": "32",
      "value": 317.7711921280522
    },
    {
      "id": 202429,
      "geometry": "POINT (-84.787989 34.166102)",
      "poi_name": "Gondolier Italian Restaurant and Pizza",
      "osm_id": 7024317210,
      "amenity": "restaurant",
      "cuisine": "pizza",
      "website": "https://gondolierpizza.com/gondolier-pizza-locations/",
      "phone": "+1-770-386-2200",
      "addr_street": "East Main Street",
      "addr_housenumber": "407",
      "value": 317.7711921280522
    },
    {
      "id": 213181,
      "geometry": "POINT (-84.376428 34.338272)",
      "poi_name": "Ball Ground Burger Bus",
      "osm_id": 5239778331,
      "amenity": "restaurant",
      "cuisine": "burger",
      "opening_hours": "Mo-Th 11:00-19:00; Fr-Sa 11:00-20:00; Su 11:00-18:00",
      "phone": "+1 (678) 454-2422",
      "addr_state": "GA",
      "addr_city": "Ball Ground",
      "addr_postcode": "30107",
      "addr_street": "Gilmer Ferry Road",
      "addr_housenumber": "288",
      "value": 317.7711921280522
    },
    {
      "id": 212939,
      "geometry": "POINT (-84.377036 34.338534)",
      "poi_name": "Les Bon Temps Louisiana Kitchen",
      "osm_id": 5226809232,
      "amenity": "restaurant",
      "cuisine": "cajun",
      "opening_hours": "We-Sa 11:00-20:00; Su 12:00-15:00",
      "website": "https://www.lesbontempslouisianakitchen.com/",
      "phone": "+1 (678) 454-0073",
      "addr_state": "GA",
      "addr_city": "Ball Ground",
      "addr_postcode": "30107",
      "addr_street": "Gilmer Ferry Road",
      "addr_housenumber": "248",
      "value": 317.7711921280522
    },
    {
      "id": 202599,
      "geometry": "POINT (-84.790276 34.197597)",
      "poi_name": "Johnboy\u2019s Home Cooking",
      "osm_id": 7039722452,
      "amenity": "restaurant",
      "opening_hours": "Mo-Sa 11:00-21:00; Su 11:00-20:00",
      "addr_street": "Joe Frank Harris Parkway Southeast",
      "addr_housenumber": "904",
      "value": 317.7711921280522
    },
    {
      "id": 202602,
      "geometry": "POINT (-84.790064 34.197808)",
      "poi_name": "El Dorado",
      "osm_id": 7039937008,
      "amenity": "restaurant",
      "cuisine": "mexican;salvadoran",
      "website": "http://www.eldoradosalvadoriancartersville.com/",
      "value": 317.7711921280522
    },
    {
      "id": 208809,
      "geometry": "POINT (-84.590722 34.057489)",
      "poi_name": "Las Palmas",
      "osm_id": 5005960549,
      "amenity": "restaurant",
      "cuisine": "mexican",
      "value": 317.7711921280522
    },
    {
      "id": 208810,
      "geometry": "POINT (-84.590715 34.057122)",
      "poi_name": "Cafe Istanbul 2",
      "osm_id": 5005960552,
      "amenity": "restaurant",
      "cuisine": "turkish",
      "value": 317.7711921280522
    },
    {
      "id": 208919,
      "geometry": "POINT (-84.597285 34.048871)",
      "poi_name": "Donny's Home Cooking",
      "osm_id": 5012632041,
      "amenity": "restaurant",
      "cuisine": "american",
      "value": 317.7711921280522
    },
    {
      "id": 208920,
      "geometry": "POINT (-84.596518 34.049509)",
      "poi_name": "Johnny's New York Style Pizza",
      "osm_id": 5012632081,
      "amenity": "restaurant",
      "cuisine": "pizza",
      "website": "https://johnnyspizza.com/location/kennesaw/",
      "phone": "678-355-0825",
      "value": 317.7711921280522
    },
    {
      "id": 208921,
      "geometry": "POINT (-84.601457 34.049042)",
      "poi_name": "Hamada Japanese",
      "osm_id": 5012658316,
      "amenity": "restaurant",
      "cuisine": "sushi",
      "value": 317.7711921280522
    },
    {
      "id": 208922,
      "geometry": "POINT (-84.600572 34.047155)",
      "poi_name": "First Watch",
      "osm_id": 5012681076,
      "amenity": "restaurant",
      "cuisine": "american;breakfast",
      "opening_hours": "07:00-14:30",
      "website": "https://www.firstwatch.com/locations/ga-kennesaw-cherokee-st-nw/",
      "phone": "+1 678 401 7431",
      "official_name": "First Watch The Daytime Cafe",
      "addr_state": "GA",
      "addr_city": "Kennesaw",
      "addr_postcode": "30144",
      "addr_street": "Cherokee Street Northwest",
      "addr_housenumber": "3815",
      "value": 317.7711921280522
    },
    {
      "id": 208927,
      "geometry": "POINT (-84.647448 34.075046)",
      "poi_name": "China Chef",
      "osm_id": 5012789883,
      "amenity": "restaurant",
      "cuisine": "chinese",
      "value": 317.7711921280522
    },
    {
      "id": 210748,
      "geometry": "POINT (-84.431056 33.982114)",
      "poi_name": "La Madeleine",
      "osm_id": 5118390760,
      "amenity": "restaurant",
      "cuisine": "french",
      "opening_hours": "Mo-Sa 06:30-21:00; Su 06:30-21:00",
      "phone": "+1 (770) 579-3040",
      "outdoor_seating": "yes",
      "addr_state": "GA",
      "addr_city": "Marietta",
      "addr_postcode": "30062",
      "addr_street": "Roswell Road",
      "addr_housenumber": "4101",
      "value": 317.7711921280522
    },
    {
      "id": 219218,
      "geometry": "POINT (-84.192543 33.884785)",
      "poi_name": "Pho Number One",
      "osm_id": 9319091578,
      "amenity": "restaurant",
      "cuisine": "vietnamese;thai;asian",
      "value": 317.7711921280522
    },
    {
      "id": 216223,
      "geometry": "POINT (-84.819629 34.209536)",
      "poi_name": "Grand China",
      "osm_id": 9163101595,
      "amenity": "restaurant",
      "cuisine": "chinese",
      "value": 317.7711921280522
    },
    {
      "id": 216225,
      "geometry": "POINT (-84.79359 34.197461)",
      "poi_name": "Alisha's Kitchen",
      "osm_id": 9163101663,
      "amenity": "restaurant",
      "value": 317.7711921280522
    },
    {
      "id": 216226,
      "geometry": "POINT (-84.793733 34.197517)",
      "poi_name": "King Pizzeria",
      "osm_id": 9163101664,
      "amenity": "restaurant",
      "cuisine": "pizza",
      "value": 317.7711921280522
    },
    {
      "id": 216227,
      "geometry": "POINT (-84.78811 34.201154)",
      "poi_name": "Hong Kong",
      "osm_id": 9163101719,
      "amenity": "restaurant",
      "cuisine": "chinese",
      "value": 317.7711921280522
    },
    {
      "id": 217173,
      "geometry": "POINT (-84.214235 33.980041)",
      "poi_name": "Firebirds Wood Fired Grill",
      "osm_id": 9209059340,
      "amenity": "restaurant",
      "cuisine": "american;steak;seafood",
      "website": "https://peachtree-corners.firebirdsrestaurants.com/",
      "phone": "+1-770-225-4662",
      "addr_state": "GA",
      "addr_city": "Peachtree Corners",
      "addr_postcode": "30092",
      "addr_street": "Town Center Boulevard",
      "addr_housenumber": "5215",
      "value": 317.7711921280522
    },
    {
      "id": 232430,
      "geometry": "POINT (-84.312074 34.018664)",
      "poi_name": "Taqueria Tsunami",
      "osm_id": 4524910639,
      "amenity": "restaurant",
      "cuisine": "tex-mex",
      "wheelchair": "yes",
      "opening_hours": "Mo-Th,Su 11:00-21:00; Fr-Sa 11:00-20:00",
      "website": "https://taqueriatsunami.com",
      "internet_access": "wlan",
      "phone": "+1 770-993-1530",
      "addr_street": "Holcomb Bridge Road",
      "addr_housenumber": "1570",
      "value": 317.7711921280522
    },
    {
      "id": 223922,
      "geometry": "POINT (-84.464412 34.037898)",
      "poi_name": "China Dynasty",
      "osm_id": 11067979466,
      "amenity": "restaurant",
      "opening_hours": "Tu-Fr, Su 11:00-21:00; Sa 16:00-21:00",
      "website": "https://www.chinadynastymarietta.com/",
      "phone": "770-578-9668",
      "addr_street": "Sandy Plains Road",
      "addr_housenumber": "3605",
      "value": 317.7711921280522
    },
    {
      "id": 228334,
      "geometry": "POINT (-84.270954 33.988024)",
      "poi_name": "El Potrillo",
      "osm_id": 4339126680,
      "amenity": "restaurant",
      "cuisine": "mexican",
      "value": 317.7711921280522
    },
    {
      "id": 231087,
      "geometry": "POINT (-84.797369 34.195463)",
      "poi_name": "City Wings Restaurante",
      "osm_id": 4455813426,
      "amenity": "restaurant",
      "cuisine": "mexican",
      "opening_hours": "Mo-Th 11:00-22:30; Fr-Sa 11:00-23:00; Su 11:00-22:00",
      "website": "https://www.citywingsrestaurante.com/",
      "phone": "+1-770-607-5354",
      "delivery": "yes",
      "addr_state": "GA",
      "addr_city": "Cartersville",
      "addr_postcode": "30120",
      "addr_street": "North Tennessee Street",
      "addr_housenumber": "1135",
      "value": 317.7711921280522
    },
    {
      "id": 231088,
      "geometry": "POINT (-84.797214 34.195041)",
      "poi_name": "Slope's BBQ",
      "osm_id": 4455813455,
      "amenity": "restaurant",
      "cuisine": "barbecue",
      "value": 317.7711921280522
    },
    {
      "id": 219821,
      "geometry": "POINT (-84.460183 34.470399)",
      "poi_name": "Buffalo Luke's",
      "osm_id": 9347527456,
      "amenity": "restaurant",
      "value": 317.7711921280522
    },
    {
      "id": 220488,
      "geometry": "POINT (-84.225017 34.061652)",
      "poi_name": "Bite Bistro & Bar",
      "osm_id": 9374708651,
      "amenity": "restaurant",
      "value": 317.7711921280522
    },
    {
      "id": 223848,
      "geometry": "POINT (-84.45828 34.469516)",
      "poi_name": "Johnny's New York Style Pizza & Subs",
      "osm_id": 11065728658,
      "amenity": "restaurant",
      "cuisine": "pizza",
      "value": 317.7711921280522
    },
    {
      "id": 223849,
      "geometry": "POINT (-84.45872 34.470231)",
      "poi_name": "Ably Asian Cuisine",
      "osm_id": 11065728664,
      "amenity": "restaurant",
      "cuisine": "asian",
      "value": 317.7711921280522
    },
    {
      "id": 224422,
      "geometry": "POINT (-84.464288 34.037872)",
      "poi_name": "Rosa's Pizza",
      "osm_id": 11081920037,
      "amenity": "restaurant",
      "cuisine": "pizza",
      "website": "https://www.rosaspizzamarietta.com/",
      "phone": "+1 (770) 321-7855",
      "addr_state": "GA",
      "addr_city": "Marietta",
      "addr_postcode": "30066",
      "addr_street": "Sandy Plains Road Northeast",
      "addr_housenumber": "3605",
      "value": 317.7711921280522
    },
    {
      "id": 227915,
      "geometry": "POINT (-84.389274 34.004709)",
      "poi_name": "El Porton",
      "osm_id": 4321776575,
      "amenity": "restaurant",
      "cuisine": "mexican",
      "opening_hours": "11:00 - 22:30",
      "takeaway": "yes",
      "value": 317.7711921280522
    },
    {
      "id": 228357,
      "geometry": "POINT (-84.27132 33.988199)",
      "poi_name": "Mona Lisa Restaurant",
      "osm_id": 4340215900,
      "amenity": "restaurant",
      "cuisine": "italian",
      "value": 317.7711921280522
    },
    {
      "id": 230663,
      "geometry": "POINT (-84.793682 34.170932)",
      "poi_name": "Scott's Walk-up BBQ",
      "osm_id": 4434678718,
      "amenity": "restaurant",
      "value": 317.7711921280522
    },
    {
      "id": 232358,
      "geometry": "POINT (-84.295776 34.087745)",
      "poi_name": "Cafe Efendi",
      "osm_id": 4520641367,
      "amenity": "restaurant",
      "website": "https://cafeefendi.com/",
      "phone": "+1-770-360-8014",
      "addr_state": "GA",
      "addr_city": "Alpharetta",
      "addr_postcode": "30009",
      "addr_street": "North Main Street",
      "addr_housenumber": "488",
      "value": 317.7711921280522
    },
    {
      "id": 232431,
      "geometry": "POINT (-84.311888 34.018986)",
      "poi_name": "Foundation Social Eatery",
      "osm_id": 4524911892,
      "amenity": "restaurant",
      "cuisine": "american",
      "value": 317.7711921280522
    },
    {
      "id": 233447,
      "geometry": "POINT (-84.816404 34.152378)",
      "poi_name": "Craft Smokehouse Events & Catering",
      "osm_id": 4574218597,
      "amenity": "restaurant",
      "cuisine": "steak_house",
      "website": "https://www.craftsmokehouse.net/",
      "phone": "+1 (678) 576-5896",
      "takeaway": "yes",
      "outdoor_seating": "no",
      "addr_state": "GA",
      "addr_city": "Cartersville",
      "addr_postcode": "30120",
      "addr_street": "Henderson Drive",
      "addr_housenumber": "650",
      "value": 317.7711921280522
    },
    {
      "id": 244062,
      "geometry": "POINT (-84.414356 33.976967)",
      "poi_name": "Pizza Hut",
      "osm_id": 7698067820,
      "amenity": "restaurant",
      "cuisine": "pizza",
      "opening_hours": "Su-Th 10:30-23:00; Fr-Sa 10:30-24:00",
      "phone": "+1-770-977-5449",
      "addr_state": "GA",
      "addr_city": "Marietta",
      "addr_postcode": "30068",
      "addr_street": "Johnson Ferry Road",
      "addr_housenumber": "1100",
      "value": 317.7711921280522
    },
    {
      "id": 233952,
      "geometry": "POINT (-84.213482 33.942153)",
      "poi_name": "The Crossing",
      "osm_id": 4593580324,
      "amenity": "restaurant",
      "value": 317.7711921280522
    },
    {
      "id": 233969,
      "geometry": "POINT (-84.208423 33.969563)",
      "poi_name": "Kiko's",
      "osm_id": 4594502251,
      "amenity": "restaurant",
      "value": 317.7711921280522
    },
    {
      "id": 233972,
      "geometry": "POINT (-84.219118 33.969715)",
      "poi_name": "Bull Gogi",
      "osm_id": 4594531139,
      "amenity": "restaurant",
      "value": 317.7711921280522
    },
    {
      "id": 233973,
      "geometry": "POINT (-84.217114 33.977021)",
      "poi_name": "Noble Fin",
      "osm_id": 4594531147,
      "amenity": "restaurant",
      "cuisine": "seafood",
      "phone": "+1-770-599-7979",
      "addr_state": "GA",
      "addr_city": "Peachtree Corners",
      "addr_postcode": "30092",
      "addr_street": "Peachtree Parkway Northwest",
      "addr_housenumber": "5260",
      "value": 317.7711921280522
    },
    {
      "id": 233974,
      "geometry": "POINT (-84.216271 33.983078)",
      "poi_name": "Aomi",
      "osm_id": 4594531160,
      "amenity": "restaurant",
      "cuisine": "japanese",
      "value": 317.7711921280522
    },
    {
      "id": 233975,
      "geometry": "POINT (-84.212431 33.986822)",
      "poi_name": "Lon U",
      "osm_id": 4594536525,
      "amenity": "restaurant",
      "cuisine": "thai",
      "takeaway": "yes",
      "value": 317.7711921280522
    },
    {
      "id": 234948,
      "geometry": "POINT (-84.37697 34.338498)",
      "poi_name": "Frankfurt D\u00f6ner & Meats",
      "osm_id": 5741764927,
      "amenity": "restaurant",
      "cuisine": "deli;kebab",
      "opening_hours": "Tu-Sa 11:00-19:00; Su 12:00-17:00",
      "shop": "butcher",
      "phone": "+1 (678) 454-0784",
      "addr_state": "GA",
      "addr_city": "Ball Ground",
      "addr_postcode": "30107",
      "addr_street": "Gilmer Ferry Road",
      "addr_housenumber": "250",
      "value": 317.7711921280522
    },
    {
      "id": 241964,
      "geometry": "POINT (-84.519389 34.099667)",
      "poi_name": "Canyons Burger Company",
      "osm_id": 6047505088,
      "amenity": "restaurant",
      "cuisine": "burger",
      "addr_state": "GA",
      "addr_city": "Woodstock",
      "addr_postcode": "30188",
      "addr_street": "Chambers Street",
      "addr_housenumber": "335",
      "value": 317.7711921280522
    },
    {
      "id": 241965,
      "geometry": "POINT (-84.519466 34.099421)",
      "poi_name": "J. Christopher's Woodstock",
      "osm_id": 6047506597,
      "amenity": "restaurant",
      "cuisine": "breakfast",
      "addr_state": "GA",
      "addr_city": "Woodstock",
      "addr_postcode": "30188",
      "addr_street": "Chambers Street",
      "addr_housenumber": "315",
      "value": 317.7711921280522
    },
    {
      "id": 241993,
      "geometry": "POINT (-84.519365 34.098506)",
      "poi_name": "Fire Stone Wood Fired Pizza & Grill",
      "osm_id": 6049200421,
      "amenity": "restaurant",
      "cuisine": "pizza",
      "addr_state": "GA",
      "addr_city": "Woodstock",
      "addr_postcode": "30188",
      "addr_street": "Chambers Street",
      "addr_housenumber": "120",
      "value": 317.7711921280522
    },
    {
      "id": 241994,
      "geometry": "POINT (-84.518628 34.102159)",
      "poi_name": "Vingenzo's",
      "osm_id": 6049222676,
      "amenity": "restaurant",
      "cuisine": "italian;pizza",
      "addr_state": "GA",
      "addr_city": "Woodstock",
      "addr_postcode": "30188",
      "addr_street": "East Main Street",
      "addr_housenumber": "105",
      "value": 317.7711921280522
    },
    {
      "id": 242923,
      "geometry": "POINT (-84.522082 34.068174)",
      "poi_name": "Vespucci's",
      "osm_id": 7608047311,
      "amenity": "restaurant",
      "cuisine": "italian",
      "opening_hours": "Su 11:30-21:00; Mo-Th 11:00-21:30; Fr 11:00-22:00; Sa 11:30-22:00",
      "website": "http://www.vespuccispizza.com/marietta/",
      "phone": "+1-770-928-1212",
      "outdoor_seating": "yes",
      "value": 317.7711921280522
    },
    {
      "id": 240060,
      "geometry": "POINT (-84.784349 34.172869)",
      "poi_name": "Cici's Pizza",
      "osm_id": 5953038180,
      "amenity": "restaurant",
      "cuisine": "pizza;buffet",
      "opening_hours": "Mo-Th 11:00-22:00; Fr-Su 11:00-23:00",
      "website": "https://cicis.com/locations/ga-cartersville-240-cherokee-place",
      "phone": "+1-770-387-9797",
      "addr_state": "GA",
      "addr_city": "Cartersville",
      "addr_postcode": "30121",
      "addr_street": "Cherokee Place",
      "addr_housenumber": "240",
      "value": 317.7711921280522
    },
    {
      "id": 244063,
      "geometry": "POINT (-84.414189 33.976576)",
      "poi_name": "Roll On In",
      "osm_id": 7698067824,
      "amenity": "restaurant",
      "opening_hours": "Su-Sa 11:00-21:00",
      "website": "https://www.rollonin.com/",
      "phone": "+1-678-567-7925",
      "addr_state": "GA",
      "addr_city": "Marietta",
      "addr_postcode": "30068",
      "addr_street": "Johnson Ferry Road",
      "addr_housenumber": "1100",
      "value": 317.7711921280522
    }
  ],
  "answer_type": "name",
  "question_entities": {
    "[2]": {
      "distance": 80000,
      "text": "80 kilometers"
    },
    "[3]": {
      "main_category": "leisure",
      "sub_category": "park",
      "display_name": "Mountain Park Park, Lilburn, GA",
      "geo_wkt": "POINT (-84.118544 33.847394)",
      "poi": {
        "id": 261496,
        "geometry": "POINT (-84.118544 33.847394)",
        "poi_name": "Mountain Park Park",
        "osm_id": 358719301,
        "leisure": "park",
        "addr_state": "GA",
        "addr_city": "Lilburn",
        "addr_postcode": "30047",
        "addr_street": "Five Forks Trickum Road",
        "addr_housenumber": "5050"
      }
    },
    "[4]": {
      "main_category": "leisure",
      "sub_category": "stadium",
      "display_name": "Centennial High School Football Stadium, Roswell, GA",
      "geo_wkt": "POINT (-84.292979 34.007322)",
      "poi": {
        "id": 262496,
        "geometry": "POINT (-84.292979 34.007322)",
        "poi_name": "Centennial High School Football Stadium",
        "osm_id": 358784376,
        "leisure": "stadium",
        "fee": "9 USD",
        "sport": "american_football",
        "addr_state": "GA",
        "addr_city": "Roswell",
        "addr_postcode": "30076"
      }
    },
    "[1]": {
      "main_category": "amenity",
      "sub_category": "restaurant"
    }
  },
  "id": 1693,
  "type": "range:towards+name"
}