{
  "question": "Within a radius of 70 kilometers, where can I find  a restaurant along the way to Chopper's Lawn Equipment, Kissimmee, FL from Lifestream Behavioral Center, Leesburg, FL?",
  "sql": "WITH\n    angle AS (SELECT degrees(ST_Azimuth(ST_GeomFromText('POINT (-81.895483 28.836904)',4326)::geography, ST_GeomFromText('POINT (-81.327543 28.262181)',4326)::geography)) AS value)\nSELECT * FROM pois,angle\nWHERE amenity = 'restaurant'\nAND ST_DWithin(pois.geometry, ST_GeomFromText('POINT (-81.895483 28.836904)',4326)::geography, 70000)\nAND (degrees(ST_Azimuth(ST_GeomFromText('POINT (-81.895483 28.836904)',4326)::geography, pois.geometry)) BETWEEN angle.value - 22.5 AND angle.value + 22.5);\n",
  "answers": [
    {
      "id": 2529,
      "geometry": "POINT (-81.561715 28.411566)",
      "poi_name": "Hoop-Dee-Doo Musical Revue",
      "osm_id": 3507891368,
      "amenity": "restaurant",
      "tourism": "attraction",
      "addr_state": "FL",
      "value": 138.757576837745
    },
    {
      "id": 30719,
      "geometry": "POINT (-81.353024 28.592922)",
      "poi_name": "Ethos Vegan Kitchen",
      "osm_id": 8378130608,
      "amenity": "restaurant",
      "opening_hours": "Sa,Su 09:00-23:00; Mo-Fr 11:00-23:00",
      "website": "http://www.ethosvegankitchen.com/",
      "phone": "+14072283899",
      "addr_state": "FL",
      "addr_city": "Winter Park",
      "addr_postcode": "32789",
      "addr_street": "South New York Avenue",
      "addr_housenumber": "601",
      "value": 138.757576837745
    },
    {
      "id": 38615,
      "geometry": "POINT (-81.425278 28.36529)",
      "poi_name": "Sushi En",
      "osm_id": 2871607902,
      "amenity": "restaurant",
      "cuisine": "sushi",
      "wheelchair": "limited",
      "addr_city": "Orlando",
      "addr_postcode": "32837",
      "addr_street": "Town Center Boulevard",
      "addr_housenumber": "4115",
      "value": 138.757576837745
    },
    {
      "id": 40374,
      "geometry": "POINT (-81.561808 28.411764)",
      "poi_name": "Trail's End Restaurant",
      "osm_id": 2968261564,
      "amenity": "restaurant",
      "addr_state": "FL",
      "value": 138.757576837745
    },
    {
      "id": 41142,
      "geometry": "POINT (-81.581989 28.418089)",
      "poi_name": "The Crystal Palace",
      "osm_id": 3000238896,
      "amenity": "restaurant",
      "cuisine": "american",
      "addr_state": "FL",
      "addr_city": "Lake Buena Vista",
      "addr_postcode": "32830",
      "value": 138.757576837745
    },
    {
      "id": 44924,
      "geometry": "POINT (-81.600491 28.339469)",
      "poi_name": "Outback Steakhouse",
      "osm_id": 3182704244,
      "amenity": "restaurant",
      "cuisine": "american;steak",
      "wheelchair": "yes",
      "opening_hours": "Mo-Su 11:00-23:00",
      "website": "https://locations.outback.com/florida/kissimmee/7804-west-irlo-bronson-highway",
      "internet_access": "wlan",
      "phone": "+1 407-396-0017",
      "takeaway": "yes",
      "outdoor_seating": "yes",
      "addr_state": "FL",
      "addr_city": "Kissimmee",
      "addr_postcode": "34747",
      "addr_street": "West Irlo Bronson Memorial Highway",
      "addr_housenumber": "7804",
      "value": 138.757576837745
    },
    {
      "id": 46494,
      "geometry": "POINT (-81.514672 28.333471)",
      "poi_name": "L'italiano's Italian Ristorante",
      "osm_id": 3268334989,
      "amenity": "restaurant",
      "cuisine": "italian",
      "addr_state": "FL",
      "addr_city": "Kissimmee",
      "addr_postcode": "34746",
      "addr_street": "West Irlo Bronson Memorial Highway",
      "value": 138.757576837745
    },
    {
      "id": 46495,
      "geometry": "POINT (-81.515736 28.333555)",
      "poi_name": "Pacino's Italian Ristorante",
      "osm_id": 3268334990,
      "amenity": "restaurant",
      "cuisine": "italian",
      "addr_state": "FL",
      "addr_city": "Kissimmee",
      "addr_postcode": "34746",
      "addr_street": "West Irlo Bronson Memorial Highway",
      "addr_housenumber": "5795",
      "value": 138.757576837745
    },
    {
      "id": 46500,
      "geometry": "POINT (-81.515043 28.333534)",
      "poi_name": "Ponderosa Steakhouse",
      "osm_id": 3268335816,
      "amenity": "restaurant",
      "cuisine": "american;steak;buffet",
      "addr_state": "FL",
      "addr_city": "Kissimmee",
      "addr_postcode": "34746",
      "addr_street": "West Irlo Bronson Memorial Highway",
      "addr_housenumber": "5771",
      "value": 138.757576837745
    },
    {
      "id": 46501,
      "geometry": "POINT (-81.514301 28.333489)",
      "poi_name": "Full House China Buffet",
      "osm_id": 3268335817,
      "amenity": "restaurant",
      "cuisine": "chinese",
      "addr_state": "FL",
      "addr_city": "Kissimmee",
      "addr_postcode": "34746",
      "addr_street": "West Irlo Bronson Memorial Highway",
      "addr_housenumber": "5737",
      "value": 138.757576837745
    },
    {
      "id": 47548,
      "geometry": "POINT (-81.507066 28.494083)",
      "poi_name": "Fresh Made Kitchen",
      "osm_id": 3330802043,
      "amenity": "restaurant",
      "phone": "407-909-1170",
      "addr_state": "FL",
      "addr_city": "Orlando",
      "addr_postcode": "32819",
      "addr_street": "Conroy Windermere Road",
      "addr_housenumber": "8965",
      "value": 138.757576837745
    },
    {
      "id": 48658,
      "geometry": "POINT (-81.48079 28.450475)",
      "poi_name": "Ocean Prime Orlando",
      "osm_id": 3394471623,
      "amenity": "restaurant",
      "addr_state": "FL",
      "addr_city": "Orlando",
      "value": 138.757576837745
    },
    {
      "id": 48974,
      "geometry": "POINT (-81.350698 28.596105)",
      "poi_name": "Luma on Park",
      "osm_id": 3411691493,
      "amenity": "restaurant",
      "addr_city": "Winter Park",
      "addr_street": "South Park Avenue",
      "addr_housenumber": "290",
      "value": 138.757576837745
    },
    {
      "id": 48980,
      "geometry": "POINT (-81.350996 28.598218)",
      "poi_name": "Prato",
      "osm_id": 3411718541,
      "amenity": "restaurant",
      "cuisine": "italian",
      "website": "https://www.prato-wp.com/",
      "phone": "+1 407-262-0050",
      "delivery": "no",
      "addr_state": "FL",
      "addr_city": "Winter Park",
      "addr_postcode": "32789",
      "addr_street": "North Park Avenue",
      "addr_housenumber": "124",
      "value": 138.757576837745
    },
    {
      "id": 48997,
      "geometry": "POINT (-81.350449 28.595019)",
      "poi_name": "Park Avenue Pizza",
      "osm_id": 3411832839,
      "amenity": "restaurant",
      "cuisine": "pizza",
      "phone": "+1 407 599 9199",
      "takeaway": "yes",
      "delivery": "yes",
      "addr_state": "FL",
      "addr_city": "Winter Park",
      "addr_postcode": "32789",
      "addr_street": "E. Lyman Avenue",
      "addr_housenumber": "119",
      "value": 138.757576837745
    },
    {
      "id": 50420,
      "geometry": "POINT (-81.521936 28.371)",
      "poi_name": "House of Blues",
      "osm_id": 3483463621,
      "amenity": "restaurant",
      "cuisine": "american",
      "website": "https://disneyworld.disney.go.com/dining/disney-springs/house-of-blues-restaurant/",
      "addr_state": "FL",
      "addr_city": "Lake Buena Vista",
      "addr_postcode": "32830",
      "addr_street": "East Buena Vista Drive",
      "addr_housenumber": "1490",
      "value": 138.757576837745
    },
    {
      "id": 50802,
      "geometry": "POINT (-81.630355 28.344965)",
      "poi_name": "Boardwalk Brothers Wings & Burgers",
      "osm_id": 3507806254,
      "amenity": "restaurant",
      "cuisine": "burger",
      "takeaway": "yes",
      "delivery": "yes",
      "addr_state": "FL",
      "addr_city": "Kissimmee",
      "addr_postcode": "34747",
      "addr_street": "Bronson Highway",
      "addr_housenumber": "8546",
      "value": 138.757576837745
    },
    {
      "id": 50805,
      "geometry": "POINT (-81.561715 28.411566)",
      "poi_name": "Hoop-Dee-Doo Musical Revue",
      "osm_id": 3507891368,
      "amenity": "restaurant",
      "tourism": "attraction",
      "addr_state": "FL",
      "value": 138.757576837745
    },
    {
      "id": 52025,
      "geometry": "POINT (-81.552553 28.368891)",
      "poi_name": "Chefs de France",
      "osm_id": 567539827,
      "amenity": "restaurant",
      "cuisine": "french",
      "wheelchair": "yes",
      "website": "https://disneyworld.disney.go.com/dining/epcot/chefs-de-france/",
      "takeaway": "no",
      "outdoor_seating": "yes",
      "delivery": "no",
      "wikidata": "Q19880772",
      "addr_state": "FL",
      "addr_city": "Lake Buena Vista",
      "addr_postcode": "32821",
      "addr_street": "Avenue of the Stars",
      "addr_housenumber": "1830",
      "value": 138.757576837745
    },
    {
      "id": 52935,
      "geometry": "POINT (-81.501658 28.384139)",
      "poi_name": "Run & Run Chinese Food",
      "osm_id": 10055687245,
      "amenity": "restaurant",
      "cuisine": "chinese",
      "website": "https://runnrunonline.com",
      "phone": "407-238-0888",
      "addr_state": "FL",
      "addr_city": "Orlando",
      "addr_postcode": "32836",
      "addr_street": "8560 Palm Pkwy",
      "value": 138.757576837745
    },
    {
      "id": 58067,
      "geometry": "POINT (-81.562207 28.450453)",
      "poi_name": "Tijuana Flats",
      "osm_id": 5362620592,
      "amenity": "restaurant",
      "cuisine": "mexican",
      "wheelchair": "yes",
      "delivery": "no",
      "addr_state": "FL",
      "addr_city": "Windermere",
      "addr_postcode": "34786",
      "addr_street": "Old Brick Road",
      "addr_housenumber": "6527",
      "value": 138.757576837745
    },
    {
      "id": 58068,
      "geometry": "POINT (-81.562905 28.449838)",
      "poi_name": "Philly Connection",
      "osm_id": 5362620596,
      "amenity": "restaurant",
      "cuisine": "sandwich",
      "addr_state": "FL",
      "addr_city": "Windermere",
      "addr_postcode": "34786",
      "addr_street": "Old Brick Road",
      "addr_housenumber": "6536",
      "value": 138.757576837745
    },
    {
      "id": 58069,
      "geometry": "POINT (-81.563458 28.44995)",
      "poi_name": "Keke's Breakfast Cafe",
      "osm_id": 5362620599,
      "amenity": "restaurant",
      "cuisine": "breakfast",
      "wheelchair": "yes",
      "addr_state": "FL",
      "addr_city": "Windermere",
      "addr_postcode": "34786",
      "addr_street": "Old Brick Road",
      "addr_housenumber": "6526",
      "value": 138.757576837745
    },
    {
      "id": 58070,
      "geometry": "POINT (-81.563636 28.45024)",
      "poi_name": "Flipper's Pizzeria",
      "osm_id": 5362620600,
      "amenity": "restaurant",
      "cuisine": "pizza",
      "wheelchair": "yes",
      "addr_state": "FL",
      "addr_city": "Windermere",
      "addr_postcode": "34786",
      "addr_street": "Old Brick Road",
      "addr_housenumber": "6526",
      "value": 138.757576837745
    },
    {
      "id": 58072,
      "geometry": "POINT (-81.563699 28.450474)",
      "poi_name": "Gators Dockside",
      "osm_id": 5362620604,
      "amenity": "restaurant",
      "wheelchair": "yes",
      "addr_state": "FL",
      "addr_city": "Windermere",
      "addr_postcode": "34786",
      "addr_street": "Old Brick Road",
      "addr_housenumber": "6516",
      "value": 138.757576837745
    },
    {
      "id": 58073,
      "geometry": "POINT (-81.563756 28.451021)",
      "poi_name": "Toasted",
      "osm_id": 5362620608,
      "amenity": "restaurant",
      "addr_state": "FL",
      "addr_city": "Windermere",
      "addr_postcode": "34786",
      "addr_street": "Old Brick Road",
      "addr_housenumber": "6506",
      "value": 138.757576837745
    },
    {
      "id": 61773,
      "geometry": "POINT (-81.574438 28.41493)",
      "poi_name": "California Grill",
      "osm_id": 5535047256,
      "amenity": "restaurant",
      "cuisine": "american",
      "website": "https://disneyworld.disney.go.com/dining/contemporary-resort/california-grill/",
      "addr_state": "FL",
      "addr_city": "Lake Buena Vista",
      "value": 138.757576837745
    },
    {
      "id": 61774,
      "geometry": "POINT (-81.57439 28.414421)",
      "poi_name": "Chef Mickey's",
      "osm_id": 5535049509,
      "amenity": "restaurant",
      "website": "https://disneyworld.disney.go.com/dining/contemporary-resort/chef-mickeys/",
      "addr_state": "FL",
      "addr_city": "Lake Buena Vista",
      "value": 138.757576837745
    },
    {
      "id": 61780,
      "geometry": "POINT (-81.574368 28.414865)",
      "poi_name": "Steakhouse 71",
      "osm_id": 5535122719,
      "amenity": "restaurant",
      "cuisine": "american",
      "website": "https://disneyworld.disney.go.com/dining/contemporary-resort/steakhouse-71/",
      "internet_access": "wlan",
      "phone": "+1 407 939 5277",
      "addr_state": "FL",
      "addr_city": "Lake Buena Vista",
      "addr_postcode": "32830",
      "addr_street": "World Dr",
      "addr_housenumber": "4600",
      "value": 138.757576837745
    },
    {
      "id": 53422,
      "geometry": "POINT (-81.483117 28.515459)",
      "poi_name": "kekes breakfast cafe",
      "osm_id": 10080177716,
      "amenity": "restaurant",
      "cuisine": "coffee_shop;regional",
      "phone": "4072983684",
      "addr_state": "FL",
      "addr_city": "Orlando",
      "addr_postcode": "32835",
      "addr_street": "s hiawassee rd",
      "addr_housenumber": "2433",
      "value": 138.757576837745
    },
    {
      "id": 57360,
      "geometry": "POINT (-81.591586 28.479024)",
      "poi_name": "Loop Cafe",
      "osm_id": 5334306478,
      "amenity": "restaurant",
      "takeaway": "yes",
      "addr_state": "FL",
      "addr_city": "Windermere",
      "addr_postcode": "34786",
      "addr_street": "Bridgewater Crossings Boulevard",
      "addr_housenumber": "13790",
      "value": 138.757576837745
    },
    {
      "id": 59216,
      "geometry": "POINT (-81.502861 28.372347)",
      "poi_name": "Applebee's",
      "osm_id": 5414695552,
      "amenity": "restaurant",
      "cuisine": "american",
      "official_name": "Applebee's Neighborhood Grill & Bar",
      "addr_state": "FL",
      "value": 138.757576837745
    },
    {
      "id": 66971,
      "geometry": "POINT (-81.627572 28.472528)",
      "poi_name": "Tijuana Flats",
      "osm_id": 11218097522,
      "amenity": "restaurant",
      "cuisine": "mexican",
      "website": "https://www.tijuanaflats.com/locations/hamlin-winter-garden?utm_source=google&utm_medium=organic&utm_campaign=local-business-listing",
      "phone": "+1-407-459-1910",
      "addr_state": "FL",
      "addr_city": "Winter Garden",
      "addr_postcode": "34787",
      "addr_street": "Shoreside Way",
      "addr_housenumber": "14410",
      "value": 138.757576837745
    },
    {
      "id": 71422,
      "geometry": "POINT (-81.37513 28.512522)",
      "poi_name": "CAVA",
      "osm_id": 11390121669,
      "amenity": "restaurant",
      "opening_hours": "Mo-Su 10:45-13:00",
      "website": "https://cava.com/locations/sodo-fl",
      "phone": "(689) 698-4113",
      "takeaway": "yes",
      "addr_city": "Orlando",
      "addr_postcode": "32806",
      "addr_street": "236 E Michigan Street",
      "value": 138.757576837745
    },
    {
      "id": 67521,
      "geometry": "POINT (-81.44172 28.528454)",
      "poi_name": "Rose's Island Spice Restaurant",
      "osm_id": 11238055210,
      "amenity": "restaurant",
      "opening_hours": "Tu-Sa 11:00-20:00",
      "website": "https://roseislandspice.com",
      "phone": "321-370-4831",
      "addr_state": "FL",
      "addr_city": "Orlando",
      "addr_postcode": "32811",
      "addr_street": "Raleigh Street",
      "addr_housenumber": "4759",
      "value": 138.757576837745
    },
    {
      "id": 69860,
      "geometry": "POINT (-81.61093 28.347628)",
      "poi_name": "N.Y. Bagel & Pizza",
      "osm_id": 11334618268,
      "amenity": "restaurant",
      "addr_state": "FL",
      "addr_city": "Kissimmee",
      "addr_postcode": "34747",
      "addr_street": "West Irlo Bronson Memorial Highway",
      "addr_housenumber": "8085",
      "value": 138.757576837745
    },
    {
      "id": 69867,
      "geometry": "POINT (-81.594997 28.339256)",
      "poi_name": "Cicis",
      "osm_id": 11334787306,
      "amenity": "restaurant",
      "cuisine": "pizza;buffet",
      "addr_state": "FL",
      "addr_city": "Kissimmee",
      "addr_postcode": "34747",
      "addr_street": "West Irlo Bronson Memorial Highway",
      "addr_housenumber": "7763",
      "value": 138.757576837745
    },
    {
      "id": 72886,
      "geometry": "POINT (-81.364888 28.552978)",
      "poi_name": "Zaru",
      "osm_id": 11455343059,
      "amenity": "restaurant",
      "cuisine": "noodles",
      "wheelchair": "yes",
      "opening_hours": "Mo-Fr 12:00-14:30, 17:00-21:30; Sa 12:00-21:30; Su 12:00-20:30",
      "website": "https://zarufl.com",
      "internet_access": "wlan",
      "phone": "+1-407-271-8512",
      "addr_state": "FL",
      "addr_city": "Orlando",
      "addr_postcode": "32803",
      "addr_street": "East Colonial Drive",
      "addr_housenumber": "1114",
      "value": 138.757576837745
    },
    {
      "id": 72898,
      "geometry": "POINT (-81.351568 28.545284)",
      "poi_name": "Orlando Milkhouse",
      "osm_id": 11455520056,
      "amenity": "restaurant",
      "cuisine": "american",
      "opening_hours": "Mo-Th 11:00-22:00; Fr-Sa 11:00-00:00; Su 11:00-20:00",
      "website": "https://milkhousesocial.com",
      "phone": "+1-407-237-0575",
      "addr_state": "FL",
      "addr_city": "Orlando",
      "addr_postcode": "32803",
      "addr_street": "North Bumby Avenue",
      "addr_housenumber": "203",
      "value": 138.757576837745
    },
    {
      "id": 72900,
      "geometry": "POINT (-81.344962 28.55396)",
      "poi_name": "Juju",
      "osm_id": 11455539744,
      "amenity": "restaurant",
      "cuisine": "japanese",
      "opening_hours": "Tu-Th 17:30-22:00; Fr-Sa 17:30-23:00",
      "website": "https://susuruorl.com",
      "phone": "+1-407-412-6678",
      "addr_state": "FL",
      "addr_city": "Orlando",
      "addr_postcode": "32803",
      "addr_street": "Maguire Boulevard",
      "addr_housenumber": "700",
      "value": 138.757576837745
    },
    {
      "id": 72889,
      "geometry": "POINT (-81.364786 28.554048)",
      "poi_name": "Tori Tori",
      "osm_id": 11455406781,
      "amenity": "restaurant",
      "cuisine": "japanese",
      "wheelchair": "yes",
      "opening_hours": "Mo-Th 17:00-01:00; Fr-Sa 17:00-02:00",
      "website": "https://toritoripub.com",
      "addr_state": "FL",
      "addr_city": "Orlando",
      "addr_postcode": "32803",
      "addr_street": "North Mills Avenue",
      "addr_housenumber": "720",
      "value": 138.757576837745
    },
    {
      "id": 72890,
      "geometry": "POINT (-81.364293 28.555338)",
      "poi_name": "The Strand",
      "osm_id": 11455417044,
      "amenity": "restaurant",
      "cuisine": "american",
      "website": "https://strandorlando.com",
      "phone": "+1-407-920-7744",
      "addr_state": "FL",
      "addr_city": "Orlando",
      "addr_postcode": "32803",
      "addr_street": "North Mills Avenue",
      "addr_housenumber": "807",
      "value": 138.757576837745
    },
    {
      "id": 72891,
      "geometry": "POINT (-81.364296 28.555488)",
      "poi_name": "Chi-Kin",
      "osm_id": 11455417045,
      "amenity": "restaurant",
      "cuisine": "korean",
      "opening_hours": "Su-Th 11:00-15:00, 17:00-21:00; Fr-Sa 11:00-15:00, 17:00-22:00",
      "website": "https://chi-kin.com",
      "phone": "+1-407-730-8658",
      "addr_state": "FL",
      "addr_city": "Orlando",
      "addr_postcode": "32803",
      "addr_street": "North Mills Avenue",
      "addr_housenumber": "813",
      "value": 138.757576837745
    },
    {
      "id": 72892,
      "geometry": "POINT (-81.36065 28.553291)",
      "poi_name": "Y Nhu Bakery & Cafe",
      "osm_id": 11455442764,
      "amenity": "restaurant",
      "cuisine": "vietnamese",
      "opening_hours": "Su-Th 08:30-18:00",
      "phone": "+1-407-228-1219",
      "addr_state": "FL",
      "addr_city": "Orlando",
      "addr_postcode": "32803",
      "addr_street": "East Colonial Drive",
      "addr_housenumber": "1525",
      "value": 138.757576837745
    },
    {
      "id": 72893,
      "geometry": "POINT (-81.357748 28.552986)",
      "poi_name": "Sus Hi Eatstation - Colonial",
      "osm_id": 11455448444,
      "amenity": "restaurant",
      "cuisine": "sushi;japanese",
      "opening_hours": "Mo-We 11:00-21:00; Th-Sa 11:00-22:00; Su 11:00-17:00",
      "website": "https://sushieatstation.com",
      "phone": "+1-407-652-6200",
      "addr_state": "FL",
      "addr_city": "Orlando",
      "addr_postcode": "32803",
      "addr_street": "Altaloma Avenue",
      "addr_housenumber": "1830",
      "value": 138.757576837745
    },
    {
      "id": 72894,
      "geometry": "POINT (-81.358725 28.552971)",
      "poi_name": "Shin Jung Korean Restaurant",
      "osm_id": 11455459163,
      "amenity": "restaurant",
      "cuisine": "korean",
      "opening_hours": "Tu-Su 11:30-22:00",
      "website": "https://shinjungkoreanbbq.com",
      "phone": "+1-407-237-0451",
      "addr_state": "f",
      "addr_city": "Orlando",
      "addr_postcode": "32803",
      "addr_street": "East Colonial Drive",
      "addr_housenumber": "1638",
      "value": 138.757576837745
    },
    {
      "id": 72895,
      "geometry": "POINT (-81.356502 28.553305)",
      "poi_name": "Sticky Rice",
      "osm_id": 11455479319,
      "amenity": "restaurant",
      "cuisine": "asian;laotian",
      "opening_hours": "Mo-Sa 11:30-22:00; Su 11:30-21:30",
      "website": "https://stickywithit.com",
      "phone": "+1-321-800-6532",
      "addr_state": "f",
      "addr_city": "Orlando",
      "addr_postcode": "32803",
      "addr_street": "East Colonial Drive",
      "addr_housenumber": "1915",
      "value": 138.757576837745
    },
    {
      "id": 76533,
      "geometry": "POINT (-81.503167 28.390459)",
      "poi_name": "Cafe Pointe Orlando",
      "osm_id": 9781571902,
      "amenity": "restaurant",
      "cuisine": "pizza",
      "opening_hours": "Mo-Th 09:00-20:00; Fr-Su 09:00-23:00",
      "website": "https://cafepointeorlando.com",
      "phone": "+1-407-778-3666",
      "addr_state": "FL",
      "addr_city": "Orlando",
      "addr_postcode": "32836",
      "addr_street": "Treasure Cay Lane",
      "addr_housenumber": "8651",
      "value": 138.757576837745
    },
    {
      "id": 80691,
      "geometry": "POINT (-81.50443 28.391968)",
      "poi_name": "Phillysteak",
      "osm_id": 892054045,
      "amenity": "restaurant",
      "cuisine": "greek",
      "addr_state": "FL",
      "addr_city": "Orlando",
      "addr_street": "Apopka Vineland Road",
      "addr_housenumber": "11985",
      "value": 138.757576837745
    },
    {
      "id": 80693,
      "geometry": "POINT (-81.50443 28.392024)",
      "poi_name": "China 3",
      "osm_id": 892054127,
      "amenity": "restaurant",
      "cuisine": "chinese",
      "addr_state": "FL",
      "addr_city": "Orlando",
      "addr_street": "Apopka Vineland Road",
      "addr_housenumber": "11981",
      "value": 138.757576837745
    },
    {
      "id": 80682,
      "geometry": "POINT (-81.507558 28.384959)",
      "poi_name": "Dragon Court Super Buffet",
      "osm_id": 892018398,
      "amenity": "restaurant",
      "addr_state": "FL",
      "addr_street": "Apopka Vineland Road",
      "addr_housenumber": "12384",
      "value": 138.757576837745
    },
    {
      "id": 82540,
      "geometry": "POINT (-81.591336 28.334135)",
      "poi_name": "Sizzler",
      "osm_id": 1701521076,
      "amenity": "restaurant",
      "cuisine": "steak_house",
      "wheelchair": "yes",
      "addr_state": "FL",
      "addr_city": "Kissimmee",
      "addr_postcode": "34741",
      "addr_street": "West Irlo Bronson Memorial Highway",
      "addr_housenumber": "7602",
      "value": 138.757576837745
    },
    {
      "id": 82541,
      "geometry": "POINT (-81.590051 28.333382)",
      "poi_name": "Ponderosa Steakhouse",
      "osm_id": 1701521774,
      "amenity": "restaurant",
      "cuisine": "american;steak;buffet",
      "wheelchair": "yes",
      "addr_state": "FL",
      "addr_city": "Kissimmee",
      "addr_postcode": "34747",
      "addr_street": "West Irlo Bronson Memorial Highway",
      "addr_housenumber": "7598",
      "value": 138.757576837745
    },
    {
      "id": 86374,
      "geometry": "POINT (-81.426483 28.370819)",
      "poi_name": "Applebee's",
      "osm_id": 1929187843,
      "amenity": "restaurant",
      "cuisine": "american",
      "wheelchair": "yes",
      "official_name": "Applebee's Neighborhood Grill & Bar",
      "addr_state": "FL",
      "value": 138.757576837745
    },
    {
      "id": 89062,
      "geometry": "POINT (-81.363238 28.553301)",
      "poi_name": "Mamak Asian Street Food",
      "osm_id": 8819701624,
      "amenity": "restaurant",
      "cuisine": "asian",
      "opening_hours": "Mo-Th 11:00-22:00; Fr-Sa 11:00-23:00; Su 11:00-21:00",
      "website": "https://www.mamakeats.com/",
      "phone": "+1-407-270-4688",
      "delivery": "yes",
      "toilets": "yes",
      "addr_state": "FL",
      "addr_city": "Orlando",
      "addr_postcode": "32803",
      "addr_street": "East Colonial Drive",
      "addr_housenumber": "1231",
      "value": 138.757576837745
    },
    {
      "id": 89291,
      "geometry": "POINT (-81.450662 28.551473)",
      "poi_name": "Joyful Garden",
      "osm_id": 8837015157,
      "amenity": "restaurant",
      "cuisine": "chinese",
      "addr_state": "FL",
      "value": 138.757576837745
    },
    {
      "id": 89294,
      "geometry": "POINT (-81.450628 28.552054)",
      "poi_name": "Juicy Pot",
      "osm_id": 8837015170,
      "amenity": "restaurant",
      "cuisine": "seafood;hotpot",
      "addr_state": "FL",
      "value": 138.757576837745
    },
    {
      "id": 95978,
      "geometry": "POINT (-81.45965 28.509892)",
      "poi_name": "Pie-Fection Orlando",
      "osm_id": 6417176039,
      "amenity": "restaurant",
      "cuisine": "pizza",
      "wheelchair": "yes",
      "opening_hours": "Tu-Th 17:00-23:00; Fr-Sa 16:00-24:00; Su  17:00-23:00",
      "website": "https://piefectionorlando.com",
      "phone": "+1-407-523-2200",
      "takeaway": "yes",
      "toilets": "yes",
      "addr_state": "FL",
      "addr_city": "Orlando",
      "addr_postcode": "32811",
      "addr_street": "Kirkman Road",
      "addr_housenumber": "3120 S",
      "value": 138.757576837745
    },
    {
      "id": 96022,
      "geometry": "POINT (-81.459969 28.51649)",
      "poi_name": "Stonington's Fried Shrimp",
      "osm_id": 6418381875,
      "amenity": "restaurant",
      "cuisine": "seafood",
      "addr_state": "FL",
      "addr_city": "Orlando",
      "addr_postcode": "32811",
      "addr_street": "Kirkman Road",
      "addr_housenumber": "2316 S",
      "value": 138.757576837745
    },
    {
      "id": 96045,
      "geometry": "POINT (-81.484689 28.514738)",
      "poi_name": "Habibi Restaurant",
      "osm_id": 6418624821,
      "amenity": "restaurant",
      "cuisine": "middle_eastern;lebanese",
      "wheelchair": "yes",
      "addr_state": "FL",
      "addr_city": "Orlando",
      "addr_postcode": "32835",
      "addr_street": "Hiawassee Road",
      "addr_housenumber": "2451 S",
      "value": 138.757576837745
    },
    {
      "id": 99998,
      "geometry": "POINT (-81.466138 28.472632)",
      "poi_name": "Bigfire",
      "osm_id": 6571050391,
      "amenity": "restaurant",
      "cuisine": "chicken;steak_house;burger;sandwich",
      "phone": "(407) 224-3663",
      "addr_state": "FL",
      "addr_city": "Orlando",
      "addr_postcode": "32819",
      "addr_street": "Universal Boulevard",
      "addr_housenumber": "6000",
      "value": 138.757576837745
    },
    {
      "id": 102437,
      "geometry": "POINT (-81.361858 28.593206)",
      "poi_name": "Vine + Forks",
      "osm_id": 6681667339,
      "amenity": "restaurant",
      "cuisine": "pizza",
      "addr_state": "FL",
      "addr_city": "Winter Park",
      "addr_street": "Fairbanks Avenue",
      "addr_housenumber": "959",
      "value": 138.757576837745
    },
    {
      "id": 102403,
      "geometry": "POINT (-81.364295 28.601008)",
      "poi_name": "Another Broken Egg",
      "osm_id": 6680736583,
      "amenity": "restaurant",
      "addr_state": "FL",
      "addr_city": "Winter Park",
      "value": 138.757576837745
    },
    {
      "id": 102404,
      "geometry": "POINT (-81.364728 28.602109)",
      "poi_name": "P.F. Chang's",
      "osm_id": 6680742126,
      "amenity": "restaurant",
      "cuisine": "asian",
      "official_name": "P.F. Chang's China Bistro",
      "addr_state": "FL",
      "addr_city": "Winter Park",
      "value": 138.757576837745
    },
    {
      "id": 106225,
      "geometry": "POINT (-81.595058 28.552546)",
      "poi_name": "GOCHI JAPANESE KITCHEN",
      "osm_id": 8672222542,
      "amenity": "restaurant",
      "cuisine": "sushi",
      "website": "https://www.gochijapanesekitchen.com/",
      "phone": "407-877-0050",
      "addr_state": "FL",
      "addr_city": "Winter Garden",
      "addr_postcode": "34787",
      "addr_street": "West Colonial Drive",
      "addr_housenumber": "14195",
      "value": 138.757576837745
    },
    {
      "id": 106160,
      "geometry": "POINT (-81.364923 28.598264)",
      "poi_name": "First Watch",
      "osm_id": 8668481550,
      "amenity": "restaurant",
      "cuisine": "american;breakfast",
      "official_name": "First Watch The Daytime Cafe",
      "addr_state": "FL",
      "addr_city": "Winter Park",
      "addr_postcode": "32789",
      "addr_street": "North Orlando Avenue",
      "addr_housenumber": "140",
      "value": 138.757576837745
    },
    {
      "id": 105917,
      "geometry": "POINT (-81.618939 28.261207)",
      "poi_name": "Blue Coast Asian Cuisine",
      "osm_id": 8653507324,
      "amenity": "restaurant",
      "cuisine": "asian",
      "opening_hours": "Mo-Th 11:00-22:00; Fr 11:00-23:00; Sa 12:00-23:00; Su 12:00-22:00",
      "website": "https://www.bluecoastasiancuisine.com",
      "addr_city": "ChampionsGate",
      "addr_postcode": "33896",
      "addr_street": "ChampionsGate Boulevard",
      "addr_housenumber": "8298",
      "value": 138.757576837745
    },
    {
      "id": 106226,
      "geometry": "POINT (-81.561278 28.551918)",
      "poi_name": "Miller's Ale House",
      "osm_id": 8672222756,
      "amenity": "restaurant",
      "cuisine": "american",
      "addr_state": "FL",
      "addr_city": "Winter Garden",
      "addr_postcode": "34787",
      "addr_street": "West Colonial Drive",
      "addr_housenumber": "12175",
      "value": 138.757576837745
    },
    {
      "id": 106364,
      "geometry": "POINT (-81.469263 28.444452)",
      "poi_name": "Gordon Ramsey\u2018s Fish & Chips",
      "osm_id": 8677113418,
      "amenity": "restaurant",
      "addr_state": "FL",
      "addr_city": "Orlando",
      "addr_postcode": "32819",
      "value": 138.757576837745
    },
    {
      "id": 106308,
      "geometry": "POINT (-81.619799 28.26289)",
      "poi_name": "China One",
      "osm_id": 8672644571,
      "amenity": "restaurant",
      "cuisine": "chinese",
      "opening_hours": "Mo-Su 16:00-21:00",
      "website": "https://www.china1championsgate.com/",
      "delivery": "no",
      "addr_city": "ChampionsGate",
      "addr_postcode": "33896",
      "addr_street": "ChampionsGate Boulevard",
      "addr_housenumber": "8307",
      "value": 138.757576837745
    },
    {
      "id": 106642,
      "geometry": "POINT (-81.450882 28.474995)",
      "poi_name": "Vinito Ristorante",
      "osm_id": 8691985026,
      "amenity": "restaurant",
      "cuisine": "italian",
      "phone": "+1 407 354 0404",
      "addr_state": "FL",
      "addr_city": "Orlando",
      "addr_postcode": "32819",
      "addr_street": "International Drive",
      "value": 138.757576837745
    },
    {
      "id": 106660,
      "geometry": "POINT (-81.450808 28.475747)",
      "poi_name": "Asian Chao",
      "osm_id": 8693593370,
      "amenity": "restaurant",
      "cuisine": "asian",
      "phone": "+1 909 378 0094",
      "addr_state": "FL",
      "addr_city": "Orlando",
      "addr_postcode": "32819",
      "addr_street": "International Drive",
      "value": 138.757576837745
    },
    {
      "id": 110467,
      "geometry": "POINT (-81.357053 28.597544)",
      "poi_name": "The Coop",
      "osm_id": 3704332799,
      "amenity": "restaurant",
      "cuisine": "regional",
      "takeaway": "yes",
      "addr_state": "FL",
      "addr_city": "Winter Park",
      "addr_postcode": "32789",
      "addr_street": "Morse Boulevard",
      "addr_housenumber": "610",
      "value": 138.757576837745
    },
    {
      "id": 113789,
      "geometry": "POINT (-81.365321 28.552929)",
      "poi_name": "Little Saigon Restaurant",
      "osm_id": 3846680191,
      "amenity": "restaurant",
      "cuisine": "asian",
      "opening_hours": "Mo-Sa 10:00-20:00",
      "website": "https://www.littlesaigonrestaurant.com/",
      "addr_state": "FL",
      "addr_city": "Orlando",
      "addr_postcode": "32803",
      "addr_street": "East Colonial Drive",
      "addr_housenumber": "1106",
      "value": 138.757576837745
    },
    {
      "id": 121455,
      "geometry": "POINT (-81.599418 28.486927)",
      "poi_name": "Marco's Pizza",
      "osm_id": 6762580690,
      "amenity": "restaurant",
      "cuisine": "pizza",
      "outdoor_seating": "yes",
      "addr_state": "FL",
      "addr_city": "Windermere",
      "addr_postcode": "34786",
      "addr_street": "Bridgewater Crossings Boulevard",
      "addr_housenumber": "14387",
      "value": 138.757576837745
    },
    {
      "id": 121201,
      "geometry": "POINT (-81.617314 28.261118)",
      "poi_name": "4 Corners Tavern",
      "osm_id": 6746213428,
      "amenity": "restaurant",
      "website": "https://www.4cornerstavern.com/",
      "addr_city": "ChampionsGate",
      "addr_postcode": "33896",
      "addr_street": "ChampionsGate Boulevard",
      "addr_housenumber": "8250",
      "value": 138.757576837745
    },
    {
      "id": 121202,
      "geometry": "POINT (-81.617853 28.261203)",
      "poi_name": "Tijuana Flats",
      "osm_id": 6746213429,
      "amenity": "restaurant",
      "cuisine": "mexican",
      "opening_hours": "Mo,Su 11:00-21:00; Tu-Sa 11:00-22:00",
      "addr_city": "ChampionsGate",
      "addr_postcode": "33896",
      "addr_street": "ChampionsGate Boulevard",
      "addr_housenumber": "8274",
      "value": 138.757576837745
    },
    {
      "id": 122127,
      "geometry": "POINT (-81.496905 28.450417)",
      "poi_name": "Slate",
      "osm_id": 6789337625,
      "amenity": "restaurant",
      "cuisine": "american",
      "opening_hours": "Mo-Th 16:30-22:00; Fr 16:30-23:00; Sa 11:00-15:00, 16:30-23:00; Su 11:00-15:00, 16:30-21:00",
      "website": "https://slateorlando.com",
      "phone": "+1 407-500-7528",
      "takeaway": "yes",
      "outdoor_seating": "yes",
      "toilets": "yes",
      "addr_state": "FL",
      "addr_city": "Orlando",
      "addr_postcode": "32819",
      "addr_street": "Sand Lake Road",
      "addr_housenumber": "8323 West",
      "value": 138.757576837745
    },
    {
      "id": 122002,
      "geometry": "POINT (-81.627694 28.4749)",
      "poi_name": "The Great Greek",
      "osm_id": 6783630405,
      "amenity": "restaurant",
      "cuisine": "greek",
      "addr_state": "FL",
      "addr_city": "Winter Garden",
      "addr_postcode": "34787",
      "addr_street": "New Independence Parkway",
      "addr_housenumber": "16045",
      "value": 138.757576837745
    },
    {
      "id": 122003,
      "geometry": "POINT (-81.627811 28.473912)",
      "poi_name": "Planet Smoothie",
      "osm_id": 6783631694,
      "amenity": "restaurant",
      "addr_state": "FL",
      "addr_city": "Winter Garden",
      "addr_postcode": "34787",
      "addr_street": "New Independence Parkway",
      "addr_housenumber": "16412",
      "value": 138.757576837745
    },
    {
      "id": 121873,
      "geometry": "POINT (-81.627324 28.473936)",
      "poi_name": "The Pizza Press",
      "osm_id": 6781044637,
      "amenity": "restaurant",
      "cuisine": "pizza",
      "addr_state": "FL",
      "addr_city": "Winter Garden",
      "addr_postcode": "34787",
      "addr_street": "New Independence Parkway",
      "addr_housenumber": "16406",
      "value": 138.757576837745
    },
    {
      "id": 121876,
      "geometry": "POINT (-81.628536 28.473908)",
      "poi_name": "Bosphorus Turkish Cuisine",
      "osm_id": 6781070031,
      "amenity": "restaurant",
      "cuisine": "turkish",
      "outdoor_seating": "yes",
      "addr_state": "FL",
      "addr_city": "Winter Garden",
      "addr_postcode": "34787",
      "addr_street": "New Independence Parkway",
      "addr_housenumber": "16418",
      "value": 138.757576837745
    },
    {
      "id": 121877,
      "geometry": "POINT (-81.62805 28.473914)",
      "poi_name": "The French Cafe",
      "osm_id": 6781073202,
      "amenity": "restaurant",
      "cuisine": "french",
      "addr_state": "FL",
      "addr_city": "Winter Garden",
      "addr_postcode": "34787",
      "addr_street": "New Independence Parkway",
      "addr_housenumber": "16412",
      "value": 138.757576837745
    },
    {
      "id": 122211,
      "geometry": "POINT (-81.580932 28.478846)",
      "poi_name": "The French Cafe",
      "osm_id": 6793145576,
      "amenity": "restaurant",
      "cuisine": "french",
      "wheelchair": "yes",
      "addr_state": "FL",
      "addr_city": "Windermere",
      "addr_postcode": "34786",
      "addr_street": "Winter Garden Vineland Road",
      "addr_housenumber": "5855",
      "value": 138.757576837745
    },
    {
      "id": 122215,
      "geometry": "POINT (-81.581091 28.478843)",
      "poi_name": "Clean Juice",
      "osm_id": 6793166911,
      "amenity": "restaurant",
      "cuisine": "juice",
      "wheelchair": "limited",
      "addr_state": "FL",
      "addr_city": "Windermere",
      "addr_postcode": "34786",
      "addr_street": "Winter Garden Vineland Road",
      "addr_housenumber": "5855",
      "value": 138.757576837745
    },
    {
      "id": 123816,
      "geometry": "POINT (-81.471469 28.440616)",
      "poi_name": "Taj Mahal",
      "osm_id": 6880318008,
      "amenity": "restaurant",
      "cuisine": "indian",
      "opening_hours": "Mo-Su 15:00-23:00",
      "phone": "+1-407-248-6565",
      "addr_state": "FL",
      "addr_city": "Orlando",
      "addr_postcode": "32819",
      "addr_street": "International Drive",
      "addr_housenumber": "8554",
      "value": 138.757576837745
    },
    {
      "id": 125578,
      "geometry": "POINT (-81.533333 28.330431)",
      "poi_name": "Buca di Beppo",
      "osm_id": 6965320640,
      "amenity": "restaurant",
      "cuisine": "italian",
      "internet_access": "no",
      "outdoor_seating": "yes",
      "addr_state": "FL",
      "addr_city": "Celebration",
      "addr_postcode": "34747",
      "addr_street": "W Irlo Bronson Memorial Hwy",
      "addr_housenumber": "6282",
      "value": 138.757576837745
    },
    {
      "id": 141338,
      "geometry": "POINT (-81.350466 28.593736)",
      "poi_name": "GRATO Italian Kitchen",
      "osm_id": 6281999239,
      "amenity": "restaurant",
      "cuisine": "italian",
      "opening_hours": "We-Sa 11:30-22:00; Su 11:30-21:00",
      "website": "https://gratorestaurants.com/",
      "phone": "+1-407-636-7222",
      "addr_state": "FL",
      "addr_city": "Winter Park",
      "addr_postcode": "32789",
      "addr_street": "South Park Avenue",
      "addr_housenumber": "528",
      "value": 138.757576837745
    },
    {
      "id": 133345,
      "geometry": "POINT (-81.46281 28.41774)",
      "poi_name": "Laguna Restaurant & Bar",
      "osm_id": 9989161721,
      "amenity": "restaurant",
      "cuisine": "pizza;sandwich;salad;steak;american",
      "opening_hours": "Mo-Su 07:00-23:00",
      "website": "https://www.dtresortorlando.com/orlando-restaurants",
      "phone": "+1 321-978-9380",
      "addr_state": "FL",
      "addr_city": "Orlando",
      "addr_postcode": "32821",
      "addr_street": "International Drive",
      "addr_housenumber": "10100",
      "value": 138.757576837745
    },
    {
      "id": 135754,
      "geometry": "POINT (-81.470054 28.431679)",
      "poi_name": "Kavas Tacos",
      "osm_id": 11534858103,
      "amenity": "restaurant",
      "cuisine": "mexican",
      "opening_hours": "Mo-Th, Su 11:30-22:00; Fr, Sa 11:30-23:00",
      "website": "https://kavastacos.com/",
      "phone": "+1-407-776-2027",
      "addr_state": "FL",
      "addr_city": "Orlando",
      "addr_postcode": "32819",
      "addr_street": "International Drive",
      "addr_housenumber": "9101",
      "value": 138.757576837745
    },
    {
      "id": 136671,
      "geometry": "POINT (-81.590757 28.564363)",
      "poi_name": "Bento Sushi + Poke",
      "osm_id": 11596081109,
      "amenity": "restaurant",
      "cuisine": "sushi",
      "website": "http://eatatbento.com/",
      "phone": "407-347-5549",
      "addr_state": "FL",
      "addr_city": "Winter Garden",
      "addr_postcode": "34787",
      "addr_street": "West Plant St.",
      "addr_housenumber": "426",
      "value": 138.757576837745
    },
    {
      "id": 146430,
      "geometry": "POINT (-81.608326 28.345506)",
      "poi_name": "Estefan Kitchen Orlando",
      "osm_id": 7441962661,
      "amenity": "restaurant",
      "cuisine": "cuban",
      "opening_hours": "Tu-Th 16:00-23:00; Fr-Su 16:00-02:00",
      "website": "https://estefankitchenorlando.com/",
      "phone": "+1-407-828-0999",
      "addr_state": "FL",
      "addr_city": "Kissimmee",
      "addr_postcode": "34747",
      "addr_street": "Margaritaville Boulevard",
      "addr_housenumber": "3269",
      "value": 138.757576837745
    },
    {
      "id": 152396,
      "geometry": "POINT (-81.376547 28.54808)",
      "poi_name": "City Diner",
      "osm_id": 4142734111,
      "amenity": "restaurant",
      "website": "http://www.citydinerorlando.com",
      "addr_state": "FL",
      "addr_city": "Orlando",
      "addr_postcode": "32801",
      "addr_street": "Magnolia Avenue",
      "addr_housenumber": "411",
      "value": 138.757576837745
    },
    {
      "id": 161363,
      "geometry": "POINT (-81.405009 28.409318)",
      "poi_name": "Junior Columbian Burger",
      "osm_id": 4878788284,
      "amenity": "restaurant",
      "cuisine": "burger",
      "addr_state": "FL",
      "addr_city": "Orlando",
      "addr_postcode": "32837",
      "addr_street": "South Orange Blossom Trail",
      "addr_housenumber": "10910",
      "value": 138.757576837745
    },
    {
      "id": 161401,
      "geometry": "POINT (-81.404003 28.427926)",
      "poi_name": "To Cash Restaurant",
      "osm_id": 4880210449,
      "amenity": "restaurant",
      "addr_state": "FL",
      "addr_city": "Orlando",
      "addr_street": "South Orange Blossom Trail",
      "addr_housenumber": "9251",
      "value": 138.757576837745
    },
    {
      "id": 165941,
      "geometry": "POINT (-81.372334 28.542511)",
      "poi_name": "Osphere",
      "osm_id": 9566722057,
      "amenity": "restaurant",
      "cuisine": "american",
      "wheelchair": "yes",
      "opening_hours": "11:00-22:00",
      "addr_state": "FL",
      "addr_city": "Orlando",
      "addr_postcode": "32801",
      "addr_street": "East Central Boulevard",
      "addr_housenumber": "470",
      "value": 138.757576837745
    },
    {
      "id": 166733,
      "geometry": "POINT (-81.458042 28.503706)",
      "poi_name": "Wing House",
      "osm_id": 309780519,
      "amenity": "restaurant",
      "wheelchair": "yes",
      "addr_city": "Orlando",
      "addr_postcode": "32811",
      "addr_street": "Kirkman Road",
      "addr_housenumber": "3789",
      "value": 138.757576837745
    },
    {
      "id": 168878,
      "geometry": "POINT (-81.529139 28.553262)",
      "poi_name": "Texas Roadhouse",
      "osm_id": 2283523207,
      "amenity": "restaurant",
      "cuisine": "steak_house",
      "wheelchair": "yes",
      "internet_access": "no",
      "takeaway": "no",
      "outdoor_seating": "yes",
      "delivery": "no",
      "addr_city": "Orlando",
      "value": 138.757576837745
    },
    {
      "id": 178655,
      "geometry": "POINT (-81.365664 28.55203)",
      "poi_name": "Kaya",
      "osm_id": 10733937005,
      "amenity": "restaurant",
      "cuisine": "filipino;fine_dining",
      "opening_hours": "Tu-Sa 17:00-22:00",
      "website": "https://www.kayaorlando.com",
      "internet_access": "wlan",
      "addr_state": "FL",
      "addr_city": "Orlando",
      "addr_postcode": "32803",
      "addr_street": "North Thornton Avenue",
      "addr_housenumber": "618",
      "value": 138.757576837745
    },
    {
      "id": 180349,
      "geometry": "POINT (-81.45268 28.55105)",
      "poi_name": "OEC Taiwanese Cuisine",
      "osm_id": 10798192670,
      "amenity": "restaurant",
      "cuisine": "asian;taiwanese",
      "wheelchair": "yes",
      "opening_hours": "Tu-Su 11:00-21:00",
      "website": "https://oectaiwanesecuisinefl.kwickmenu.com",
      "phone": "+1-407-299-4256",
      "takeaway": "yes",
      "delivery": "yes",
      "toilets": "yes",
      "addr_state": "FL",
      "addr_city": "Orlando",
      "addr_postcode": "32808",
      "addr_street": "West Colonial Drive",
      "addr_housenumber": "5270",
      "value": 138.757576837745
    },
    {
      "id": 180077,
      "geometry": "POINT (-81.350494 28.593781)",
      "poi_name": "Farm & Haus Park Avenue",
      "osm_id": 10789443676,
      "amenity": "restaurant",
      "cuisine": "breakfast;brunch;sandwich",
      "description": "Farm & Haus is a modern daytime cafe that makes feel-good-food using simple, made from scratch recipes with quality and often local ingredients.",
      "opening_hours": "Tu-Su 08:00-15:00",
      "website": "https://www.farmandhaus.com/",
      "phone": "+1-407-790-4371",
      "addr_state": "FL",
      "addr_city": "Winter Park",
      "addr_postcode": "32789",
      "addr_street": "South Park Avenue",
      "addr_housenumber": "526",
      "value": 138.757576837745
    },
    {
      "id": 180355,
      "geometry": "POINT (-81.398329 28.472291)",
      "poi_name": "Star Korean BBQ",
      "osm_id": 10798197977,
      "amenity": "restaurant",
      "cuisine": "korean",
      "wheelchair": "yes",
      "opening_hours": "Mo-Sa 11:30-15:00, 16:00-22:00",
      "website": "https://starkbbq.com",
      "phone": "+1-407-412-6647",
      "takeaway": "yes",
      "outdoor_seating": "yes",
      "delivery": "yes",
      "toilets": "yes",
      "addr_state": "FL",
      "addr_city": "Orlando",
      "addr_postcode": "32809",
      "addr_street": "West Oak Ridge Road",
      "addr_housenumber": "1400",
      "value": 138.757576837745
    },
    {
      "id": 180359,
      "geometry": "POINT (-81.426204 28.44293)",
      "poi_name": "Sushi Tomi",
      "osm_id": 10798226091,
      "amenity": "restaurant",
      "cuisine": "sushi;japanese",
      "opening_hours": "Mo-Fr 11:30-14:00, 17:30-21:00; Sa 17:30-21:00",
      "website": "https://sushitomiorlando.com",
      "phone": "+1-407-352-8635",
      "takeaway": "yes",
      "outdoor_seating": "no",
      "toilets": "yes",
      "addr_state": "FL",
      "addr_city": "Orlando",
      "addr_postcode": "32819",
      "addr_street": "South John Young Parkway",
      "addr_housenumber": "8463",
      "value": 138.757576837745
    },
    {
      "id": 180361,
      "geometry": "POINT (-81.395433 28.469187)",
      "poi_name": "Gully Urban Indian eatery",
      "osm_id": 10798249232,
      "amenity": "restaurant",
      "cuisine": "indian",
      "opening_hours": "Su-Th 11:30-16:00, 17:00-21:30; Fr-Sa 11:30-16:00, 17:00-22:00",
      "website": "https://gullyfl.com",
      "phone": "+1-407-986-9864",
      "takeaway": "yes",
      "toilets": "yes",
      "addr_state": "FL",
      "addr_city": "Orlando",
      "addr_postcode": "32809",
      "addr_street": "Doss Avenue",
      "addr_housenumber": "1155",
      "value": 138.757576837745
    },
    {
      "id": 180264,
      "geometry": "POINT (-81.36912 28.542462)",
      "poi_name": "Ootoya Sushi Lounge",
      "osm_id": 10796673436,
      "amenity": "restaurant",
      "cuisine": "japanese;sushi",
      "wheelchair": "yes",
      "opening_hours": "Mo-Th 11:30-14:45,16:30-22:00, Fr 11:30-14:45,16:30-23:00, Sa 12:00-23:00, Su 12:00-22:00",
      "website": "https://ootoyasushilounge.com",
      "phone": "(407) 930-2002",
      "outdoor_seating": "yes",
      "delivery": "yes",
      "toilets": "yes",
      "addr_state": "FL",
      "addr_city": "Orlando",
      "addr_postcode": "32801",
      "addr_street": "E Central Boulevard",
      "addr_housenumber": "621",
      "value": 138.757576837745
    },
    {
      "id": 180323,
      "geometry": "POINT (-81.429009 28.494441)",
      "poi_name": "Naradeva Thai Restaurant",
      "osm_id": 10798155546,
      "amenity": "restaurant",
      "cuisine": "thai;asian",
      "opening_hours": "Mo-Su 11:00-21:30",
      "website": "https://naradevathai.com",
      "phone": "+1-407-903-0300",
      "takeaway": "yes",
      "outdoor_seating": "no",
      "toilets": "yes",
      "addr_state": "FL",
      "addr_city": "Orlando",
      "addr_postcode": "32839",
      "addr_street": "Millenia Plaza Way",
      "addr_housenumber": "4696",
      "value": 138.757576837745
    },
    {
      "id": 180362,
      "geometry": "POINT (-81.375289 28.497433)",
      "poi_name": "The Waterfront",
      "osm_id": 10798251609,
      "amenity": "restaurant",
      "cuisine": "seafood",
      "opening_hours": "Mo-Th 07:00-22:00; Fr 07:00-23:00; Sa 11:00-23:00; Su 11:00-22:00",
      "website": "https://thewaterfrontorlando.com",
      "phone": "+1-407-866-0468",
      "takeaway": "yes",
      "delivery": "yes",
      "toilets": "yes",
      "addr_state": "FL",
      "addr_city": "Orlando",
      "addr_postcode": "32806",
      "addr_street": "South Orange Avenue",
      "addr_housenumber": "4201",
      "value": 138.757576837745
    },
    {
      "id": 180368,
      "geometry": "POINT (-81.45754 28.550973)",
      "poi_name": "Formosan Garden (aka Tammy's Teriyaki House)",
      "osm_id": 10798429666,
      "amenity": "restaurant",
      "cuisine": "asian;taiwanese;bubble_tea",
      "description": "Taiwanese restaurant.",
      "wheelchair": "yes",
      "opening_hours": "Mo-Sa 11:30-20:30",
      "website": "https://facebook.com/teriyakihousefl",
      "phone": "+1-321-281-8088",
      "takeaway": "yes",
      "toilets": "yes",
      "addr_state": "FL",
      "addr_city": "Orlando",
      "addr_postcode": "32808",
      "addr_street": "West Colonial Drive",
      "addr_housenumber": "5600",
      "value": 138.757576837745
    },
    {
      "id": 180369,
      "geometry": "POINT (-81.493644 28.450556)",
      "poi_name": "Dragonfly Robata Grill & Sushi",
      "osm_id": 10798488038,
      "amenity": "restaurant",
      "cuisine": "asian",
      "description": "Contemporary izakaya tapas-style dishes, sushi, & sake.",
      "opening_hours": "Su-Th 17:00-22:00; Fr-Sa 17:00-23:00",
      "website": "https://dragonflyrestaurants.com",
      "phone": "+1-407-370-3359",
      "takeaway": "yes",
      "outdoor_seating": "yes",
      "toilets": "yes",
      "addr_state": "FL",
      "addr_city": "Orlando",
      "addr_postcode": "32819",
      "addr_street": "Via Dellagio Way",
      "addr_housenumber": "7972",
      "value": 138.757576837745
    },
    {
      "id": 180371,
      "geometry": "POINT (-81.468455 28.445466)",
      "poi_name": "Hanamizuki",
      "osm_id": 10798635388,
      "amenity": "restaurant",
      "cuisine": "japanese",
      "opening_hours": "Tu-Sa 11:30-14:00, 17:00-22:30",
      "website": "https://hanamizuki.us",
      "phone": "+1-407-363-7200",
      "outdoor_seating": "no",
      "toilets": "yes",
      "addr_state": "FL",
      "addr_city": "Orlando",
      "addr_postcode": "32819",
      "addr_street": "International Drive",
      "addr_housenumber": "8255",
      "value": 138.757576837745
    },
    {
      "id": 183952,
      "geometry": "POINT (-81.362235 28.60154)",
      "poi_name": "Sakari",
      "osm_id": 10955440481,
      "amenity": "restaurant",
      "cuisine": "japanese;sushi",
      "addr_state": "FL",
      "addr_city": "Winter Park",
      "addr_postcode": "32789",
      "addr_street": "Orlando Avenue",
      "addr_housenumber": "510",
      "value": 138.757576837745
    },
    {
      "id": 186021,
      "geometry": "POINT (-81.613308 28.346278)",
      "poi_name": "LongHorn Steakhouse",
      "osm_id": 7903473923,
      "amenity": "restaurant",
      "cuisine": "steak_house",
      "opening_hours": "Mo-Su 11:00-23:00",
      "website": "https://longhornsteakhouse.com/",
      "phone": "14073901084",
      "addr_state": "FL",
      "addr_city": "Kissimmee",
      "addr_postcode": "34747",
      "addr_street": "Bronson Highway",
      "addr_housenumber": "8150",
      "value": 138.757576837745
    },
    {
      "id": 186022,
      "geometry": "POINT (-81.598114 28.338866)",
      "poi_name": "Buffalo Wild Wings",
      "osm_id": 7903473932,
      "amenity": "restaurant",
      "cuisine": "wings",
      "addr_state": "FL",
      "addr_city": "Kissimmee",
      "addr_postcode": "34747",
      "addr_street": "Formosa Gardens Boulevard",
      "addr_housenumber": "3099",
      "value": 138.757576837745
    },
    {
      "id": 186023,
      "geometry": "POINT (-81.597247 28.339182)",
      "poi_name": "Red Lobster",
      "osm_id": 7903473933,
      "amenity": "restaurant",
      "cuisine": "seafood",
      "addr_state": "FL",
      "addr_city": "Kissimmee",
      "addr_postcode": "34747",
      "addr_street": "Bronson Highway",
      "addr_housenumber": "7780",
      "value": 138.757576837745
    },
    {
      "id": 186024,
      "geometry": "POINT (-81.594686 28.337086)",
      "poi_name": "Golden Corral",
      "osm_id": 7903474024,
      "amenity": "restaurant",
      "cuisine": "american;buffet",
      "addr_state": "FL",
      "addr_city": "Kissimmee",
      "addr_postcode": "34747",
      "addr_street": "West Irlo Bronson Memorial Highway",
      "addr_housenumber": "7702",
      "value": 138.757576837745
    },
    {
      "id": 186025,
      "geometry": "POINT (-81.592197 28.336982)",
      "poi_name": "Denny's",
      "osm_id": 7903474136,
      "amenity": "restaurant",
      "cuisine": "american",
      "opening_hours": "24/7",
      "addr_state": "FL",
      "addr_city": "Kissimmee",
      "addr_postcode": "34747",
      "addr_street": "West Irlo Bronson Memorial Highway",
      "addr_housenumber": "7631",
      "value": 138.757576837745
    },
    {
      "id": 193459,
      "geometry": "POINT (-81.453245 28.461569)",
      "poi_name": "Camila's Restaurante Brasileiro",
      "osm_id": 1540263458,
      "amenity": "restaurant",
      "wheelchair": "yes",
      "addr_state": "FL",
      "addr_city": "Orlando",
      "addr_street": "International Drive",
      "addr_housenumber": "5458",
      "value": 138.757576837745
    },
    {
      "id": 193460,
      "geometry": "POINT (-81.454762 28.462042)",
      "poi_name": "Gateway to India Restaurant",
      "osm_id": 1540263486,
      "amenity": "restaurant",
      "addr_state": "FL",
      "addr_city": "Orlando",
      "addr_street": "International Drive",
      "addr_housenumber": "5532",
      "value": 138.757576837745
    },
    {
      "id": 193463,
      "geometry": "POINT (-81.456719 28.461377)",
      "poi_name": "Brazil 24 Hours Brazilian Steak House",
      "osm_id": 1540263555,
      "amenity": "restaurant",
      "addr_state": "FL",
      "addr_city": "Orlando",
      "addr_street": "International Drive",
      "addr_housenumber": "5648",
      "value": 138.757576837745
    },
    {
      "id": 193464,
      "geometry": "POINT (-81.457027 28.461366)",
      "poi_name": "Bill Wong's Famous Super Buffet",
      "osm_id": 1540263564,
      "amenity": "restaurant",
      "addr_state": "FL",
      "addr_city": "Orlando",
      "addr_street": "International Drive",
      "addr_housenumber": "5668",
      "value": 138.757576837745
    },
    {
      "id": 193466,
      "geometry": "POINT (-81.458021 28.461452)",
      "poi_name": "Aashirwad Indian Cuisine",
      "osm_id": 1540263605,
      "amenity": "restaurant",
      "addr_state": "FL",
      "addr_city": "Orlando",
      "addr_street": "International Drive",
      "addr_housenumber": "5748",
      "value": 138.757576837745
    },
    {
      "id": 193467,
      "geometry": "POINT (-81.458022 28.461359)",
      "poi_name": "Pio Pio Pollos A La Brasa",
      "osm_id": 1540263606,
      "amenity": "restaurant",
      "addr_state": "FL",
      "addr_city": "Orlando",
      "addr_street": "International Drive",
      "addr_housenumber": "5752",
      "value": 138.757576837745
    },
    {
      "id": 193574,
      "geometry": "POINT (-81.461942 28.420243)",
      "poi_name": "Ciao Italia Ristorante",
      "osm_id": 1546493927,
      "amenity": "restaurant",
      "addr_state": "FL",
      "addr_city": "Orlando",
      "addr_street": "Westwood Boulevard",
      "addr_housenumber": "6149",
      "value": 138.757576837745
    },
    {
      "id": 193576,
      "geometry": "POINT (-81.461391 28.420243)",
      "poi_name": "Passage to India",
      "osm_id": 1546493979,
      "amenity": "restaurant",
      "addr_state": "FL",
      "addr_city": "Orlando",
      "addr_street": "Westwood Boulevard",
      "addr_housenumber": "6129",
      "value": 138.757576837745
    },
    {
      "id": 193524,
      "geometry": "POINT (-81.457921 28.463848)",
      "poi_name": "Red Bamboo Thai Restaurant",
      "osm_id": 1543100122,
      "amenity": "restaurant",
      "addr_state": "FL",
      "addr_city": "Orlando",
      "addr_street": "Kirkman Road",
      "addr_housenumber": "6803",
      "value": 138.757576837745
    },
    {
      "id": 193469,
      "geometry": "POINT (-81.467642 28.461356)",
      "poi_name": "Great Western Steaks & Buffet",
      "osm_id": 1540263672,
      "amenity": "restaurant",
      "addr_state": "FL",
      "addr_city": "Orlando",
      "addr_street": "International Drive",
      "addr_housenumber": "6315",
      "value": 138.757576837745
    },
    {
      "id": 193470,
      "geometry": "POINT (-81.472283 28.456795)",
      "poi_name": "Nile Ethiopian Cuisine",
      "osm_id": 1540263762,
      "amenity": "restaurant",
      "addr_state": "FL",
      "addr_city": "Orlando",
      "addr_street": "International Drive",
      "addr_housenumber": "7040",
      "value": 138.757576837745
    },
    {
      "id": 193471,
      "geometry": "POINT (-81.47196 28.456785)",
      "poi_name": "Crazy Grill Brazilian Steakhouse",
      "osm_id": 1540263766,
      "amenity": "restaurant",
      "addr_state": "FL",
      "addr_city": "Orlando",
      "addr_street": "International Drive",
      "addr_housenumber": "7048",
      "value": 138.757576837745
    },
    {
      "id": 193472,
      "geometry": "POINT (-81.471411 28.455478)",
      "poi_name": "The Juicy Crab",
      "osm_id": 1540263833,
      "amenity": "restaurant",
      "addr_state": "FL",
      "addr_city": "Orlando",
      "addr_street": "International Drive",
      "addr_housenumber": "7308",
      "value": 138.757576837745
    },
    {
      "id": 193473,
      "geometry": "POINT (-81.471407 28.455182)",
      "poi_name": "Shalimar Classic Indian",
      "osm_id": 1540263844,
      "amenity": "restaurant",
      "addr_state": "FL",
      "addr_city": "Orlando",
      "addr_street": "International Drive",
      "addr_housenumber": "7342",
      "value": 138.757576837745
    },
    {
      "id": 193474,
      "geometry": "POINT (-81.470396 28.453772)",
      "poi_name": "Punjab Indian Restaurant",
      "osm_id": 1540263888,
      "amenity": "restaurant",
      "addr_state": "FL",
      "addr_city": "Orlando",
      "addr_street": "International Drive",
      "addr_housenumber": "7451",
      "value": 138.757576837745
    },
    {
      "id": 193475,
      "geometry": "POINT (-81.470382 28.453523)",
      "poi_name": "Sizler Indian Restaurant",
      "osm_id": 1540263911,
      "amenity": "restaurant",
      "addr_state": "FL",
      "addr_city": "Orlando",
      "addr_street": "International Drive",
      "addr_housenumber": "7511",
      "value": 138.757576837745
    },
    {
      "id": 193477,
      "geometry": "POINT (-81.471628 28.444991)",
      "poi_name": "Twin Peaks",
      "osm_id": 1540264072,
      "amenity": "restaurant",
      "cuisine": "american",
      "website": "https://twinpeaksrestaurant.com/locations/i-drive-fl",
      "phone": "+1 407 680 2811",
      "addr_state": "FL",
      "addr_city": "Orlando",
      "addr_postcode": "32819",
      "addr_street": "International Drive",
      "addr_housenumber": "8350",
      "value": 138.757576837745
    },
    {
      "id": 193478,
      "geometry": "POINT (-81.471441 28.440704)",
      "poi_name": "Taj Mahal",
      "osm_id": 1540264108,
      "amenity": "restaurant",
      "cuisine": "pizza",
      "opening_hours": "Th-Tu 17:00-23:30",
      "addr_state": "FL",
      "addr_city": "Orlando",
      "addr_postcode": "32819",
      "addr_street": "International Drive",
      "addr_housenumber": "8550",
      "value": 138.757576837745
    },
    {
      "id": 193615,
      "geometry": "POINT (-81.48494 28.450706)",
      "poi_name": "Vines Grille & Wine Bar",
      "osm_id": 1548125171,
      "amenity": "restaurant",
      "addr_state": "FL",
      "addr_city": "Orlando",
      "addr_street": "Sand Lake Road",
      "addr_housenumber": "7533",
      "value": 138.757576837745
    },
    {
      "id": 193616,
      "geometry": "POINT (-81.485648 28.450718)",
      "poi_name": "The Melting Pot",
      "osm_id": 1548125244,
      "amenity": "restaurant",
      "cuisine": "fondue",
      "addr_state": "FL",
      "addr_city": "Orlando",
      "addr_street": "Sand Lake Road",
      "addr_housenumber": "7549",
      "value": 138.757576837745
    },
    {
      "id": 193479,
      "geometry": "POINT (-81.471498 28.440523)",
      "poi_name": "Tony Roma's",
      "osm_id": 1540264121,
      "amenity": "restaurant",
      "cuisine": "barbecue",
      "addr_state": "FL",
      "addr_city": "Orlando",
      "addr_street": "International Drive",
      "addr_housenumber": "8560",
      "value": 138.757576837745
    },
    {
      "id": 193617,
      "geometry": "POINT (-81.476347 28.452749)",
      "poi_name": "Fresco Cucina Italiana",
      "osm_id": 1548125552,
      "amenity": "restaurant",
      "addr_state": "FL",
      "addr_city": "Orlando",
      "addr_street": "Turkey Lake Road",
      "addr_housenumber": "7721",
      "value": 138.757576837745
    },
    {
      "id": 193630,
      "geometry": "POINT (-81.485042 28.450711)",
      "poi_name": "Steak On Fire | Steak Up",
      "osm_id": 1549958534,
      "amenity": "restaurant",
      "cuisine": "brazilian;steak_house",
      "wheelchair": "yes",
      "opening_hours": "Fr-Sa 11:00-22:00; Su-Th 11:00-21:00",
      "takeaway": "yes",
      "addr_state": "FL",
      "addr_city": "Orlando",
      "addr_postcode": "32819",
      "addr_street": "West Sand Lake Road",
      "addr_housenumber": "7541",
      "value": 138.757576837745
    },
    {
      "id": 193650,
      "geometry": "POINT (-81.501053 28.384197)",
      "poi_name": "Havana's Cafe",
      "osm_id": 1551588989,
      "amenity": "restaurant",
      "cuisine": "cuban",
      "website": "http://havanascubancuisine.com/",
      "addr_state": "FL",
      "addr_city": "Orlando",
      "addr_postcode": "32836",
      "addr_street": "Palm Parkway",
      "addr_housenumber": "8544",
      "value": 138.757576837745
    },
    {
      "id": 193651,
      "geometry": "POINT (-81.501811 28.384811)",
      "poi_name": "Cicis",
      "osm_id": 1551589025,
      "amenity": "restaurant",
      "cuisine": "pizza;buffet",
      "website": "https://www.cicis.com/",
      "addr_state": "FL",
      "addr_city": "Orlando",
      "addr_postcode": "32836",
      "addr_street": "Palm Parkway",
      "addr_housenumber": "8586",
      "value": 138.757576837745
    },
    {
      "id": 193652,
      "geometry": "POINT (-81.503974 28.386091)",
      "poi_name": "Sofrito Latin Cafe",
      "osm_id": 1551589054,
      "amenity": "restaurant",
      "cuisine": "Latin",
      "wheelchair": "limited",
      "website": "https://www.sofritocafe.com",
      "phone": "+1 407-778-4205",
      "takeaway": "yes",
      "outdoor_seating": "yes",
      "addr_state": "FL",
      "addr_city": "Orlando",
      "addr_street": "Palm Parkway",
      "addr_housenumber": "8607",
      "value": 138.757576837745
    },
    {
      "id": 194251,
      "geometry": "POINT (-81.326497 28.567827)",
      "poi_name": "La Bella Luna",
      "osm_id": 10267427686,
      "amenity": "restaurant",
      "opening_hours": "Mo 17:00-21:00,Tu,We 17:00-22:00,Th-Sa 12:00-20:00,Su 12:00-21:00",
      "website": "https://labellalunafl.com",
      "phone": "+1-407-895-0025",
      "addr_state": "FL",
      "addr_city": "Orlando",
      "addr_postcode": "32814",
      "addr_street": "New Broad Street",
      "addr_housenumber": "4886",
      "value": 138.757576837745
    },
    {
      "id": 199160,
      "geometry": "POINT (-81.378695 28.541646)",
      "poi_name": "Ichiban",
      "osm_id": 940666495,
      "amenity": "restaurant",
      "addr_state": "FL",
      "addr_city": "Orlando",
      "addr_street": "South Orange Avenue",
      "addr_housenumber": "19",
      "value": 138.757576837745
    },
    {
      "id": 199162,
      "geometry": "POINT (-81.378924 28.543294)",
      "poi_name": "Fat Daddy's Grill",
      "osm_id": 940689499,
      "amenity": "restaurant",
      "addr_state": "FL",
      "addr_city": "Orlando",
      "addr_street": "North Orange Avenue",
      "addr_housenumber": "63",
      "value": 138.757576837745
    },
    {
      "id": 199164,
      "geometry": "POINT (-81.378967 28.546992)",
      "poi_name": "Fratelli's Taste of Italy Restaurant",
      "osm_id": 940735085,
      "amenity": "restaurant",
      "addr_state": "FL",
      "addr_city": "Orlando",
      "addr_street": "North Orange Avenue",
      "addr_housenumber": "373",
      "value": 138.757576837745
    },
    {
      "id": 199165,
      "geometry": "POINT (-81.378973 28.546416)",
      "poi_name": "Empire Szechuan",
      "osm_id": 940735101,
      "amenity": "restaurant",
      "addr_state": "FL",
      "addr_city": "Orlando",
      "addr_street": "North Orange Avenue",
      "addr_housenumber": "341",
      "value": 138.757576837745
    },
    {
      "id": 206147,
      "geometry": "POINT (-81.528232 28.5525)",
      "poi_name": "Toojay's",
      "osm_id": 7198087691,
      "amenity": "restaurant",
      "cuisine": "jewish",
      "opening_hours": "Mo-Su 09:00-21:00",
      "phone": "407-798-2000",
      "addr_state": "FL",
      "addr_city": "Ocoee",
      "addr_postcode": "34761",
      "addr_street": "West Colonial Drive",
      "addr_housenumber": "10185",
      "value": 138.757576837745
    },
    {
      "id": 202866,
      "geometry": "POINT (-81.371216 28.513278)",
      "poi_name": "Tin and Taco",
      "osm_id": 7053066430,
      "amenity": "restaurant",
      "cuisine": "mexican",
      "opening_hours": "Mo-Th, Su 11:00-22:00; Fr, Sa 11:00-24:00",
      "website": "https://tinandtaco.com",
      "phone": "+1-407-734-5988",
      "takeaway": "yes",
      "delivery": "yes",
      "toilets": "yes",
      "addr_state": "FL",
      "addr_city": "Orlando",
      "addr_postcode": "32806",
      "addr_street": "East Michigan Street",
      "addr_housenumber": "419",
      "value": 138.757576837745
    },
    {
      "id": 205894,
      "geometry": "POINT (-81.618616 28.26327)",
      "poi_name": "The Fish & Chip Shop",
      "osm_id": 7185845690,
      "amenity": "restaurant",
      "cuisine": "english",
      "opening_hours": "Mo-Sa 11:00-21:00",
      "phone": "1 (321) 401-4111",
      "addr_state": "FL",
      "addr_city": "ChampionsGate",
      "addr_postcode": "33896",
      "addr_street": "ChampionsGate Boulevard",
      "addr_housenumber": "8281",
      "value": 138.757576837745
    },
    {
      "id": 207152,
      "geometry": "POINT (-81.728042 28.545535)",
      "poi_name": "Robota Japanese Steakhouse & Sushi",
      "osm_id": 7238887285,
      "amenity": "restaurant",
      "opening_hours": "Mo-Fr 11:00-21:30; Sa,Su 11:00-22:00",
      "website": "https://www.robatajapanesesteakhouse.com/",
      "addr_city": "Clermont",
      "addr_postcode": "34711",
      "addr_street": "Oakley Seaver Drive",
      "addr_housenumber": "1500",
      "value": 138.757576837745
    },
    {
      "id": 211478,
      "geometry": "POINT (-81.54084 28.318508)",
      "poi_name": "Wonderland Cookie Dough Co.",
      "osm_id": 5159654284,
      "amenity": "restaurant",
      "cuisine": "cookie_dough",
      "opening_hours": "Mo-Su 10:00-22:00",
      "website": "https://wonderlandcookiedough.com/",
      "phone": "407-964-1474",
      "takeaway": "yes",
      "outdoor_seating": "no",
      "addr_state": "FL",
      "addr_city": "Celebration",
      "addr_postcode": "34747",
      "addr_street": "Market Street",
      "addr_housenumber": "606",
      "value": 138.757576837745
    },
    {
      "id": 212163,
      "geometry": "POINT (-81.349358 28.538924)",
      "poi_name": "Market On South",
      "osm_id": 5194583683,
      "amenity": "restaurant",
      "cuisine": "dessert;sandwich",
      "opening_hours": "Mo 09:00-18:00; We-Th 08:00-20:00; Fr-Su 08:00-21:00",
      "website": "https://mainhousemarket.com",
      "phone": "+1-407-919-5402",
      "addr_state": "FL",
      "addr_city": "Orlando",
      "addr_postcode": "32803",
      "addr_street": "East South Street",
      "addr_housenumber": "2603",
      "value": 138.757576837745
    },
    {
      "id": 215891,
      "geometry": "POINT (-81.482147 28.332427)",
      "poi_name": "Taste of Punjab",
      "osm_id": 5317348960,
      "amenity": "restaurant",
      "cuisine": "indian",
      "opening_hours": "Mo-Su 11:30-23:30",
      "website": "https://www.tasteofpunjaborlando.com/",
      "phone": "+1-407-507-3900",
      "addr_state": "FL",
      "addr_city": "Kissimmee",
      "addr_postcode": "34746",
      "addr_street": "West Irlo Bronson Memorial Highway",
      "addr_housenumber": "4980",
      "value": 138.757576837745
    },
    {
      "id": 221113,
      "geometry": "POINT (-81.485582 28.386222)",
      "poi_name": "China Spring",
      "osm_id": 10968086564,
      "amenity": "restaurant",
      "cuisine": "chinese",
      "addr_state": "FL",
      "addr_city": "Orlando",
      "addr_postcode": "32821",
      "addr_street": "Vineland Avenue",
      "addr_housenumber": "8123",
      "value": 138.757576837745
    },
    {
      "id": 220273,
      "geometry": "POINT (-81.452677 28.551265)",
      "poi_name": "Huong Viet",
      "osm_id": 9367889445,
      "amenity": "restaurant",
      "cuisine": "vietnamese",
      "description": "Vietnamese Cuisine",
      "addr_state": "FL",
      "addr_city": "Orlando",
      "value": 138.757576837745
    },
    {
      "id": 220298,
      "geometry": "POINT (-81.347612 28.552327)",
      "poi_name": "Pho Vinh",
      "osm_id": 9368737018,
      "amenity": "restaurant",
      "cuisine": "vietnamese",
      "addr_state": "FL",
      "addr_city": "Orlando",
      "value": 138.757576837745
    },
    {
      "id": 220299,
      "geometry": "POINT (-81.347591 28.552043)",
      "poi_name": "Pho Hoa",
      "osm_id": 9368737019,
      "amenity": "restaurant",
      "cuisine": "vietnamese",
      "addr_state": "FL",
      "addr_city": "Orlando",
      "value": 138.757576837745
    },
    {
      "id": 221114,
      "geometry": "POINT (-81.485775 28.386372)",
      "poi_name": "Boil Spot",
      "osm_id": 10968086567,
      "amenity": "restaurant",
      "cuisine": "hot_pot;asian",
      "addr_state": "FL",
      "addr_city": "Orlando",
      "addr_postcode": "32821",
      "addr_street": "Vineland Avenue",
      "addr_housenumber": "8133",
      "value": 138.757576837745
    },
    {
      "id": 221115,
      "geometry": "POINT (-81.485258 28.38622)",
      "poi_name": "Mia's Pizzeria",
      "osm_id": 10968086568,
      "amenity": "restaurant",
      "cuisine": "pizza",
      "addr_state": "FL",
      "addr_city": "Orlando",
      "addr_postcode": "32821",
      "addr_street": "Vineland Avenue",
      "addr_housenumber": "8113",
      "value": 138.757576837745
    },
    {
      "id": 221116,
      "geometry": "POINT (-81.485203 28.386216)",
      "poi_name": "Tokyo Sushi",
      "osm_id": 10968086569,
      "amenity": "restaurant",
      "cuisine": "sushi",
      "addr_state": "FL",
      "addr_city": "Orlando",
      "addr_postcode": "32821",
      "addr_street": "Vineland Avenue",
      "addr_housenumber": "8111",
      "value": 138.757576837745
    },
    {
      "id": 221117,
      "geometry": "POINT (-81.485434 28.386227)",
      "poi_name": "Q'Kenan",
      "osm_id": 10968086571,
      "amenity": "restaurant",
      "cuisine": "venezuelan",
      "wheelchair": "yes",
      "takeaway": "yes",
      "outdoor_seating": "yes",
      "toilets": "yes",
      "addr_state": "FL",
      "addr_city": "Orlando",
      "addr_postcode": "32821",
      "addr_street": "Vineland Avenue",
      "addr_housenumber": "8119",
      "value": 138.757576837745
    },
    {
      "id": 222160,
      "geometry": "POINT (-81.365906 28.554253)",
      "poi_name": "EDOBOY - Standing sushi bar",
      "osm_id": 11007061165,
      "amenity": "restaurant",
      "cuisine": "sushi",
      "opening_hours": "Th-Mo 16:00-22:00",
      "website": "https://www.edoboysushi.com",
      "takeaway": "no",
      "outdoor_seating": "no",
      "delivery": "no",
      "addr_state": "FL",
      "addr_city": "Orlando",
      "addr_postcode": "32803",
      "addr_street": "North Thornton Avenue",
      "addr_housenumber": "728",
      "value": 138.757576837745
    },
    {
      "id": 222163,
      "geometry": "POINT (-81.362808 28.553293)",
      "poi_name": "The Moderne",
      "osm_id": 11007562599,
      "amenity": "restaurant",
      "cuisine": "japanese;korean;asian;tapas",
      "opening_hours": "Su-Th 17:00-01:00; Fr-Sa 17:00-02:00",
      "website": "https://www.themodernebar.com",
      "outdoor_seating": "yes",
      "toilets": "yes",
      "addr_state": "FL",
      "addr_city": "Orlando",
      "addr_postcode": "32803",
      "addr_street": "East Colonial Drive",
      "addr_housenumber": "1241",
      "value": 138.757576837745
    },
    {
      "id": 222143,
      "geometry": "POINT (-81.380329 28.540024)",
      "poi_name": "Birria1983",
      "osm_id": 11006848805,
      "amenity": "restaurant",
      "cuisine": "mexican",
      "opening_hours": "Su-Fr 11:00-22:00; Sa 18:00-22:00",
      "website": "https://orlandobirria.com",
      "phone": "+1-407-250-5924",
      "addr_state": "FL",
      "addr_city": "Orlando",
      "addr_postcode": "32801",
      "addr_street": "West Church Street",
      "addr_housenumber": "54",
      "value": 138.757576837745
    },
    {
      "id": 222150,
      "geometry": "POINT (-81.378382 28.540745)",
      "poi_name": "Nifty's Korean BBQ & Ramen",
      "osm_id": 11006916178,
      "amenity": "restaurant",
      "cuisine": "korean",
      "opening_hours": "Mo-Th 11:00-19:00; Fr 11:00-20:00; Sa 12:00-20:00; Su 12:00-19:00",
      "website": "https://niftykoreanbbqandramen.square.site",
      "phone": "+1-407-868-9259",
      "addr_state": "FL",
      "addr_city": "Orlando",
      "addr_postcode": "32801",
      "addr_street": "South Orange Avenue",
      "addr_housenumber": "145",
      "value": 138.757576837745
    },
    {
      "id": 222152,
      "geometry": "POINT (-81.380136 28.54045)",
      "poi_name": "Artisan's Table",
      "osm_id": 11006933770,
      "amenity": "restaurant",
      "cuisine": "american",
      "opening_hours": "We-Su 11:00-15:00, 16:30-21:00",
      "website": "https://artisanstableorlando.com",
      "phone": "+1-407-730-7499",
      "addr_state": "FL",
      "addr_city": "Orlando",
      "addr_postcode": "32801",
      "addr_street": "West Church Street",
      "addr_housenumber": "55",
      "value": 138.757576837745
    },
    {
      "id": 222153,
      "geometry": "POINT (-81.379194 28.540068)",
      "poi_name": "Solita Tacos & Margaritas",
      "osm_id": 11006935745,
      "amenity": "restaurant",
      "cuisine": "mexican",
      "opening_hours": "Mo-Fr 11:00-23:00; Sa-Su 09:00-23:00",
      "website": "https://solitatacos.com",
      "phone": "+1-407-698-4161",
      "addr_state": "FL",
      "addr_city": "Orlando",
      "addr_postcode": "32801",
      "addr_street": "South Orange Avenue",
      "addr_housenumber": "222",
      "value": 138.757576837745
    },
    {
      "id": 222155,
      "geometry": "POINT (-81.369713 28.540947)",
      "poi_name": "RusTeak - Thornton Park",
      "osm_id": 11007005531,
      "amenity": "restaurant",
      "cuisine": "american",
      "opening_hours": "Tu-Th 11:00-22:00; Fr-Sa 11:00-23:00; Su 10:30-14:30",
      "website": "https://rusteakthorntonpark.com",
      "phone": "+1-407-601-5219",
      "takeaway": "yes",
      "outdoor_seating": "yes",
      "delivery": "yes",
      "toilets": "yes",
      "addr_state": "FL",
      "addr_city": "Orlando",
      "addr_postcode": "32801",
      "addr_street": "South Eola Drive",
      "addr_housenumber": "101",
      "value": 138.757576837745
    },
    {
      "id": 222156,
      "geometry": "POINT (-81.368654 28.542494)",
      "poi_name": "Soco",
      "osm_id": 11007014250,
      "amenity": "restaurant",
      "cuisine": "american",
      "opening_hours": "Tu-Th 17:00-22:00; Fr 17:00-23:00; Sa 10:30-23:00; Su 10:30-16:30",
      "website": "https://www.socothorntonpark.com",
      "phone": "+1-407-849-1800",
      "addr_state": "FL",
      "addr_city": "Orlando",
      "addr_postcode": "32801",
      "addr_street": "East Central Boulevard",
      "addr_housenumber": "629",
      "value": 138.757576837745
    },
    {
      "id": 222157,
      "geometry": "POINT (-81.368611 28.542798)",
      "poi_name": "JINYA Ramen Bar",
      "osm_id": 11007021201,
      "amenity": "restaurant",
      "cuisine": "ramen;japanese;sushi",
      "opening_hours": "Mo-Su 11:00-22:00",
      "website": "https://www.jinyaramenbar.com",
      "phone": "+1-407-704-1825",
      "delivery": "yes",
      "toilets": "yes",
      "addr_state": "FL",
      "addr_city": "Orlando",
      "addr_postcode": "32801",
      "addr_street": "North Summerlin Avenue",
      "addr_housenumber": "8",
      "value": 138.757576837745
    },
    {
      "id": 222158,
      "geometry": "POINT (-81.36529 28.55332)",
      "poi_name": "Chuan Lu Garden",
      "osm_id": 11007036004,
      "amenity": "restaurant",
      "cuisine": "chinese;asian",
      "opening_hours": "Mo-Su 11:00-22:00",
      "website": "https://chuanlugardenorlandofl.com",
      "phone": "+1-407-868-8709",
      "takeaway": "yes",
      "delivery": "yes",
      "toilets": "yes",
      "addr_state": "FL",
      "addr_city": "Orlando",
      "addr_postcode": "32803",
      "addr_street": "East Colonial Drive",
      "addr_housenumber": "1101",
      "value": 138.757576837745
    },
    {
      "id": 243684,
      "geometry": "POINT (-81.405937 28.398414)",
      "poi_name": "Brisas Bakery & Restaurant",
      "osm_id": 7670886494,
      "amenity": "restaurant",
      "cuisine": "latin_american;colombian;coffee_shop;bakery",
      "description": "The Official Empanada of the New York Red Bulls",
      "wheelchair": "yes",
      "opening_hours": "Mo-Su 07:00-18:00",
      "website": "https://brisasempanadas.com/",
      "phone": "+1-407-757-0003",
      "outdoor_seating": "yes",
      "delivery": "yes",
      "addr_state": "FL",
      "addr_city": "Orlando",
      "addr_postcode": "32837",
      "addr_street": "South Orange Blossom Trail",
      "addr_housenumber": "11570",
      "value": 138.757576837745
    }
  ],
  "answer_type": "loc",
  "question_entities": {
    "[2]": {
      "distance": 70000,
      "text": "70 kilometers"
    },
    "[3]": {
      "main_category": "amenity",
      "sub_category": "hospital",
      "display_name": "Lifestream Behavioral Center, Leesburg, FL",
      "geo_wkt": "POINT (-81.895483 28.836904)",
      "poi": {
        "id": 181410,
        "geometry": "POINT (-81.895483 28.836904)",
        "poi_name": "Lifestream Behavioral Center",
        "osm_id": 10844834163,
        "amenity": "hospital",
        "website": "https://www.lsbc.net",
        "phone": "+1 352 315 7800",
        "healthcare": "hospital",
        "addr_state": "FL",
        "addr_city": "Leesburg",
        "addr_postcode": "34748",
        "addr_street": "Tally Road",
        "addr_housenumber": "2020"
      }
    },
    "[4]": {
      "main_category": "leisure",
      "sub_category": "garden",
      "display_name": "Chopper's Lawn Equipment, Kissimmee, FL",
      "geo_wkt": "POINT (-81.327543 28.262181)",
      "poi": {
        "id": 246454,
        "geometry": "POINT (-81.327543 28.262181)",
        "poi_name": "Chopper's Lawn Equipment",
        "osm_id": 9684453306,
        "leisure": "garden",
        "opening_hours": "Mo-Fr 08:00-17:00",
        "website": "https://chopperslawnequipment.com",
        "phone": "+1-407-891-8990",
        "addr_state": "FL",
        "addr_city": "Kissimmee",
        "addr_postcode": "34744",
        "addr_street": "Big Sky Boulevard",
        "addr_housenumber": "2899"
      }
    },
    "[1]": {
      "main_category": "amenity",
      "sub_category": "restaurant"
    }
  },
  "id": 1232,
  "type": "range:towards+loc"
}