{
  "question": "Within a radius of 50 kilometers, where can I find  a fast food restaurant along the way to Boston Marathon Finish Line, Boston, MA from TownePlace Suites, Wrentham, MA?",
  "sql": "WITH\n    angle AS (SELECT degrees(ST_Azimuth(ST_GeomFromText('POINT (-71.312415 42.038711)',4326)::geography, ST_GeomFromText('POINT (-71.078616 42.349751)',4326)::geography)) AS value)\nSELECT * FROM pois,angle\nWHERE amenity = 'fast_food'\nAND ST_DWithin(pois.geometry, ST_GeomFromText('POINT (-71.312415 42.038711)',4326)::geography, 50000)\nAND (degrees(ST_Azimuth(ST_GeomFromText('POINT (-71.312415 42.038711)',4326)::geography, pois.geometry)) BETWEEN angle.value - 22.5 AND angle.value + 22.5);\n",
  "answers": [
    {
      "id": 28084,
      "geometry": "POINT (-71.154556 42.41608)",
      "poi_name": "Domino's",
      "osm_id": 464796364,
      "amenity": "fast_food",
      "cuisine": "pizza",
      "takeaway": "yes",
      "addr_state": "MA",
      "addr_city": "Arlington",
      "addr_postcode": "02476",
      "addr_street": "Massachusetts Avenue",
      "addr_housenumber": "671",
      "value": 29.12457536921696
    },
    {
      "id": 30865,
      "geometry": "POINT (-71.095369 42.331244)",
      "poi_name": "Domino's",
      "osm_id": 8390762350,
      "amenity": "fast_food",
      "cuisine": "pizza",
      "opening_hours": "Mo-Su 10:00-1:00",
      "phone": "+1 617 541 3525",
      "takeaway": "yes",
      "drive_through": "no",
      "delivery": "Mo-Su 10:00-3:00",
      "addr_state": "MA",
      "addr_city": "Boston",
      "addr_postcode": "02120",
      "addr_street": "Tremont Street",
      "addr_housenumber": "1400",
      "value": 29.12457536921696
    },
    {
      "id": 42553,
      "geometry": "POINT (-71.103639 42.388345)",
      "poi_name": "Dunkin'",
      "osm_id": 3067171281,
      "amenity": "fast_food",
      "cuisine": "donut;coffee_shop",
      "opening_hours": "Mo-Su 05:00-21:00",
      "phone": "+16176250143",
      "takeaway": "yes",
      "addr_state": "MA",
      "addr_city": "Somerville",
      "addr_postcode": "02143",
      "addr_street": "Highland Avenue",
      "addr_housenumber": "154",
      "value": 29.12457536921696
    },
    {
      "id": 34533,
      "geometry": "POINT (-71.067156 42.360994)",
      "poi_name": "Anna's Taqueria",
      "osm_id": 2700809502,
      "amenity": "fast_food",
      "cuisine": "mexican",
      "opening_hours": "Mo-Su 10:00-23:00",
      "website": "http://www.annastaqueria.com",
      "addr_city": "Boston",
      "addr_postcode": "02114",
      "addr_street": "Cambridge Street",
      "addr_housenumber": "242",
      "value": 29.12457536921696
    },
    {
      "id": 40847,
      "geometry": "POINT (-71.252889 42.375831)",
      "poi_name": "Five Guys",
      "osm_id": 2984104158,
      "amenity": "fast_food",
      "cuisine": "burger",
      "opening_hours": "PH,Mo-Su 11:00-22:00",
      "website": "https://restaurants.fiveguys.com/1030-main-street",
      "phone": "+17816470555",
      "takeaway": "yes",
      "drive_through": "no",
      "official_name": "Five Guys Burgers and Fries",
      "outdoor_seating": "yes",
      "addr_state": "MA",
      "addr_city": "Waltham",
      "addr_postcode": "02451",
      "addr_street": "Main St",
      "addr_housenumber": "1030",
      "value": 29.12457536921696
    },
    {
      "id": 41182,
      "geometry": "POINT (-71.05679 42.340124)",
      "poi_name": "Doughboy Donuts & Deli",
      "osm_id": 3005791126,
      "amenity": "fast_food",
      "cuisine": "pizza;donut;sandwich;coffee",
      "wheelchair": "yes",
      "opening_hours": "24/7",
      "website": "https://www.doughboydonutsanddeli.com/",
      "phone": "+1-617-269-7560",
      "takeaway": "yes",
      "drive_through": "yes",
      "addr_state": "MA",
      "addr_city": "Boston",
      "addr_postcode": "02127",
      "addr_street": "Dorchester Avenue",
      "addr_housenumber": "220",
      "value": 29.12457536921696
    },
    {
      "id": 34969,
      "geometry": "POINT (-71.105238 42.366076)",
      "poi_name": "BBQ Chicken",
      "osm_id": 2707976346,
      "amenity": "fast_food",
      "cuisine": "chicken",
      "opening_hours": "closed \"due to construction\"",
      "drive_through": "no",
      "addr_state": "MA",
      "addr_city": "Cambridge",
      "addr_postcode": "02139",
      "addr_street": "Massachusetts Avenue",
      "addr_housenumber": "736",
      "value": 29.12457536921696
    },
    {
      "id": 34970,
      "geometry": "POINT (-71.105349 42.366153)",
      "poi_name": "ABC Pizza House",
      "osm_id": 2707976349,
      "amenity": "fast_food",
      "cuisine": "pizza",
      "opening_hours": "Mo-Sa 11:00-22:30; Su 12:00-22:00",
      "website": "https://www.abcpizzashop.com/",
      "capacity": "19",
      "phone": "+1 617 876 4607",
      "takeaway": "yes",
      "drive_through": "no",
      "outdoor_seating": "no",
      "delivery": "yes",
      "addr_state": "MA",
      "addr_city": "Cambridge",
      "addr_postcode": "02139",
      "addr_street": "Massachusetts Avenue",
      "addr_housenumber": "744",
      "value": 29.12457536921696
    },
    {
      "id": 34995,
      "geometry": "POINT (-71.061492 42.365076)",
      "poi_name": "Halftime Pizza",
      "osm_id": 2708165924,
      "amenity": "fast_food",
      "cuisine": "pizza",
      "operator": "The Pasquale family",
      "website": "https://halftimepizzaboston.com/",
      "phone": "+1-617-720-4578",
      "takeaway": "yes",
      "drive_through": "no",
      "addr_state": "MA",
      "addr_city": "Boston",
      "addr_postcode": "02114",
      "addr_street": "Causeway Street",
      "addr_housenumber": "115",
      "value": 29.12457536921696
    },
    {
      "id": 34996,
      "geometry": "POINT (-71.061902 42.364889)",
      "poi_name": "Qdoba",
      "osm_id": 2708165929,
      "amenity": "fast_food",
      "cuisine": "mexican",
      "opening_hours": "10:30-22:00",
      "website": "https://locations.qdoba.com/us/ma/boston/101-causeway-st.html",
      "takeaway": "yes",
      "drive_through": "no",
      "official_name": "Qdoba Mexican Grill",
      "addr_state": "MA",
      "addr_city": "Boston",
      "addr_postcode": "02114",
      "addr_street": "Causeway Street",
      "addr_housenumber": "101",
      "value": 29.12457536921696
    },
    {
      "id": 34997,
      "geometry": "POINT (-71.062924 42.364372)",
      "poi_name": "Dunkin'",
      "osm_id": 2708165947,
      "amenity": "fast_food",
      "cuisine": "donut;coffee_shop",
      "opening_hours": "24/7",
      "phone": "+16173674565",
      "takeaway": "yes",
      "addr_state": "MA",
      "addr_city": "Boston",
      "addr_postcode": "02114",
      "addr_street": "Causeway Street",
      "addr_housenumber": "59",
      "value": 29.12457536921696
    },
    {
      "id": 34998,
      "geometry": "POINT (-71.063007 42.364333)",
      "poi_name": "Papa's Roast Beef & Pizza",
      "osm_id": 2708165953,
      "amenity": "fast_food",
      "opening_hours": "Mo-Su 10:00-23:00",
      "addr_city": "Boston",
      "addr_postcode": "02114",
      "addr_street": "Causeway Street",
      "addr_housenumber": "55",
      "value": 29.12457536921696
    },
    {
      "id": 34999,
      "geometry": "POINT (-71.064123 42.362842)",
      "poi_name": "Domino's",
      "osm_id": 2708165970,
      "amenity": "fast_food",
      "cuisine": "pizza",
      "takeaway": "yes",
      "addr_city": "Boston",
      "addr_postcode": "02114",
      "addr_street": "Staniford Street",
      "addr_housenumber": "64",
      "value": 29.12457536921696
    },
    {
      "id": 35000,
      "geometry": "POINT (-71.064096 42.362929)",
      "poi_name": "Viva Burrito",
      "osm_id": 2708165975,
      "amenity": "fast_food",
      "cuisine": "mexican",
      "wheelchair": "yes",
      "opening_hours": "Mo-Sa 10:30-23:00; Su 11:00-22:00",
      "website": "https://www.vivaburrito.com/",
      "addr_city": "Boston",
      "addr_postcode": "02114",
      "addr_street": "Staniford Street",
      "addr_housenumber": "66",
      "value": 29.12457536921696
    },
    {
      "id": 35002,
      "geometry": "POINT (-71.063085 42.361025)",
      "poi_name": "Dunkin'",
      "osm_id": 2708165998,
      "amenity": "fast_food",
      "cuisine": "donut;coffee_shop",
      "opening_hours": "Mo-Fr 06:00-17:30; Sa-Su off",
      "phone": "+16175234463",
      "takeaway": "yes",
      "addr_state": "MA",
      "addr_city": "Boston",
      "addr_postcode": "02114",
      "addr_street": "Cambridge Street",
      "addr_housenumber": "106",
      "value": 29.12457536921696
    },
    {
      "id": 35003,
      "geometry": "POINT (-71.06327 42.361019)",
      "poi_name": "Shah's",
      "osm_id": 2708166004,
      "amenity": "fast_food",
      "wheelchair": "no",
      "website": "http://www.uptowncafeboston.com",
      "addr_city": "Boston",
      "addr_postcode": "02114",
      "addr_street": "Cambridge Street",
      "addr_housenumber": "120",
      "value": 29.12457536921696
    },
    {
      "id": 35004,
      "geometry": "POINT (-71.064936 42.361007)",
      "poi_name": "Cafe Podima",
      "osm_id": 2708166036,
      "amenity": "fast_food",
      "cuisine": "sandwich",
      "opening_hours": "11:00-22:50",
      "addr_city": "Boston",
      "addr_postcode": "02114",
      "addr_street": "Cambridge Street",
      "addr_housenumber": "168",
      "value": 29.12457536921696
    },
    {
      "id": 35006,
      "geometry": "POINT (-71.068353 42.3613)",
      "poi_name": "Finagle a Bagel",
      "osm_id": 2708166079,
      "amenity": "fast_food",
      "cuisine": "bagel",
      "opening_hours": "Mo-Fr 06:00-18:00; Sa-Su 06:00-16:00",
      "addr_city": "Boston",
      "addr_postcode": "02114",
      "addr_street": "Cambridge Street",
      "addr_housenumber": "277",
      "value": 29.12457536921696
    },
    {
      "id": 38769,
      "geometry": "POINT (-71.159605 42.361774)",
      "poi_name": "Chipotle",
      "osm_id": 2882815195,
      "amenity": "fast_food",
      "cuisine": "mexican",
      "website": "https://chipotle.com/",
      "phone": "+1 617 612 8253",
      "takeaway": "yes",
      "official_name": "Chipotle Mexican Grill",
      "addr_city": "Watertown",
      "addr_postcode": "02472",
      "addr_street": "Arsenal Street",
      "addr_housenumber": "550",
      "value": 29.12457536921696
    },
    {
      "id": 43510,
      "geometry": "POINT (-71.054035 42.357831)",
      "poi_name": "Subway",
      "osm_id": 3116683130,
      "amenity": "fast_food",
      "cuisine": "sandwich",
      "phone": "+1 617 3384600",
      "takeaway": "yes",
      "addr_city": "Boston",
      "addr_street": "Milk Street",
      "addr_housenumber": "155",
      "value": 29.12457536921696
    },
    {
      "id": 46472,
      "geometry": "POINT (-71.121361 42.352609)",
      "poi_name": "Ki Bistro",
      "osm_id": 3267743938,
      "amenity": "fast_food",
      "opening_hours": "Mo-Th 05:00-22:00;Fr 05:00-23:00;Sa 11:30-23:00;Su 12:00-21:00",
      "phone": "+1 617-208-6922;+1 617-208-6928",
      "addr_state": "MA",
      "addr_city": "Boston",
      "addr_postcode": "02215",
      "addr_street": "Babcock Street",
      "addr_housenumber": "270",
      "value": 29.12457536921696
    },
    {
      "id": 45022,
      "geometry": "POINT (-71.053089 42.356448)",
      "poi_name": "Dunkin'",
      "osm_id": 3188737338,
      "amenity": "fast_food",
      "cuisine": "donut;coffee_shop",
      "phone": "+16172614699",
      "takeaway": "yes",
      "addr_state": "MA",
      "addr_city": "Boston",
      "addr_postcode": "02109",
      "addr_street": "Franklin Street",
      "addr_housenumber": "265",
      "value": 29.12457536921696
    },
    {
      "id": 45024,
      "geometry": "POINT (-71.056557 42.356713)",
      "poi_name": "Dunkin'",
      "osm_id": 3188739863,
      "amenity": "fast_food",
      "cuisine": "donut;coffee_shop",
      "opening_hours": "Mo-Fr 05:30-19:00; Sa 07:00-14:00",
      "phone": "+16174511056",
      "takeaway": "yes",
      "addr_state": "MA",
      "addr_city": "Boston",
      "addr_postcode": "02109",
      "addr_street": "Post Office Square",
      "addr_housenumber": "3",
      "value": 29.12457536921696
    },
    {
      "id": 46508,
      "geometry": "POINT (-71.066934 42.426563)",
      "poi_name": "New York Pizza",
      "osm_id": 3269437529,
      "amenity": "fast_food",
      "cuisine": "pizza",
      "wheelchair": "yes",
      "opening_hours": "Mo-We 11:00-21:30; Th-Sa 11:00-22:30; Su 11:00-21:30",
      "website": "https://www.newyorkpizzamalden.com/",
      "phone": "+1-857-626-9970",
      "drive_through": "no",
      "addr_state": "MA",
      "addr_city": "Malden",
      "addr_postcode": "02148",
      "addr_street": "Main Street",
      "addr_housenumber": "421",
      "value": 29.12457536921696
    },
    {
      "id": 47167,
      "geometry": "POINT (-71.061962 42.36619)",
      "poi_name": "Dunkin'",
      "osm_id": 3310952563,
      "amenity": "fast_food",
      "cuisine": "donut;coffee_shop",
      "wheelchair": "yes",
      "opening_hours": "\"temporarily closed\"",
      "phone": "+1-617-248-0554",
      "takeaway": "only",
      "drive_through": "no",
      "outdoor_seating": "no",
      "delivery": "no",
      "addr_state": "MA",
      "addr_city": "Boston",
      "addr_postcode": "02114",
      "addr_street": "Legends Way",
      "addr_housenumber": "100",
      "value": 29.12457536921696
    },
    {
      "id": 51389,
      "geometry": "POINT (-71.237067 42.371571)",
      "poi_name": "Guanachapi's Mexican and Latin Food",
      "osm_id": 532967436,
      "amenity": "fast_food",
      "cuisine": "mexican",
      "opening_hours": "Mo-Fr 10:00-21:30; Sa-Su 09:00-21:30",
      "website": "http://orderguanachapisrestaurant.com/",
      "phone": "781-788-8590",
      "addr_state": "MA",
      "addr_city": "Waltham",
      "addr_postcode": "02451",
      "addr_street": "Moody Street",
      "addr_housenumber": "273",
      "value": 29.12457536921696
    },
    {
      "id": 50397,
      "geometry": "POINT (-71.056406 42.35184)",
      "poi_name": "Susan's Deli of Course",
      "osm_id": 3482217022,
      "amenity": "fast_food",
      "cuisine": "sandwich",
      "takeaway": "yes",
      "addr_state": "MA",
      "addr_city": "Boston",
      "addr_postcode": "02111",
      "addr_street": "Atlantic Avenue",
      "addr_housenumber": "695",
      "value": 29.12457536921696
    },
    {
      "id": 51008,
      "geometry": "POINT (-71.096258 42.379529)",
      "poi_name": "Mama Gina's",
      "osm_id": 500678986,
      "amenity": "fast_food",
      "cuisine": "pizza",
      "phone": "+1 617 625 0116",
      "addr_state": "MA",
      "addr_city": "Somerville",
      "addr_postcode": "02143",
      "addr_street": "Union Square",
      "addr_housenumber": "16-19",
      "value": 29.12457536921696
    },
    {
      "id": 54534,
      "geometry": "POINT (-71.138422 42.45784)",
      "poi_name": "Domino's",
      "osm_id": 10138492095,
      "amenity": "fast_food",
      "cuisine": "pizza",
      "opening_hours": "Su-Th 10:30-23:00; Fr-Sa 10:30-24:00",
      "phone": "+1-781-729-8844",
      "takeaway": "yes",
      "addr_state": "MA",
      "addr_city": "Winchester",
      "addr_postcode": "01890",
      "addr_street": "Main Street",
      "addr_housenumber": "743",
      "value": 29.12457536921696
    },
    {
      "id": 56606,
      "geometry": "POINT (-71.02535 42.407243)",
      "poi_name": "Dandee Donut Factory",
      "osm_id": 10243160947,
      "amenity": "fast_food",
      "cuisine": "donut;burger",
      "opening_hours": "Mo-Su 05:00-19:00",
      "website": "https://dandeedonuts.com/",
      "addr_state": "MA",
      "addr_city": "Revere",
      "addr_postcode": "02151",
      "addr_street": "Revere Beach Parkway",
      "addr_housenumber": "1141",
      "value": 29.12457536921696
    },
    {
      "id": 58504,
      "geometry": "POINT (-71.014643 42.365354)",
      "poi_name": "Dunkin'",
      "osm_id": 5380463925,
      "amenity": "fast_food",
      "cuisine": "donut;coffee_shop",
      "opening_hours": "Mo-Su 05:00-19:00",
      "takeaway": "yes",
      "addr_state": "MA",
      "addr_city": "East Boston",
      "addr_postcode": "02128",
      "value": 29.12457536921696
    },
    {
      "id": 57948,
      "geometry": "POINT (-71.055909 42.353313)",
      "poi_name": "Pret A Manger",
      "osm_id": 5357471765,
      "amenity": "fast_food",
      "cuisine": "sandwich",
      "takeaway": "yes",
      "addr_state": "MA",
      "addr_city": "Boston",
      "addr_street": "Federal Street",
      "addr_housenumber": "176",
      "value": 29.12457536921696
    },
    {
      "id": 63686,
      "geometry": "POINT (-71.098631 42.362146)",
      "poi_name": "Roxy\u2019s Grilled Cheese",
      "osm_id": 5627766951,
      "amenity": "fast_food",
      "cuisine": "sandwich",
      "opening_hours": "Mo-Su 11:00-23:00",
      "website": "https://www.roxysgrilledcheese.com/cambridge-a4cade/",
      "phone": "+1 617 945 7244",
      "takeaway": "yes",
      "drive_through": "no",
      "outdoor_seating": "no",
      "delivery": "no",
      "addr_state": "MA",
      "addr_city": "Cambridge",
      "addr_street": "Massachusetts Avenue",
      "addr_housenumber": "292",
      "value": 29.12457536921696
    },
    {
      "id": 73314,
      "geometry": "POINT (-71.131539 42.351714)",
      "poi_name": "Mochinut",
      "osm_id": 9625552630,
      "amenity": "fast_food",
      "cuisine": "donut;bubble_tea",
      "takeaway": "yes",
      "addr_state": "MA",
      "addr_city": "Allston",
      "addr_postcode": "02134",
      "addr_street": "Harvard Avenue",
      "addr_housenumber": "154",
      "value": 29.12457536921696
    },
    {
      "id": 73958,
      "geometry": "POINT (-71.105854 42.347626)",
      "poi_name": "Domino's",
      "osm_id": 9659683565,
      "amenity": "fast_food",
      "cuisine": "pizza",
      "takeaway": "yes",
      "addr_state": "MA",
      "addr_city": "Boston",
      "addr_postcode": "02215",
      "addr_street": "Park Drive",
      "addr_housenumber": "508",
      "value": 29.12457536921696
    },
    {
      "id": 76581,
      "geometry": "POINT (-71.055884 42.350268)",
      "poi_name": "McDonald's",
      "osm_id": 9784123064,
      "amenity": "fast_food",
      "cuisine": "burger",
      "opening_hours": "Mo-Su 07:00-24:00",
      "internet_access": "wlan",
      "phone": "+1 617-261-3914",
      "takeaway": "yes",
      "drive_through": "no",
      "addr_state": "MA",
      "addr_city": "Boston",
      "addr_postcode": "02111",
      "addr_street": "Atlantic Avenue",
      "addr_housenumber": "700",
      "value": 29.12457536921696
    },
    {
      "id": 76630,
      "geometry": "POINT (-71.060878 42.299188)",
      "poi_name": "McDonald's",
      "osm_id": 9784653890,
      "amenity": "fast_food",
      "cuisine": "burger",
      "opening_hours": "Mo-Su 06:00-23:00",
      "website": "https://www.mcdonalds.com/us/en-us/location/ma/dorchester/1513-dorche-ster-ave/13737.html",
      "internet_access": "wlan",
      "phone": "+1 617-288-3468",
      "takeaway": "yes",
      "drive_through": "no",
      "outdoor_seating": "no",
      "addr_state": "MA",
      "addr_city": "Dorchester",
      "addr_street": "Dorchester Avenue",
      "addr_housenumber": "1518",
      "value": 29.12457536921696
    },
    {
      "id": 75842,
      "geometry": "POINT (-71.081981 42.36451)",
      "poi_name": "Juice Press",
      "osm_id": 9749969793,
      "amenity": "fast_food",
      "cuisine": "juice",
      "opening_hours": "Mo-Fr 08:00-17:00; Sa 09:00-16:00",
      "takeaway": "yes",
      "addr_state": "MA",
      "addr_city": "Cambridge",
      "addr_postcode": "02142",
      "addr_street": "West Kendall Street",
      "addr_housenumber": "625",
      "value": 29.12457536921696
    },
    {
      "id": 76582,
      "geometry": "POINT (-71.034504 42.392802)",
      "poi_name": "McDonald's",
      "osm_id": 9784123065,
      "amenity": "fast_food",
      "cuisine": "burger",
      "opening_hours": "Mo-Su 06:00-23:00",
      "website": "https://www.mcdonalds.com/us/en-us/location/ma/chelsea/472-broadway/25115.html",
      "internet_access": "wlan",
      "phone": "+1 617-889-2572",
      "takeaway": "yes",
      "drive_through": "no",
      "addr_state": "MA",
      "addr_city": "Chelsea",
      "addr_postcode": "02150",
      "addr_street": "Broadway",
      "addr_housenumber": "472",
      "value": 29.12457536921696
    },
    {
      "id": 76626,
      "geometry": "POINT (-71.107137 42.338686)",
      "poi_name": "McDonald's",
      "osm_id": 9784653886,
      "amenity": "fast_food",
      "cuisine": "burger",
      "opening_hours": "Mo-Fr 06:30-22:00; Sa 7:00-20:00; Su 7:30-20:00",
      "website": "https://www.mcdonalds.com/us/en-us/location/ma/boston/350-longwood-ave-longwood-galleria/10478.html",
      "internet_access": "wlan",
      "phone": "+1 617-566-4888",
      "takeaway": "yes",
      "drive_through": "no",
      "addr_state": "MA",
      "addr_city": "Boston",
      "addr_postcode": "02115",
      "addr_street": "Longwood Ave",
      "addr_housenumber": "340-350",
      "value": 29.12457536921696
    },
    {
      "id": 76627,
      "geometry": "POINT (-71.097897 42.315594)",
      "poi_name": "McDonald's",
      "osm_id": 9784653887,
      "amenity": "fast_food",
      "cuisine": "burger",
      "opening_hours": "Mo-Su 07:00-23:00",
      "website": "https://www.mcdonalds.com/us/en-us/location/ma/roxbury/3064-washington-st/17463.html",
      "internet_access": "wlan",
      "phone": "+1 617-442-0475",
      "takeaway": "yes",
      "drive_through": "yes",
      "addr_state": "MA",
      "addr_city": "Roxbury",
      "addr_postcode": "02119",
      "addr_street": "Washington Street",
      "addr_housenumber": "3064",
      "value": 29.12457536921696
    },
    {
      "id": 76628,
      "geometry": "POINT (-71.113628 42.282885)",
      "poi_name": "McDonald's",
      "osm_id": 9784653888,
      "amenity": "fast_food",
      "cuisine": "burger",
      "opening_hours": "Mo-Su 07:00-24:00",
      "website": "https://www.mcdonalds.com/us/en-us/location/ma/roslindale/718-american-lgn-hwy/549.html",
      "internet_access": "wlan",
      "phone": "+1 61-732-37027",
      "takeaway": "yes",
      "drive_through": "yes",
      "addr_state": "MA",
      "addr_city": "Roslindale",
      "addr_postcode": "02131",
      "addr_street": "American Legion Highway",
      "addr_housenumber": "17",
      "value": 29.12457536921696
    },
    {
      "id": 76629,
      "geometry": "POINT (-71.07177 42.290455)",
      "poi_name": "McDonald's",
      "osm_id": 9784653889,
      "amenity": "fast_food",
      "cuisine": "burger",
      "opening_hours": "Mo-Su 07:00-20:00",
      "website": "https://www.mcdonalds.com/us/en-us/location/ma/dorchester/605-washington-st/16599.html",
      "internet_access": "wlan",
      "phone": "+1 617-282-8146",
      "takeaway": "yes",
      "drive_through": "no",
      "addr_state": "MA",
      "addr_city": "Dorchester",
      "addr_postcode": "02124",
      "addr_street": "Washington Street",
      "addr_housenumber": "605",
      "value": 29.12457536921696
    },
    {
      "id": 92654,
      "geometry": "POINT (-71.057312 42.352008)",
      "poi_name": "Al's South Street Cafe",
      "osm_id": 2129815877,
      "amenity": "fast_food",
      "cuisine": "sandwich",
      "opening_hours": "Mo-Fr 10:30-15:00",
      "website": "http://www.alscafes.com/",
      "phone": "+1 617 330 1002",
      "takeaway": "yes",
      "delivery": "no",
      "addr_state": "MA",
      "addr_city": "Boston",
      "addr_postcode": "02111",
      "addr_street": "Essex Street",
      "addr_housenumber": "179",
      "value": 29.12457536921696
    },
    {
      "id": 80955,
      "geometry": "POINT (-71.049434 42.351171)",
      "poi_name": "Dunkin'",
      "osm_id": 1593339581,
      "amenity": "fast_food",
      "cuisine": "donut;coffee_shop",
      "phone": "+16174393179",
      "takeaway": "yes",
      "drive_through": "no",
      "addr_state": "MA",
      "addr_city": "Boston",
      "addr_postcode": "02210",
      "addr_street": "Congress Street",
      "addr_housenumber": "330",
      "value": 29.12457536921696
    },
    {
      "id": 85597,
      "geometry": "POINT (-71.115448 42.360879)",
      "poi_name": "Dunkin'",
      "osm_id": 1884036267,
      "amenity": "fast_food",
      "cuisine": "donut;coffee_shop",
      "opening_hours": "Su-Fr 04:30-23:00",
      "phone": "+1-617-492-0758",
      "takeaway": "yes",
      "drive_through": "no",
      "outdoor_seating": "yes",
      "addr_state": "MA",
      "addr_city": "Cambridge",
      "addr_postcode": "02139",
      "addr_street": "Memorial Drive",
      "addr_housenumber": "808",
      "value": 29.12457536921696
    },
    {
      "id": 86082,
      "geometry": "POINT (-71.086475 42.341818)",
      "poi_name": "Dunkin'",
      "osm_id": 1914868890,
      "amenity": "fast_food",
      "cuisine": "donut;coffee_shop",
      "opening_hours": "Mo-Su 06:00-15:00",
      "phone": "+1 617-267-0357",
      "takeaway": "yes",
      "addr_state": "MA",
      "addr_city": "Boston",
      "addr_postcode": "02115",
      "addr_street": "Huntington Avenue",
      "addr_housenumber": "283",
      "value": 29.12457536921696
    },
    {
      "id": 81973,
      "geometry": "POINT (-71.046744 42.433118)",
      "poi_name": "Dunkin'",
      "osm_id": 1672846372,
      "amenity": "fast_food",
      "cuisine": "donut;coffee_shop",
      "opening_hours": "Mo-Sa 05:00-18:00; Su 05:00-17:00",
      "phone": "+17813226504",
      "takeaway": "yes",
      "addr_state": "MA",
      "addr_city": "Malden",
      "addr_postcode": "02148",
      "addr_street": "Salem Street",
      "addr_housenumber": "655",
      "value": 29.12457536921696
    },
    {
      "id": 90158,
      "geometry": "POINT (-71.121606 42.35156)",
      "poi_name": "Dunkin'",
      "osm_id": 1978954395,
      "amenity": "fast_food",
      "cuisine": "donut;coffee_shop",
      "phone": "+16177390812",
      "takeaway": "yes",
      "addr_state": "MA",
      "addr_city": "Boston",
      "addr_postcode": "02215",
      "addr_street": "Commonwealth Avenue",
      "addr_housenumber": "1020",
      "value": 29.12457536921696
    },
    {
      "id": 90159,
      "geometry": "POINT (-71.121408 42.351549)",
      "poi_name": "T. Anthony's",
      "osm_id": 1978954424,
      "amenity": "fast_food",
      "cuisine": "pizza",
      "opening_hours": "11:00-01:00",
      "website": "https://www.tanthonypizzeria.com/",
      "phone": "+1 617-734-7708",
      "addr_state": "MA",
      "addr_city": "Boston",
      "addr_postcode": "02215",
      "addr_street": "Commonwealth Avenue",
      "addr_housenumber": "1016",
      "value": 29.12457536921696
    },
    {
      "id": 92655,
      "geometry": "POINT (-71.05642 42.351216)",
      "poi_name": "Dunkin'",
      "osm_id": 2129829181,
      "amenity": "fast_food",
      "cuisine": "donut;coffee_shop",
      "phone": "+16175421630",
      "takeaway": "yes",
      "drive_through": "no",
      "addr_state": "MA",
      "addr_city": "Boston",
      "addr_postcode": "02111",
      "addr_street": "Atlantic Avenue",
      "addr_housenumber": "711",
      "value": 29.12457536921696
    },
    {
      "id": 92782,
      "geometry": "POINT (-71.103201 42.364858)",
      "poi_name": "Chipotle",
      "osm_id": 2134089521,
      "amenity": "fast_food",
      "cuisine": "mexican",
      "wheelchair": "yes",
      "opening_hours": "10:45-22:00",
      "takeaway": "yes",
      "drive_through": "no",
      "official_name": "Chipotle Mexican Grill",
      "outdoor_seating": "no",
      "delivery": "no",
      "addr_state": "MA",
      "addr_city": "Cambridge",
      "addr_postcode": "02139",
      "addr_street": "Massachusetts Avenue",
      "addr_housenumber": "598",
      "value": 29.12457536921696
    },
    {
      "id": 93143,
      "geometry": "POINT (-71.090136 42.337505)",
      "poi_name": "Dunkin'",
      "osm_id": 2152568351,
      "amenity": "fast_food",
      "cuisine": "donut;coffee_shop",
      "wheelchair": "yes",
      "opening_hours": "Mo-Fr 08:00-14:00; Sa-Su closed",
      "phone": "+1 617-373-8414",
      "takeaway": "yes",
      "drive_through": "no",
      "addr_state": "MA",
      "addr_city": "Boston",
      "addr_postcode": "02115",
      "addr_street": "Forsyth Street",
      "addr_housenumber": "115",
      "value": 29.12457536921696
    },
    {
      "id": 99428,
      "geometry": "POINT (-71.05857 42.353902)",
      "poi_name": "Sweetgreen",
      "osm_id": 6551565572,
      "amenity": "fast_food",
      "cuisine": "salad",
      "opening_hours": "Mo-Su 10:30-21:00",
      "website": "https://order.sweetgreen.com/",
      "phone": "+16178704700",
      "takeaway": "yes",
      "addr_state": "MA",
      "addr_city": "Boston",
      "addr_postcode": "02110",
      "addr_street": "Summer Street",
      "addr_housenumber": "87",
      "value": 29.12457536921696
    },
    {
      "id": 96623,
      "geometry": "POINT (-71.054477 42.354664)",
      "poi_name": "Dunkin'",
      "osm_id": 6439769973,
      "amenity": "fast_food",
      "cuisine": "donut;coffee_shop",
      "opening_hours": "off",
      "phone": "+16173503194",
      "takeaway": "yes",
      "addr_state": "MA",
      "addr_city": "Boston",
      "addr_postcode": "02110",
      "addr_street": "Congress Street",
      "addr_housenumber": "230",
      "value": 29.12457536921696
    },
    {
      "id": 104339,
      "geometry": "POINT (-71.153805 42.349013)",
      "poi_name": "Los Amigos Taqueria",
      "osm_id": 8565749424,
      "amenity": "fast_food",
      "cuisine": "mexican",
      "opening_hours": "Mo-Su 11:00-9:30",
      "addr_state": "MA",
      "addr_city": "Brighton",
      "addr_postcode": "02135",
      "addr_street": "Washington Street",
      "addr_housenumber": "366",
      "value": 29.12457536921696
    },
    {
      "id": 103739,
      "geometry": "POINT (-71.136599 42.451966)",
      "poi_name": "Frozen Hoagies",
      "osm_id": 8521943122,
      "amenity": "fast_food",
      "cuisine": "ice_cream",
      "opening_hours": "Mo-Su 12:00-19:00",
      "website": "https://www.frozenhoagies.com/",
      "phone": "+1 617 620 6810",
      "drive_through": "no",
      "addr_state": "MA",
      "addr_city": "Winchester",
      "addr_postcode": "01890",
      "addr_street": "Main Street",
      "addr_housenumber": "534",
      "value": 29.12457536921696
    },
    {
      "id": 103746,
      "geometry": "POINT (-71.137644 42.453653)",
      "poi_name": "Bruegger's Bagels",
      "osm_id": 8522106539,
      "amenity": "fast_food",
      "cuisine": "bagel",
      "wheelchair": "yes",
      "opening_hours": "Mo-Su 06:00-14:00",
      "website": "https://locations.brueggers.com/us/ma/winchester/600-main-street",
      "internet_access": "wlan",
      "phone": "+1 781 721 2204",
      "takeaway": "yes",
      "drive_through": "no",
      "outdoor_seating": "no",
      "addr_state": "MA",
      "addr_city": "Winchester",
      "addr_postcode": "01890",
      "addr_street": "Main Street",
      "addr_housenumber": "600",
      "value": 29.12457536921696
    },
    {
      "id": 105027,
      "geometry": "POINT (-71.049893 42.403079)",
      "poi_name": "Dunkin'",
      "osm_id": 8596977668,
      "amenity": "fast_food",
      "cuisine": "donut;coffee_shop",
      "opening_hours": "24/7",
      "phone": "+16173899842",
      "takeaway": "yes",
      "drive_through": "yes",
      "addr_state": "MA",
      "addr_city": "Everett",
      "addr_postcode": "02149",
      "addr_street": "Revere Beach Parkway",
      "addr_housenumber": "1885",
      "value": 29.12457536921696
    },
    {
      "id": 105028,
      "geometry": "POINT (-71.049846 42.402388)",
      "poi_name": "Dunkin'",
      "osm_id": 8596977669,
      "amenity": "fast_food",
      "cuisine": "donut;coffee_shop",
      "opening_hours": "Mo-Sa 04:00-19:00; Su 05:00-19:00",
      "phone": "+16173819469",
      "takeaway": "yes",
      "addr_state": "MA",
      "addr_city": "Everett",
      "addr_postcode": "02149",
      "addr_street": "Revere Beach Parkway",
      "addr_housenumber": "1886-16",
      "value": 29.12457536921696
    },
    {
      "id": 111315,
      "geometry": "POINT (-71.205944 42.366528)",
      "poi_name": "Pleasant Pizza",
      "osm_id": 3740827579,
      "amenity": "fast_food",
      "cuisine": "pizza",
      "addr_state": "MA",
      "addr_city": "Watertown",
      "addr_postcode": "02472",
      "addr_street": "Pleasant Street",
      "addr_housenumber": "467",
      "value": 29.12457536921696
    },
    {
      "id": 110816,
      "geometry": "POINT (-71.058211 42.350742)",
      "poi_name": "Figaro's",
      "osm_id": 3718848773,
      "amenity": "fast_food",
      "cuisine": "sandwich",
      "opening_hours": "Mo-Fr 08:30-14:30",
      "website": "http://www.figarosboston.com/",
      "phone": "+1 617 426 2121",
      "takeaway": "yes",
      "addr_state": "MA",
      "addr_city": "Boston",
      "addr_postcode": "02111",
      "addr_street": "Beach Street",
      "addr_housenumber": "105",
      "value": 29.12457536921696
    },
    {
      "id": 117203,
      "geometry": "POINT (-71.103702 42.333912)",
      "poi_name": "Dunkin'",
      "osm_id": 8981460767,
      "amenity": "fast_food",
      "cuisine": "donut;coffee_shop",
      "opening_hours": "Mo-Sa 05:00-20:00; Su 06:00-20:00",
      "phone": "+ 617 232 8770",
      "takeaway": "yes",
      "drive_through": "no",
      "addr_state": "MA",
      "addr_city": "Boston",
      "addr_postcode": "02120",
      "addr_street": "Tremont Street",
      "addr_housenumber": "1631",
      "value": 29.12457536921696
    },
    {
      "id": 111988,
      "geometry": "POINT (-71.104495 42.365441)",
      "poi_name": "Kwench Juice Cafe",
      "osm_id": 3773606173,
      "amenity": "fast_food",
      "cuisine": "juice",
      "opening_hours": "Mo-Fr 07:00-19:00; Sa-Su 10:00-17:00",
      "website": "https://kwenchjuicecafe.com/locations/",
      "phone": "+1 857 242 3344",
      "drive_through": "no",
      "addr_state": "MA",
      "addr_city": "Cambridge",
      "addr_postcode": "02139",
      "addr_street": "Central Square",
      "addr_housenumber": "26",
      "value": 29.12457536921696
    },
    {
      "id": 114871,
      "geometry": "POINT (-71.226243 42.446746)",
      "poi_name": "Inspire Bowl n' Tea",
      "osm_id": 3899915446,
      "amenity": "fast_food",
      "cuisine": "juice",
      "website": "https://inspirebowlandtea.com/",
      "phone": "+1-781-990-5285",
      "takeaway": "yes",
      "addr_state": "MA",
      "addr_city": "Lexington",
      "addr_postcode": "02420",
      "addr_street": "Massachusetts Avenue",
      "addr_housenumber": "1686",
      "value": 29.12457536921696
    },
    {
      "id": 119652,
      "geometry": "POINT (-71.003229 42.251762)",
      "poi_name": "Five Guys",
      "osm_id": 9112071538,
      "amenity": "fast_food",
      "cuisine": "burger",
      "takeaway": "yes",
      "drive_through": "no",
      "official_name": "Five Guys Burgers and Fries",
      "addr_state": "MA",
      "addr_city": "Quincy",
      "addr_postcode": "02169",
      "addr_street": "Hancock Street",
      "addr_housenumber": "1250",
      "value": 29.12457536921696
    },
    {
      "id": 127406,
      "geometry": "POINT (-71.038694 42.370171)",
      "poi_name": "Jak Pizzeria",
      "osm_id": 8063239813,
      "amenity": "fast_food",
      "cuisine": "pizza",
      "website": "https://www.jakpizzeria.com/",
      "phone": "+1 617-567-1227",
      "drive_through": "no",
      "addr_state": "MA",
      "addr_city": "East Boston",
      "addr_postcode": "02128",
      "addr_street": "Maverick Square",
      "addr_housenumber": "50",
      "value": 29.12457536921696
    },
    {
      "id": 122613,
      "geometry": "POINT (-71.081773 42.34082)",
      "poi_name": "Dunkin'",
      "osm_id": 6813212838,
      "amenity": "fast_food",
      "cuisine": "donut;coffee_shop",
      "opening_hours": "Mo-Su 06:00-20:00",
      "phone": "+1 617-391-0536",
      "takeaway": "yes",
      "outdoor_seating": "no",
      "addr_state": "MA",
      "addr_city": "Boston",
      "addr_postcode": "02118",
      "addr_street": "Massachusetts Avenue",
      "addr_housenumber": "434",
      "value": 29.12457536921696
    },
    {
      "id": 125730,
      "geometry": "POINT (-71.059005 42.35949)",
      "poi_name": "Dunkin'",
      "osm_id": 6974241986,
      "amenity": "fast_food",
      "cuisine": "donut;coffee_shop",
      "opening_hours": "Mo-Fr 05:30-16:00; Sa 06:30-12:00",
      "phone": "+1 857 225 3702",
      "takeaway": "yes",
      "drive_through": "no",
      "addr_state": "MA",
      "addr_city": "Boston",
      "addr_postcode": "02114",
      "addr_street": "City Hall Plaza",
      "addr_housenumber": "100",
      "value": 29.12457536921696
    },
    {
      "id": 130252,
      "geometry": "POINT (-71.119164 42.389458)",
      "poi_name": "The Halal Guys",
      "osm_id": 9861597644,
      "amenity": "fast_food",
      "cuisine": "chicken;falafel;gyros",
      "opening_hours": "Mo-Su 11:00-23:00",
      "takeaway": "yes",
      "addr_state": "MA",
      "addr_city": "Somerville",
      "addr_postcode": "02140",
      "addr_street": "White Street",
      "addr_housenumber": "15",
      "value": 29.12457536921696
    },
    {
      "id": 128549,
      "geometry": "POINT (-71.060478 42.296915)",
      "poi_name": "Dunkin'",
      "osm_id": 8169170202,
      "amenity": "fast_food",
      "cuisine": "donut;coffee_shop",
      "opening_hours": "Mo-Sa 04:30-20:00; Su 05:00-20:00",
      "phone": "+16172883302",
      "takeaway": "yes",
      "addr_state": "MA",
      "addr_city": "Dorchester",
      "addr_postcode": "02122",
      "addr_street": "Dorchester Avenue",
      "addr_housenumber": "1580",
      "value": 29.12457536921696
    },
    {
      "id": 132394,
      "geometry": "POINT (-71.071916 42.39891)",
      "poi_name": "Pizza Hut Express",
      "osm_id": 9953296891,
      "amenity": "fast_food",
      "cuisine": "pizza",
      "website": "https://locations.pizzahut.com/ma/everett/1-mystic-view-rd",
      "takeaway": "yes",
      "addr_state": "MA",
      "addr_city": "Everett",
      "addr_postcode": "02149",
      "addr_street": "Mystic View Road",
      "addr_housenumber": "1",
      "value": 29.12457536921696
    },
    {
      "id": 132363,
      "geometry": "POINT (-71.08038 42.403773)",
      "poi_name": "Liv's Juice + Acai Bar",
      "osm_id": 9951889413,
      "amenity": "fast_food",
      "cuisine": "juice",
      "opening_hours": "Mo-Su 08:00-16:00",
      "website": "https://www.livsjuicebar.com",
      "phone": "+1-781-874-1776",
      "takeaway": "yes",
      "delivery": "yes",
      "addr_state": "MA",
      "addr_city": "Medford",
      "addr_postcode": "02155",
      "addr_street": "Station Landing",
      "addr_housenumber": "56",
      "value": 29.12457536921696
    },
    {
      "id": 132694,
      "geometry": "POINT (-71.053921 42.356348)",
      "poi_name": "Sweetgreen",
      "osm_id": 9964684740,
      "amenity": "fast_food",
      "cuisine": "salad",
      "opening_hours": "Mo-Fr 09:30-20:00",
      "website": "https://order.sweetgreen.com/post-office-square/menu",
      "phone": "+1-617-648-5500",
      "takeaway": "yes",
      "outdoor_seating": "yes",
      "addr_state": "MA",
      "addr_city": "Boston",
      "addr_postcode": "02210",
      "addr_street": "Franklin Street",
      "addr_housenumber": "225",
      "value": 29.12457536921696
    },
    {
      "id": 133426,
      "geometry": "POINT (-71.039886 42.374297)",
      "poi_name": "Wingstop",
      "osm_id": 9992931125,
      "amenity": "fast_food",
      "cuisine": "wings",
      "takeaway": "yes",
      "drive_through": "no",
      "addr_state": "MA",
      "addr_city": "East Boston",
      "addr_postcode": "02128",
      "addr_street": "Border Street",
      "addr_housenumber": "173",
      "value": 29.12457536921696
    },
    {
      "id": 132888,
      "geometry": "POINT (-71.053608 42.356053)",
      "poi_name": "F\u00f3umami",
      "osm_id": 9970611682,
      "amenity": "fast_food",
      "cuisine": "sandwich;asian",
      "opening_hours": "Mo-Fr 07:30-16:00",
      "website": "https://foumami.com/",
      "phone": "+1-617-426-8858",
      "takeaway": "yes",
      "drive_through": "no",
      "addr_state": "MA",
      "addr_city": "Boston",
      "addr_postcode": "02110",
      "addr_street": "Franklin Street",
      "addr_housenumber": "225",
      "value": 29.12457536921696
    },
    {
      "id": 133594,
      "geometry": "POINT (-71.132912 42.421041)",
      "poi_name": "Dunkin'",
      "osm_id": 10000119969,
      "amenity": "fast_food",
      "cuisine": "donut;coffee_shop",
      "opening_hours": "Mo-Sa 05:00-19:00; Su 06:00-19:00",
      "website": "https://locations.dunkindonuts.com/en/ma/medford/4-harvard-ave/306848",
      "phone": "+1-781-483-3200",
      "takeaway": "yes",
      "drive_through": "no",
      "addr_state": "MA",
      "addr_city": "Medford",
      "addr_postcode": "02155",
      "addr_street": "Harvard Avenue",
      "addr_housenumber": "4",
      "value": 29.12457536921696
    },
    {
      "id": 134591,
      "geometry": "POINT (-71.02274 42.429591)",
      "poi_name": "Nonni's Pizza",
      "osm_id": 11477314935,
      "amenity": "fast_food",
      "cuisine": "pizza",
      "wheelchair": "yes",
      "opening_hours": "Mo-Sa 16:00-22:00; Su 16:00-20:30",
      "website": "https://nonnispizza.com/",
      "phone": "+1-781-286-5300",
      "takeaway": "only",
      "drive_through": "no",
      "addr_state": "MA",
      "addr_city": "Revere",
      "addr_postcode": "02151",
      "addr_street": "Washington Avenue",
      "addr_housenumber": "750",
      "value": 29.12457536921696
    },
    {
      "id": 134592,
      "geometry": "POINT (-71.026138 42.432002)",
      "poi_name": "Dunkin'",
      "osm_id": 11477322388,
      "amenity": "fast_food",
      "cuisine": "donut;coffee_shop",
      "wheelchair": "yes",
      "opening_hours": "Mo 05:00-22:00; Tu-Fr 04:30-22:00; Sa 05:00-22:00; Su 05:00-18:00",
      "website": "https://locations.dunkindonuts.com/en/ma/malden/155-beach-st/349986",
      "phone": "+1-781-324-1460",
      "takeaway": "yes",
      "drive_through": "yes",
      "addr_state": "MA",
      "addr_city": "Revere",
      "addr_postcode": "01251",
      "addr_street": "Beach Street",
      "addr_housenumber": "155;163",
      "value": 29.12457536921696
    },
    {
      "id": 135888,
      "geometry": "POINT (-71.089081 42.364934)",
      "poi_name": "Sweetgreen",
      "osm_id": 11543746984,
      "amenity": "fast_food",
      "cuisine": "salad",
      "takeaway": "yes",
      "addr_state": "MA",
      "addr_city": "Cambridge",
      "addr_postcode": "02142",
      "addr_street": "Galileo Galilei Way",
      "addr_housenumber": "201",
      "value": 29.12457536921696
    },
    {
      "id": 143624,
      "geometry": "POINT (-71.209796 42.330802)",
      "poi_name": "Dunkin' Donuts",
      "osm_id": 6345780660,
      "amenity": "fast_food",
      "cuisine": "donut;coffee_shop",
      "wheelchair": "yes",
      "phone": "+1-617-964-6892",
      "takeaway": "yes",
      "drive_through": "no",
      "outdoor_seating": "no",
      "addr_state": "MA",
      "addr_city": "Newton",
      "addr_postcode": "02461",
      "addr_street": "Beacon Street",
      "addr_housenumber": "1148",
      "value": 29.12457536921696
    },
    {
      "id": 137690,
      "geometry": "POINT (-71.122039 42.395849)",
      "poi_name": "Pok\u00e9works",
      "osm_id": 6110075581,
      "amenity": "fast_food",
      "cuisine": "poke;hawaiian",
      "opening_hours": "Mo-Su 11:30-22:00",
      "drive_through": "no",
      "addr_state": "MA",
      "addr_city": "Somerville",
      "addr_postcode": "02144",
      "addr_street": "Elm Street",
      "addr_housenumber": "261",
      "value": 29.12457536921696
    },
    {
      "id": 137691,
      "geometry": "POINT (-71.122087 42.39539)",
      "poi_name": "Grainmaker",
      "osm_id": 6110093486,
      "amenity": "fast_food",
      "opening_hours": "Mo-Su 10:30-22:00",
      "website": "https://www.eatgrainmaker.com/",
      "phone": "+1-617-764-3222",
      "drive_through": "no",
      "addr_state": "MA",
      "addr_city": "Somerville",
      "addr_postcode": "02144",
      "addr_street": "Elm Street",
      "addr_housenumber": "248",
      "value": 29.12457536921696
    },
    {
      "id": 137693,
      "geometry": "POINT (-71.121715 42.394884)",
      "poi_name": "Kong Dog",
      "osm_id": 6110093495,
      "amenity": "fast_food",
      "cuisine": "hot_dog",
      "opening_hours": "Mo-Su 11:00-22:00",
      "website": "https://kongdog.us/",
      "phone": "+1-781-660-0776",
      "drive_through": "no",
      "addr_state": "MA",
      "addr_city": "Somerville",
      "addr_postcode": "02144",
      "addr_street": "Elm Street",
      "addr_housenumber": "236",
      "value": 29.12457536921696
    },
    {
      "id": 137863,
      "geometry": "POINT (-71.083416 42.364234)",
      "poi_name": "B. Good",
      "osm_id": 6117409528,
      "amenity": "fast_food",
      "wheelchair": "yes",
      "opening_hours": "Mo-Sa 11:00-20:00; Su 11:00-19:00",
      "website": "https://www.bgood.com/locations/301-third-street-cambridge-ma/",
      "drive_through": "no",
      "outdoor_seating": "no",
      "addr_state": "MA",
      "addr_city": "Cambridge",
      "addr_street": "Third Street",
      "addr_housenumber": "301",
      "value": 29.12457536921696
    },
    {
      "id": 140174,
      "geometry": "POINT (-71.088528 42.339613)",
      "poi_name": "Dunkin'",
      "osm_id": 6234789786,
      "amenity": "fast_food",
      "cuisine": "donut;coffee_shop",
      "phone": "+1 617-373-4611",
      "takeaway": "yes",
      "drive_through": "no",
      "addr_state": "MA",
      "addr_city": "Boston",
      "addr_postcode": "02115",
      "addr_street": "Huntington Avenue",
      "addr_housenumber": "360",
      "value": 29.12457536921696
    },
    {
      "id": 137818,
      "geometry": "POINT (-71.1199 42.382071)",
      "poi_name": "Wrapro",
      "osm_id": 6114610857,
      "amenity": "fast_food",
      "cuisine": "falafel;sandwich",
      "opening_hours": "Mo-Sa 11:00-21:00",
      "website": "http://wrapro.co/",
      "phone": "+1 617 876 0311",
      "addr_state": "MA",
      "addr_city": "Cambridge",
      "addr_postcode": "02138",
      "addr_street": "Massachusetts Avenue",
      "addr_housenumber": "1670",
      "value": 29.12457536921696
    },
    {
      "id": 137973,
      "geometry": "POINT (-71.111452 42.369552)",
      "poi_name": "Dunkin'",
      "osm_id": 6124523706,
      "amenity": "fast_food",
      "cuisine": "donut;coffee_shop",
      "opening_hours": "Mo-Su 05:00-19:00",
      "phone": "+16177144242",
      "takeaway": "yes",
      "addr_state": "MA",
      "addr_city": "Cambridge",
      "addr_postcode": "02138",
      "addr_street": "Massachusetts Avenue",
      "addr_housenumber": "1001",
      "value": 29.12457536921696
    },
    {
      "id": 138365,
      "geometry": "POINT (-71.075628 42.350803)",
      "poi_name": "Finagle A Bagel",
      "osm_id": 6144142173,
      "amenity": "fast_food",
      "cuisine": "bagel",
      "wheelchair": "yes",
      "website": "https://www.finagleabagel.com/",
      "phone": "+1-617-266-2500",
      "drive_through": "no",
      "outdoor_seating": "yes",
      "addr_state": "MA",
      "addr_city": "Boston",
      "addr_postcode": "02116",
      "addr_street": "Boylston Street",
      "addr_housenumber": "535",
      "value": 29.12457536921696
    },
    {
      "id": 147399,
      "geometry": "POINT (-71.074857 42.351062)",
      "poi_name": "Pret A Manger",
      "osm_id": 7529562650,
      "amenity": "fast_food",
      "cuisine": "sandwich",
      "website": "https://locations.pret.com/ma-boston-54",
      "phone": "+1-617-236-0634",
      "takeaway": "yes",
      "drive_through": "no",
      "addr_state": "MA",
      "addr_city": "Boston",
      "addr_postcode": "02116",
      "addr_street": "Boylston Street",
      "addr_housenumber": "507",
      "value": 29.12457536921696
    },
    {
      "id": 146994,
      "geometry": "POINT (-71.076172 42.350657)",
      "poi_name": "Dig",
      "osm_id": 7490811289,
      "amenity": "fast_food",
      "cuisine": "regional",
      "opening_hours": "Mo-Su 11:00-21:00",
      "website": "https://www.diginn.com/",
      "phone": "+1-617-904-3711",
      "takeaway": "yes",
      "drive_through": "no",
      "addr_state": "MA",
      "addr_city": "Boston",
      "addr_postcode": "02116",
      "addr_street": "Boylston Street",
      "addr_housenumber": "557",
      "value": 29.12457536921696
    },
    {
      "id": 147049,
      "geometry": "POINT (-71.078651 42.349971)",
      "poi_name": "Sweetgreen",
      "osm_id": 7499693357,
      "amenity": "fast_food",
      "cuisine": "salad",
      "opening_hours": "Mo-Fr 10:30-22:00; Sa-Su 10:30-21:00",
      "website": "https://order.sweetgreen.com/back-bay/menu",
      "phone": "+1-617-936-3464",
      "takeaway": "yes",
      "outdoor_seating": "yes",
      "delivery": "yes",
      "addr_state": "MA",
      "addr_city": "Boston",
      "addr_postcode": "02116",
      "addr_street": "Boylston Street",
      "addr_housenumber": "659",
      "value": 29.12457536921696
    },
    {
      "id": 147056,
      "geometry": "POINT (-71.081594 42.349639)",
      "poi_name": "Shake Shack",
      "osm_id": 7501883775,
      "amenity": "fast_food",
      "cuisine": "burger",
      "opening_hours": "Mo-Su 11:00-22:00",
      "website": "https://www.shakeshack.com/location/newbury-street-boston-ma/",
      "phone": "+1-617-933-5050",
      "takeaway": "yes",
      "drive_through": "no",
      "addr_state": "MA",
      "addr_city": "Boston",
      "addr_postcode": "02116",
      "addr_street": "Newbury Street",
      "addr_housenumber": "234",
      "value": 29.12457536921696
    },
    {
      "id": 147455,
      "geometry": "POINT (-71.072333 42.351674)",
      "poi_name": "Beatnic",
      "osm_id": 7534044532,
      "amenity": "fast_food",
      "cuisine": "burger;ice_cream;sandwich",
      "opening_hours": "Mo-Su 11:00-21:00",
      "website": "https://www.eatbeatnic.com/",
      "phone": "+12122908000",
      "drive_through": "no",
      "addr_state": "MA",
      "addr_city": "Boston",
      "addr_postcode": "02116",
      "addr_street": "Boylston Street",
      "addr_housenumber": "399",
      "value": 29.12457536921696
    },
    {
      "id": 147531,
      "geometry": "POINT (-71.079983 42.349616)",
      "poi_name": "Dunkin'",
      "osm_id": 7539307935,
      "amenity": "fast_food",
      "cuisine": "donut;coffee_shop",
      "opening_hours": "Mo-Fr 05:00-19:30; Sa 06:00-19:30; Su 07:00-18:00",
      "phone": "+1-617-267-7153",
      "takeaway": "yes",
      "drive_through": "no",
      "outdoor_seating": "no",
      "addr_state": "MA",
      "addr_city": "Boston",
      "addr_postcode": "02116",
      "addr_street": "Boylston Street",
      "addr_housenumber": "715",
      "value": 29.12457536921696
    },
    {
      "id": 149134,
      "geometry": "POINT (-71.063037 42.35524)",
      "poi_name": "McDonald's",
      "osm_id": 3997720740,
      "amenity": "fast_food",
      "cuisine": "burger",
      "wheelchair": "yes",
      "website": "https://www.mcdonalds.com/us/en-us/location/ma/boston/146-tremont-st/1720.html",
      "phone": "+1-617-338-9876",
      "takeaway": "yes",
      "drive_through": "no",
      "outdoor_seating": "no",
      "addr_state": "MA",
      "addr_city": "Boston",
      "addr_street": "Tremont Street",
      "addr_housenumber": "146",
      "value": 29.12457536921696
    },
    {
      "id": 149495,
      "geometry": "POINT (-71.005344 42.421988)",
      "poi_name": "Dunkin'",
      "osm_id": 4012279666,
      "amenity": "fast_food",
      "cuisine": "donut;coffee_shop",
      "opening_hours": "Mo-Sa 04:00-22:00; Su 05:00-22:00",
      "phone": "+17812849777",
      "takeaway": "yes",
      "addr_state": "MA",
      "addr_city": "Revere",
      "addr_postcode": "02151",
      "addr_street": "Squire Road",
      "addr_housenumber": "35",
      "value": 29.12457536921696
    },
    {
      "id": 148236,
      "geometry": "POINT (-71.06542 42.375804)",
      "poi_name": "Dunkin'",
      "osm_id": 3938342558,
      "amenity": "fast_food",
      "cuisine": "donut;coffee_shop",
      "opening_hours": "Mo-Su 05:00-18:00",
      "phone": "+16172424396",
      "takeaway": "yes",
      "addr_state": "MA",
      "addr_city": "Charlestown",
      "addr_postcode": "02129",
      "addr_street": "Austin Street",
      "addr_housenumber": "11",
      "value": 29.12457536921696
    },
    {
      "id": 149943,
      "geometry": "POINT (-71.114453 42.310785)",
      "poi_name": "The Real Deal",
      "osm_id": 4033939484,
      "amenity": "fast_food",
      "cuisine": "sandwich;salad;pizza;burger",
      "opening_hours": "Mo-Su 11:00-20:00",
      "phone": "+1-617-522-1181",
      "drive_through": "no",
      "addr_state": "MA",
      "addr_city": "Jamaica Plain",
      "addr_postcode": "02130",
      "addr_street": "Centre Street",
      "addr_housenumber": "736",
      "value": 29.12457536921696
    },
    {
      "id": 150558,
      "geometry": "POINT (-71.114571 42.303928)",
      "poi_name": "Italian Pizza and Subs",
      "osm_id": 4059105769,
      "amenity": "fast_food",
      "cuisine": "pizza;italian",
      "opening_hours": "Su-Th 11:00-16:30; Fr-Sa 11:00-22:00",
      "website": "http://orderitalianpizzaandsubs.com/",
      "phone": "+1-617-390-5301",
      "takeaway": "yes",
      "drive_through": "no",
      "addr_state": "MA",
      "addr_city": "Jamaica Plain",
      "addr_postcode": "02130",
      "addr_street": "South Street",
      "addr_housenumber": "172",
      "value": 29.12457536921696
    },
    {
      "id": 150942,
      "geometry": "POINT (-71.05496 42.351825)",
      "poi_name": "Dunkin'",
      "osm_id": 4074813873,
      "amenity": "fast_food",
      "cuisine": "donut;coffee_shop",
      "wheelchair": "yes",
      "opening_hours": "Mo-Fr 06:00-18:00; Sa,Su 07:00-14:00",
      "internet_access": "wlan",
      "phone": "+1-617-737-8080",
      "takeaway": "only",
      "drive_through": "no",
      "outdoor_seating": "no",
      "delivery": "no",
      "addr_state": "MA",
      "addr_city": "Boston",
      "addr_postcode": "02210",
      "addr_street": "South Station",
      "addr_housenumber": "1",
      "value": 29.12457536921696
    },
    {
      "id": 150536,
      "geometry": "POINT (-71.11544 42.310022)",
      "poi_name": "J.P. House of Pizza",
      "osm_id": 4058896651,
      "amenity": "fast_food",
      "cuisine": "pizza",
      "opening_hours": "Mo-Sa 11:00-22:00; Su 12:00-21:00",
      "website": "https://www.jphopizza.com/",
      "phone": "+1-617-514-0355",
      "takeaway": "yes",
      "drive_through": "no",
      "addr_state": "MA",
      "addr_city": "Jamaica Plain",
      "addr_postcode": "02130",
      "addr_street": "Centre Street",
      "addr_housenumber": "775",
      "value": 29.12457536921696
    },
    {
      "id": 150943,
      "geometry": "POINT (-71.062435 42.352286)",
      "poi_name": "Dunkin'",
      "osm_id": 4074813875,
      "amenity": "fast_food",
      "cuisine": "donut;coffee_shop",
      "opening_hours": "Mo-Fr 05:30-18:00; Sa 06:00-15:00; Su 07:00-14:00",
      "phone": "+1-617-426-9731",
      "takeaway": "yes",
      "drive_through": "no",
      "addr_state": "MA",
      "addr_city": "Boston",
      "addr_postcode": "02111",
      "addr_street": "Washington Street",
      "addr_housenumber": "630",
      "value": 29.12457536921696
    },
    {
      "id": 150944,
      "geometry": "POINT (-71.058031 42.353482)",
      "poi_name": "Dunkin'",
      "osm_id": 4074813876,
      "amenity": "fast_food",
      "cuisine": "donut;coffee_shop",
      "opening_hours": "Mo-Fr 06:00-16:00; Sa 07:00-14:00",
      "phone": "+1-617-338-8141",
      "takeaway": "yes",
      "drive_through": "no",
      "addr_state": "MA",
      "addr_city": "Boston",
      "addr_postcode": "02110",
      "addr_street": "Summer Street",
      "addr_housenumber": "101",
      "value": 29.12457536921696
    },
    {
      "id": 150945,
      "geometry": "POINT (-71.059544 42.354491)",
      "poi_name": "Dunkin'",
      "osm_id": 4074813877,
      "amenity": "fast_food",
      "cuisine": "donut;coffee_shop",
      "opening_hours": "Mo-Fr 06:00-16:00",
      "phone": "+16174262817",
      "takeaway": "yes",
      "addr_state": "MA",
      "addr_city": "Boston",
      "addr_postcode": "02110",
      "addr_street": "Summer Street",
      "addr_housenumber": "1",
      "value": 29.12457536921696
    },
    {
      "id": 151596,
      "geometry": "POINT (-71.042833 42.393875)",
      "poi_name": "Five Guys",
      "osm_id": 4106762060,
      "amenity": "fast_food",
      "cuisine": "burger",
      "wheelchair": "yes",
      "opening_hours": "Mo-Su 11:00-22:00",
      "website": "https://gofiveguys.com/menu/chelsea",
      "phone": "+1-617-466-2290",
      "takeaway": "yes",
      "drive_through": "no",
      "official_name": "Five Guys Burgers and Fries",
      "delivery": "no",
      "addr_state": "MA",
      "addr_city": "Chelsea",
      "addr_postcode": "02150",
      "addr_street": "Everett Avenue",
      "addr_housenumber": "158",
      "value": 29.12457536921696
    },
    {
      "id": 152031,
      "geometry": "POINT (-71.155533 42.349311)",
      "poi_name": "Subway",
      "osm_id": 4123660190,
      "amenity": "fast_food",
      "cuisine": "sandwich",
      "opening_hours": "Mo-Su 10:00-22:00",
      "website": "https://restaurants.subway.com/united-states/ma/brighton/419-washington-street?utm_source=yxt-goog&utm_medium=local&utm_term=acq&utm_content=48327&utm_campaign=evergreen-2020&y_source=1_MTQ5MDg0ODctNzE1LWxvY2F0aW9uLmdvb2dsZV93ZWJzaXRlX292ZXJyaWRl",
      "phone": "+16179872665",
      "takeaway": "yes",
      "addr_state": "MA",
      "addr_city": "Brighton",
      "addr_postcode": "02135",
      "addr_street": "Washington Street",
      "addr_housenumber": "419",
      "value": 29.12457536921696
    },
    {
      "id": 153681,
      "geometry": "POINT (-71.06793 42.424523)",
      "poi_name": "Santoros",
      "osm_id": 4208056244,
      "amenity": "fast_food",
      "cuisine": "sandwich",
      "website": "http://santorosmalden.com/",
      "addr_state": "MA",
      "addr_city": "Malden",
      "addr_postcode": "02148",
      "addr_street": "Main Street",
      "addr_housenumber": "310",
      "value": 29.12457536921696
    },
    {
      "id": 152024,
      "geometry": "POINT (-71.152983 42.348884)",
      "poi_name": "Dunkin'",
      "osm_id": 4123603494,
      "amenity": "fast_food",
      "cuisine": "donut;coffee_shop",
      "opening_hours": "Mo-Fr 05:00-20:00; Sa 05:00-19:00; Su 06:00-19:00",
      "phone": "+16177820852",
      "takeaway": "yes",
      "addr_state": "MA",
      "addr_city": "Brighton",
      "addr_postcode": "02135",
      "addr_street": "Washington Street",
      "addr_housenumber": "350",
      "value": 29.12457536921696
    },
    {
      "id": 152298,
      "geometry": "POINT (-71.099162 42.372853)",
      "poi_name": "Beauty's Pizza",
      "osm_id": 4137279573,
      "amenity": "fast_food",
      "cuisine": "pizza",
      "opening_hours": "Mo-Su 10:00-22:00",
      "website": "http://www.beautys-pizza.com",
      "phone": "+1 617 876 6969",
      "addr_state": "MA",
      "addr_city": "Cambridge",
      "addr_postcode": "02139",
      "addr_street": "Hampshire Street",
      "addr_housenumber": "187",
      "value": 29.12457536921696
    },
    {
      "id": 153012,
      "geometry": "POINT (-71.117862 42.372928)",
      "poi_name": "Clover Food Lab",
      "osm_id": 4172418807,
      "amenity": "fast_food",
      "opening_hours": "Mo-Sa 07:00-23:00; Su 07:00-22:00",
      "website": "https://www.cloverfoodlab.com/",
      "addr_city": "Cambridge",
      "addr_street": "Massachusetts Avenue",
      "addr_housenumber": "1326",
      "value": 29.12457536921696
    },
    {
      "id": 153736,
      "geometry": "POINT (-71.065028 42.424769)",
      "poi_name": "Catalina's Pizza",
      "osm_id": 4210657796,
      "amenity": "fast_food",
      "cuisine": "pizza",
      "opening_hours": "Mo-We 10:00-22:00; Th,Fr 10:00-23:00; Sa 11:00-23:00; Su 11:00-22:00",
      "website": "https://www.catalinaspizza.com/",
      "drive_through": "no",
      "outdoor_seating": "no",
      "addr_state": "MA",
      "addr_city": "Malden",
      "addr_postcode": "02148",
      "addr_street": "Ferry Street",
      "addr_housenumber": "109",
      "value": 29.12457536921696
    },
    {
      "id": 153684,
      "geometry": "POINT (-71.067412 42.425109)",
      "poi_name": "Mimi's Roast Beef & Seafood",
      "osm_id": 4208074257,
      "amenity": "fast_food",
      "cuisine": "sandwich",
      "website": "http://mimisroastbeef.com/",
      "takeaway": "yes",
      "drive_through": "no",
      "addr_state": "MA",
      "addr_city": "Malden",
      "addr_postcode": "02148",
      "addr_street": "Centre Street",
      "addr_housenumber": "205",
      "value": 29.12457536921696
    },
    {
      "id": 153685,
      "geometry": "POINT (-71.067329 42.42502)",
      "poi_name": "Subway",
      "osm_id": 4208075427,
      "amenity": "fast_food",
      "cuisine": "sandwich",
      "website": "https://www.subway.com/",
      "takeaway": "yes",
      "drive_through": "no",
      "addr_state": "MA",
      "addr_city": "Malden",
      "addr_postcode": "02148",
      "addr_street": "Centre Street",
      "addr_housenumber": "207",
      "value": 29.12457536921696
    },
    {
      "id": 160129,
      "geometry": "POINT (-71.076082 42.35068)",
      "poi_name": "Chipotle",
      "osm_id": 4821534529,
      "amenity": "fast_food",
      "cuisine": "mexican",
      "wheelchair": "yes",
      "website": "https://chipotle.com/",
      "phone": "+1-617-236-1749",
      "takeaway": "yes",
      "drive_through": "no",
      "official_name": "Chipotle Mexican Grill",
      "addr_state": "MA",
      "addr_city": "Boston",
      "addr_postcode": "02116",
      "addr_street": "Boylston Street",
      "addr_housenumber": "553",
      "value": 29.12457536921696
    },
    {
      "id": 155043,
      "geometry": "POINT (-71.119902 42.372597)",
      "poi_name": "Tasty Burger",
      "osm_id": 4267069469,
      "amenity": "fast_food",
      "cuisine": "burger",
      "opening_hours": "Su-Th 11:00-24:00; Fr-Sa  11:00-01:00",
      "takeaway": "yes",
      "drive_through": "no",
      "outdoor_seating": "no",
      "addr_state": "MA",
      "addr_city": "Cambridge",
      "value": 29.12457536921696
    },
    {
      "id": 155705,
      "geometry": "POINT (-71.058882 42.354438)",
      "poi_name": "Uno Due Go",
      "osm_id": 4297326459,
      "amenity": "fast_food",
      "cuisine": "pizza",
      "opening_hours": "Mo-Fr 06:30-20:00; Sa 09:00-18:00",
      "addr_state": "MA",
      "addr_city": "Boston",
      "addr_postcode": "02110",
      "addr_street": "Summer Street",
      "addr_housenumber": "52",
      "value": 29.12457536921696
    },
    {
      "id": 157855,
      "geometry": "POINT (-71.131355 42.350686)",
      "poi_name": "Five Guys",
      "osm_id": 4727366616,
      "amenity": "fast_food",
      "cuisine": "burger",
      "opening_hours": "Su-Th 11:00-22:00",
      "website": "https://restaurants.fiveguys.com/1223-commonwealth-ave",
      "phone": "+16174875495",
      "takeaway": "yes",
      "drive_through": "no",
      "official_name": "Five Guys Burgers and Fries",
      "addr_state": "MA",
      "addr_city": "Boston",
      "addr_postcode": "02134",
      "addr_street": "Commonwealth Avenue",
      "addr_housenumber": "1223",
      "value": 29.12457536921696
    },
    {
      "id": 158737,
      "geometry": "POINT (-71.235626 42.285987)",
      "poi_name": "Subway",
      "osm_id": 4760599593,
      "amenity": "fast_food",
      "cuisine": "sandwich",
      "opening_hours": "Mo-Fr 07:00-22:00; Sa 08:00-22:00; Su 09:00-21:00",
      "takeaway": "yes",
      "addr_state": "MA",
      "addr_city": "Needham",
      "addr_postcode": "02492",
      "addr_street": "Highland Avenue",
      "addr_housenumber": "1187",
      "value": 29.12457536921696
    },
    {
      "id": 159667,
      "geometry": "POINT (-71.067206 42.426816)",
      "poi_name": "Dunkin'",
      "osm_id": 4802159421,
      "amenity": "fast_food",
      "cuisine": "donut;coffee_shop",
      "phone": "+1-781-324-5337",
      "takeaway": "yes",
      "addr_state": "MA",
      "addr_city": "Malden",
      "addr_postcode": "02148",
      "addr_street": "Main Street",
      "addr_housenumber": "424",
      "value": 29.12457536921696
    },
    {
      "id": 157709,
      "geometry": "POINT (-71.095995 42.360983)",
      "poi_name": "Saloniki",
      "osm_id": 4722509102,
      "amenity": "fast_food",
      "cuisine": "greek",
      "opening_hours": "Mo-Su 11:00-21:00",
      "website": "https://www.salonikigreek.com/",
      "phone": "+1 (617) 714-5152",
      "takeaway": "yes",
      "drive_through": "no",
      "outdoor_seating": "yes",
      "addr_state": "MA",
      "addr_city": "Cambridge",
      "addr_postcode": "02139",
      "addr_street": "Massachusetts Avenue",
      "addr_housenumber": "181",
      "value": 29.12457536921696
    },
    {
      "id": 157861,
      "geometry": "POINT (-71.133529 42.353375)",
      "poi_name": "Dunkin'",
      "osm_id": 4727545882,
      "amenity": "fast_food",
      "cuisine": "donut;coffee_shop",
      "opening_hours": "Mo-Su 05:00-21:00",
      "website": "https://locations.dunkindonuts.com/en/ma/allston/179-brighton-ave/304560",
      "phone": "+16177873462",
      "takeaway": "yes",
      "addr_state": "MA",
      "addr_city": "Allston",
      "addr_postcode": "02134",
      "addr_street": "Brighton Avenue",
      "addr_housenumber": "179",
      "value": 29.12457536921696
    },
    {
      "id": 160578,
      "geometry": "POINT (-71.108798 42.364795)",
      "poi_name": "Beantown Taqueria Caf\u00e9",
      "osm_id": 4839259297,
      "amenity": "fast_food",
      "cuisine": "mexican",
      "opening_hours": "Mo-Fr 16:00-22:00; Sa-Su 12:00-22:00",
      "website": "https://beantowntaqueriacafe.com/",
      "internet_access": "wlan",
      "phone": "+1 617 714 4719",
      "drive_through": "no",
      "outdoor_seating": "yes",
      "addr_state": "MA",
      "addr_city": "Cambridge",
      "addr_postcode": "02139",
      "addr_street": "Western Avenue",
      "addr_housenumber": "150",
      "value": 29.12457536921696
    },
    {
      "id": 160603,
      "geometry": "POINT (-71.061031 42.365128)",
      "poi_name": "Dunkin'",
      "osm_id": 4840062091,
      "amenity": "fast_food",
      "cuisine": "donut;coffee_shop",
      "opening_hours": "Mo-Fr 05:30-17:00; Sa 06:00-14:00; Su 07:00-13:00",
      "phone": "+16172274920",
      "takeaway": "yes",
      "addr_state": "MA",
      "addr_city": "Boston",
      "addr_postcode": "02114",
      "addr_street": "Canal Street",
      "addr_housenumber": "180",
      "value": 29.12457536921696
    },
    {
      "id": 161843,
      "geometry": "POINT (-71.109273 42.322056)",
      "poi_name": "Across The Border",
      "osm_id": 4903031615,
      "amenity": "fast_food",
      "cuisine": "mexican",
      "website": "https://acrosstheborderfood.com/",
      "phone": "+1-617-682-6739",
      "drive_through": "no",
      "addr_state": "MA",
      "addr_city": "Jamaica Plain",
      "addr_postcode": "02130",
      "addr_street": "Centre Street",
      "addr_housenumber": "378",
      "value": 29.12457536921696
    },
    {
      "id": 163346,
      "geometry": "POINT (-71.056372 42.357904)",
      "poi_name": "Boloco",
      "osm_id": 9413454938,
      "amenity": "fast_food",
      "cuisine": "mexican",
      "addr_state": "MA",
      "addr_city": "Boston",
      "addr_postcode": "02109",
      "addr_street": "Congress Street",
      "addr_housenumber": "50",
      "value": 29.12457536921696
    },
    {
      "id": 163945,
      "geometry": "POINT (-71.169643 42.322503)",
      "poi_name": "Shake Shack",
      "osm_id": 9443261525,
      "amenity": "fast_food",
      "cuisine": "burger",
      "takeaway": "yes",
      "addr_state": "MA",
      "addr_city": "Chestnut Hill",
      "addr_postcode": "02467",
      "addr_street": "Boylston Street",
      "addr_housenumber": "49",
      "value": 29.12457536921696
    },
    {
      "id": 167019,
      "geometry": "POINT (-71.140823 42.362337)",
      "poi_name": "Big Daddy's",
      "osm_id": 329705548,
      "amenity": "fast_food",
      "cuisine": "pizza",
      "opening_hours": "Mo-Su 11:00-22:00",
      "website": "http://www.bigdaddyspizza.biz/",
      "phone": "+1 617 787 1080",
      "addr_state": "MA",
      "addr_city": "Brighton",
      "addr_postcode": "02135",
      "addr_street": "Western Avenue",
      "addr_housenumber": "436",
      "value": 29.12457536921696
    },
    {
      "id": 165220,
      "geometry": "POINT (-71.107387 42.338908)",
      "poi_name": "Sweetgreen",
      "osm_id": 9523370197,
      "amenity": "fast_food",
      "cuisine": "salad",
      "opening_hours": "Mo-Su 10:30-22:00",
      "website": "https://order.sweetgreen.com",
      "phone": "+1 781 653 6600",
      "takeaway": "yes",
      "addr_state": "MA",
      "addr_city": "Boston",
      "addr_postcode": "02215",
      "addr_street": "Longwood Avenue",
      "addr_housenumber": "360",
      "value": 29.12457536921696
    },
    {
      "id": 170808,
      "geometry": "POINT (-71.088484 42.34685)",
      "poi_name": "Boston Burger Company",
      "osm_id": 2350127246,
      "amenity": "fast_food",
      "cuisine": "burger",
      "website": "https://www.bostonburgercompany.com/",
      "phone": "+1-857-233-4560",
      "takeaway": "yes",
      "drive_through": "no",
      "outdoor_seating": "yes",
      "addr_state": "MA",
      "addr_city": "Boston",
      "addr_postcode": "02115",
      "addr_street": "Boylston Street",
      "addr_housenumber": "1100",
      "value": 29.12457536921696
    },
    {
      "id": 170810,
      "geometry": "POINT (-71.088552 42.346833)",
      "poi_name": "J.P. Licks",
      "osm_id": 2350127255,
      "amenity": "fast_food",
      "cuisine": "ice_cream",
      "website": "https://jplicks.com/locations/f/Boston-~amp~-Brookline/26",
      "phone": "+1-857-233-5805",
      "drive_through": "no",
      "outdoor_seating": "yes",
      "addr_state": "MA",
      "addr_city": "Boston",
      "addr_postcode": "02115",
      "addr_street": "Boylston Street",
      "addr_housenumber": "1106",
      "value": 29.12457536921696
    },
    {
      "id": 170832,
      "geometry": "POINT (-71.096314 42.34855)",
      "poi_name": "Dunkin'",
      "osm_id": 2350393263,
      "amenity": "fast_food",
      "cuisine": "donut;coffee_shop",
      "opening_hours": "Mo-Sa 05:00-23:00; Su 05:30-22:00",
      "operator": "Dunkin\u2019 Brands",
      "phone": "+1-617-236-7673",
      "takeaway": "yes",
      "drive_through": "no",
      "outdoor_seating": "no",
      "addr_state": "MA",
      "addr_city": "Boston",
      "addr_postcode": "02215",
      "addr_street": "Commonwealth Avenue",
      "addr_housenumber": "530",
      "value": 29.12457536921696
    },
    {
      "id": 171254,
      "geometry": "POINT (-71.096696 42.348545)",
      "poi_name": "McDonald's",
      "osm_id": 2367929358,
      "amenity": "fast_food",
      "cuisine": "burger",
      "website": "https://www.mcdonalds.com/us/en-us/location/ma/boston/540-commonwealth-ave/17677.html",
      "phone": "+1-617-778-5228",
      "takeaway": "yes",
      "outdoor_seating": "no",
      "addr_state": "MA",
      "addr_city": "Boston",
      "addr_postcode": "02215",
      "addr_street": "Commonwealth Avenue",
      "addr_housenumber": "540",
      "value": 29.12457536921696
    },
    {
      "id": 167222,
      "geometry": "POINT (-71.106604 42.383514)",
      "poi_name": "Dunkin'",
      "osm_id": 345423146,
      "amenity": "fast_food",
      "cuisine": "donut;coffee_shop",
      "opening_hours": "Mo-Su 05:00-18:00",
      "phone": "+16176283355",
      "takeaway": "yes",
      "addr_state": "MA",
      "addr_city": "Somerville",
      "addr_postcode": "02143",
      "addr_street": "Somerville Avenue",
      "addr_housenumber": "519",
      "value": 29.12457536921696
    },
    {
      "id": 171627,
      "geometry": "POINT (-71.059152 42.357701)",
      "poi_name": "Clover Food Lab",
      "osm_id": 2381508665,
      "amenity": "fast_food",
      "opening_hours": "Mo-Sa 07:00-20:00",
      "website": "https://www.cloverfoodlab.com/",
      "internet_access": "wlan",
      "drive_through": "no",
      "outdoor_seating": "no",
      "addr_city": "Boston",
      "addr_postcode": "02108",
      "addr_street": "School Street",
      "addr_housenumber": "27",
      "value": 29.12457536921696
    },
    {
      "id": 173867,
      "geometry": "POINT (-71.118969 42.333568)",
      "poi_name": "Dunkin'",
      "osm_id": 2458349917,
      "amenity": "fast_food",
      "cuisine": "donut;coffee_shop",
      "opening_hours": "Mo-Su 05:00-21:00",
      "phone": "+16172327572",
      "takeaway": "yes",
      "addr_state": "MA",
      "addr_city": "Brookline",
      "addr_postcode": "02445",
      "addr_street": "Harvard Street",
      "addr_housenumber": "8",
      "value": 29.12457536921696
    },
    {
      "id": 175867,
      "geometry": "POINT (-71.088784 42.389654)",
      "poi_name": "Dunkin'",
      "osm_id": 2546995182,
      "amenity": "fast_food",
      "cuisine": "donut;coffee_shop",
      "opening_hours": "Su-Fr 05:00-20:00; Sa 05:00-16:00",
      "phone": "+16176239194",
      "takeaway": "yes",
      "outdoor_seating": "no",
      "addr_state": "MA",
      "addr_city": "Somerville",
      "addr_postcode": "02145",
      "addr_street": "Broadway",
      "addr_housenumber": "220",
      "value": 29.12457536921696
    },
    {
      "id": 176393,
      "geometry": "POINT (-71.097206 42.361745)",
      "poi_name": "Beantown Taqueria",
      "osm_id": 2560514681,
      "amenity": "fast_food",
      "cuisine": "mexican",
      "wheelchair": "no",
      "opening_hours": "Su-We 09:00-02:00, Th-Sa 09:00-04:00",
      "website": "http://www.beantowntaq.com/",
      "capacity": "17",
      "phone": "+1 617 441 8689",
      "takeaway": "yes",
      "drive_through": "no",
      "outdoor_seating": "no",
      "delivery": "yes",
      "addr_state": "MA",
      "addr_city": "Cambridge",
      "addr_street": "Massachusetts Avenue",
      "addr_housenumber": "245",
      "value": 29.12457536921696
    },
    {
      "id": 176620,
      "geometry": "POINT (-70.99225 42.397477)",
      "poi_name": "Dunkin'",
      "osm_id": 2564511796,
      "amenity": "fast_food",
      "cuisine": "donut;coffee_shop",
      "opening_hours": "Mo-Su 04:30-21:00",
      "phone": "+17812869287",
      "takeaway": "yes",
      "drive_through": "no",
      "addr_state": "MA",
      "addr_city": "Revere",
      "addr_postcode": "02151",
      "addr_street": "Bennington Street",
      "addr_housenumber": "1",
      "value": 29.12457536921696
    },
    {
      "id": 178546,
      "geometry": "POINT (-71.110894 42.413754)",
      "poi_name": "Pinky's Famous Pizza",
      "osm_id": 10728941349,
      "amenity": "fast_food",
      "cuisine": "pizza",
      "opening_hours": "Su-Th 11:00-21:30, Fr-Sa 11:00-22:30",
      "website": "https://www.pinkysfamouspizzamenu.com/",
      "phone": "17814830441",
      "drive_through": "no",
      "addr_state": "MA",
      "addr_city": "Medford",
      "addr_postcode": "02155",
      "addr_street": "Main Street",
      "addr_housenumber": "165",
      "value": 29.12457536921696
    },
    {
      "id": 178510,
      "geometry": "POINT (-71.195767 42.426277)",
      "poi_name": "Wicked Bagel Bakery and Deli",
      "osm_id": 10728631066,
      "amenity": "fast_food",
      "cuisine": "bagel",
      "opening_hours": "07:00-14:00",
      "website": "https://www.wickedbagel.com/",
      "phone": "+1-781-538-6506",
      "takeaway": "yes",
      "addr_state": "MA",
      "addr_city": "Lexington",
      "addr_postcode": "02420",
      "addr_street": "Massachusetts Avenue",
      "addr_housenumber": "171",
      "value": 29.12457536921696
    },
    {
      "id": 179395,
      "geometry": "POINT (-71.103534 42.366176)",
      "poi_name": "Tasty Burger",
      "osm_id": 10760274783,
      "amenity": "fast_food",
      "cuisine": "burger",
      "opening_hours": "Su-Th 11:00-24:00,Fr-Sa 11:00-02:00",
      "website": "https://www.tastyburger.com/location/central-square/",
      "phone": "+1 857 999 2080",
      "drive_through": "no",
      "outdoor_seating": "no",
      "addr_state": "MA",
      "addr_city": "Cambridge",
      "addr_street": "Prospect Street",
      "addr_housenumber": "23",
      "value": 29.12457536921696
    },
    {
      "id": 180083,
      "geometry": "POINT (-71.238529 42.366158)",
      "poi_name": "Dunkin'",
      "osm_id": 10790229519,
      "amenity": "fast_food",
      "cuisine": "donut;coffee_shop",
      "phone": "(781) 899-7286",
      "takeaway": "yes",
      "drive_through": "no",
      "addr_state": "MA",
      "addr_city": "Waltham",
      "addr_postcode": "02453",
      "addr_street": "Moody Street",
      "addr_housenumber": "591",
      "value": 29.12457536921696
    },
    {
      "id": 184011,
      "geometry": "POINT (-71.076428 42.350591)",
      "poi_name": "Chick-fil-A",
      "osm_id": 7767138072,
      "amenity": "fast_food",
      "cuisine": "chicken",
      "website": "https://www.chick-fil-a.com/",
      "phone": "+1-866-232-2040",
      "takeaway": "yes",
      "drive_through": "no",
      "outdoor_seating": "yes",
      "addr_state": "MA",
      "addr_city": "Boston",
      "addr_postcode": "02116",
      "addr_street": "Boylston Street",
      "addr_housenumber": "569",
      "value": 29.12457536921696
    },
    {
      "id": 184369,
      "geometry": "POINT (-71.04484 42.424635)",
      "poi_name": "Giovanni's Roast Beef and Pizza",
      "osm_id": 7785629305,
      "amenity": "fast_food",
      "cuisine": "pizza",
      "addr_state": "MA",
      "addr_city": "Malden",
      "addr_postcode": "02148",
      "addr_street": "Broadway",
      "addr_housenumber": "42",
      "value": 29.12457536921696
    },
    {
      "id": 184167,
      "geometry": "POINT (-71.088858 42.346756)",
      "poi_name": "Subway",
      "osm_id": 7776200227,
      "amenity": "fast_food",
      "cuisine": "sandwich",
      "website": "https://order.subway.com/en-us/restaurant/39185/",
      "phone": "+1-617-262-2991",
      "takeaway": "yes",
      "drive_through": "no",
      "addr_state": "MA",
      "addr_city": "Boston",
      "addr_postcode": "02115",
      "addr_street": "Boylston Street",
      "addr_housenumber": "1122",
      "value": 29.12457536921696
    },
    {
      "id": 184169,
      "geometry": "POINT (-71.087973 42.346984)",
      "poi_name": "Amelia\u2019s Taqueria",
      "osm_id": 7776200229,
      "amenity": "fast_food",
      "cuisine": "mexican",
      "website": "https://ameliastaqueria.com/locations/boylston-street/",
      "phone": "+1-857-233-2100",
      "takeaway": "yes",
      "drive_through": "no",
      "delivery": "yes",
      "addr_state": "MA",
      "addr_city": "Boston",
      "addr_postcode": "02215",
      "addr_street": "Boylston Street",
      "addr_housenumber": "1076",
      "value": 29.12457536921696
    },
    {
      "id": 184192,
      "geometry": "POINT (-71.083338 42.346913)",
      "poi_name": "Sweetgreen",
      "osm_id": 7777144264,
      "amenity": "fast_food",
      "cuisine": "salad",
      "opening_hours": "Mo-Fr 10:30-20:00",
      "website": "https://order.sweetgreen.com/prudential-center/menu",
      "phone": "+1-857-753-4982",
      "takeaway": "yes",
      "addr_state": "MA",
      "addr_city": "Boston",
      "addr_postcode": "02199",
      "addr_street": "Boylston Street",
      "addr_housenumber": "800",
      "value": 29.12457536921696
    },
    {
      "id": 184255,
      "geometry": "POINT (-71.081846 42.347385)",
      "poi_name": "Anna's Taqueria",
      "osm_id": 7778321726,
      "amenity": "fast_food",
      "cuisine": "tacos;burrito;quesdillas;bowl;salad",
      "website": "https://www.annastaqueria.com/locations/pru/",
      "phone": "+1-617-262-2300",
      "drive_through": "no",
      "addr_state": "MA",
      "addr_city": "Boston",
      "addr_postcode": "02199",
      "addr_street": "Boylston Street",
      "addr_housenumber": "800",
      "value": 29.12457536921696
    },
    {
      "id": 184256,
      "geometry": "POINT (-71.08175 42.34741)",
      "poi_name": "Num Pang",
      "osm_id": 7778321727,
      "amenity": "fast_food",
      "cuisine": "cambodian;sandwich",
      "opening_hours": "Mo-Su 11:00-20:00",
      "website": "https://www.numpangkitchen.com/the-prudential-center/",
      "phone": "+1-857-239-8535",
      "takeaway": "yes",
      "drive_through": "no",
      "addr_state": "MA",
      "addr_city": "Boston",
      "addr_postcode": "02199",
      "addr_street": "Boylston Street",
      "addr_housenumber": "800",
      "value": 29.12457536921696
    },
    {
      "id": 184374,
      "geometry": "POINT (-71.082386 42.349392)",
      "poi_name": "Wichit",
      "osm_id": 7785682404,
      "amenity": "fast_food",
      "cuisine": "sandwich",
      "website": "http://ww1.wichitsandwich.com/",
      "phone": "+1-857-453-8284",
      "takeaway": "yes",
      "drive_through": "no",
      "delivery": "yes",
      "addr_state": "MA",
      "addr_city": "Boston",
      "addr_postcode": "02116",
      "addr_street": "Newbury Street",
      "addr_housenumber": "244",
      "value": 29.12457536921696
    },
    {
      "id": 184657,
      "geometry": "POINT (-71.038859 42.371502)",
      "poi_name": "Mi Rancho",
      "osm_id": 7804580792,
      "amenity": "fast_food",
      "cuisine": "colombian;fast_food",
      "phone": "617-561-0205",
      "drive_through": "no",
      "addr_state": "MA",
      "addr_city": "East Boston",
      "addr_postcode": "02128",
      "addr_street": "Meridian Street",
      "addr_housenumber": "45",
      "value": 29.12457536921696
    },
    {
      "id": 185541,
      "geometry": "POINT (-71.086319 42.343764)",
      "poi_name": "Energize",
      "osm_id": 7863253903,
      "amenity": "fast_food",
      "cuisine": "juice;salad;bowl;smoothie",
      "wheelchair": "yes",
      "opening_hours": "Mo-Fr 09:30-19:00; Sa-Su 09:00-18:00",
      "website": "https://energizeboston.com/",
      "phone": "+1-857-317-3868",
      "takeaway": "yes",
      "drive_through": "no",
      "outdoor_seating": "no",
      "addr_state": "MA",
      "addr_city": "Boston",
      "addr_postcode": "02115",
      "addr_street": "Massachusetts Avenue",
      "addr_housenumber": "265",
      "value": 29.12457536921696
    },
    {
      "id": 184949,
      "geometry": "POINT (-71.062272 42.365861)",
      "poi_name": "Dunkin'",
      "osm_id": 7821801619,
      "amenity": "fast_food",
      "cuisine": "donut;coffee_shop",
      "wheelchair": "yes",
      "opening_hours": "Mo-Fr 06:00-18:00; Sa 07:00-12:00; Su closed",
      "phone": "+1-617-367-4301",
      "takeaway": "yes",
      "drive_through": "no",
      "outdoor_seating": "no",
      "delivery": "no",
      "addr_state": "MA",
      "addr_city": "Boston",
      "addr_postcode": "02114",
      "addr_street": "Legends Way",
      "addr_housenumber": "100",
      "value": 29.12457536921696
    },
    {
      "id": 184958,
      "geometry": "POINT (-71.075614 42.347318)",
      "poi_name": "Dunkin'",
      "osm_id": 7823784779,
      "amenity": "fast_food",
      "cuisine": "donut;coffee_shop",
      "wheelchair": "yes",
      "opening_hours": "Mo-Fr 05:00-19:00; Sa 06:00-18:00; Su 07:00-15:00",
      "phone": "+1-617-236-1025",
      "takeaway": "yes",
      "drive_through": "no",
      "outdoor_seating": "no",
      "addr_state": "MA",
      "addr_city": "Boston",
      "addr_postcode": "02116",
      "addr_street": "Dartmouth Street",
      "addr_housenumber": "145",
      "value": 29.12457536921696
    },
    {
      "id": 185766,
      "geometry": "POINT (-71.069215 42.34564)",
      "poi_name": "Blackbird Doughnuts",
      "osm_id": 7882332540,
      "amenity": "fast_food",
      "cuisine": "donut",
      "opening_hours": "Mo-Su 08:00-20:00",
      "operator": "The Gallows Group",
      "website": "https://www.blackbirddoughnuts.com/south-end",
      "phone": "+1-617-482-9000",
      "takeaway": "yes",
      "drive_through": "no",
      "outdoor_seating": "yes",
      "addr_state": "MA",
      "addr_city": "Boston",
      "addr_postcode": "02116",
      "addr_street": "Tremont Street",
      "addr_housenumber": "492",
      "value": 29.12457536921696
    },
    {
      "id": 186014,
      "geometry": "POINT (-71.064856 42.284976)",
      "poi_name": "Dunkin'",
      "osm_id": 7903279606,
      "amenity": "fast_food",
      "cuisine": "donut;coffee_shop",
      "opening_hours": "Mo-Sa 05:00-19:00; Su 06:00-18:00",
      "phone": "+16178257707",
      "takeaway": "yes",
      "addr_state": "MA",
      "addr_city": "Dorchester",
      "addr_postcode": "02124",
      "addr_street": "Dorchester Avenue",
      "addr_housenumber": "1931",
      "value": 29.12457536921696
    },
    {
      "id": 185858,
      "geometry": "POINT (-71.25959 42.325058)",
      "poi_name": "Dunkin'",
      "osm_id": 7888146048,
      "amenity": "fast_food",
      "cuisine": "donut;coffee_shop",
      "opening_hours": "Mo-Fr 05:00-19:00, Sa-Su 05:00-18:00",
      "internet_access": "wlan",
      "phone": "+1 781 237 3365",
      "takeaway": "yes",
      "drive_through": "no",
      "addr_state": "MA",
      "addr_city": "Wellesley",
      "addr_postcode": "02481",
      "addr_street": "Washington Street",
      "addr_housenumber": "12",
      "value": 29.12457536921696
    },
    {
      "id": 185832,
      "geometry": "POINT (-71.069176 42.345714)",
      "poi_name": "Sally's Sandwiches",
      "osm_id": 7887357568,
      "amenity": "fast_food",
      "cuisine": "sandwich",
      "opening_hours": "Mo-Su 08:00-20:00",
      "operator": "The Gallows Group",
      "website": "https://www.sallyssandwiches.com/",
      "phone": "+1-857-449-0443",
      "takeaway": "yes",
      "drive_through": "no",
      "outdoor_seating": "yes",
      "delivery": "yes",
      "addr_state": "MA",
      "addr_city": "Boston",
      "addr_postcode": "02116",
      "addr_street": "Tremont Street",
      "addr_housenumber": "492",
      "value": 29.12457536921696
    },
    {
      "id": 186179,
      "geometry": "POINT (-71.075475 42.34768)",
      "poi_name": "Dunkin' Donuts Express",
      "osm_id": 7917365857,
      "amenity": "fast_food",
      "cuisine": "donut;coffee_shop",
      "wheelchair": "yes",
      "opening_hours": "Mo-Fr 05:00-17:00",
      "phone": "+1-617-536-8852",
      "takeaway": "only",
      "drive_through": "no",
      "outdoor_seating": "no",
      "addr_state": "MA",
      "addr_city": "Boston",
      "addr_postcode": "02116",
      "addr_street": "Dartmouth Street",
      "addr_housenumber": "145",
      "value": 29.12457536921696
    },
    {
      "id": 186291,
      "geometry": "POINT (-71.083922 42.362834)",
      "poi_name": "Dunkin'",
      "osm_id": 7924592200,
      "amenity": "fast_food",
      "cuisine": "donut;coffee_shop",
      "wheelchair": "yes",
      "opening_hours": "Mo-Sa 05:00-23:00; Su 06:00-21:00",
      "internet_access": "wlan",
      "phone": "+1 617 945 9627",
      "takeaway": "yes",
      "drive_through": "no",
      "outdoor_seating": "yes",
      "addr_state": "MA",
      "addr_city": "Cambridge",
      "addr_postcode": "02142",
      "addr_street": "Broadway",
      "addr_housenumber": "1",
      "value": 29.12457536921696
    },
    {
      "id": 187179,
      "geometry": "POINT (-71.06255 42.355696)",
      "poi_name": "Mooyah",
      "osm_id": 7978956587,
      "amenity": "fast_food",
      "cuisine": "burger",
      "opening_hours": "Mo-Th 11:00-21:00; Fr-Sa 11:00-22:00; Su 12:00-21:00",
      "website": "https://www.mooyah.com/locations/boston-ma-289",
      "phone": "+1-857-277-0176",
      "takeaway": "yes",
      "drive_through": "no",
      "outdoor_seating": "no",
      "addr_state": "MA",
      "addr_city": "Boston",
      "addr_postcode": "02111",
      "addr_street": "Tremont Street",
      "addr_housenumber": "140",
      "value": 29.12457536921696
    },
    {
      "id": 186362,
      "geometry": "POINT (-71.08291 42.346924)",
      "poi_name": "Dunkin'",
      "osm_id": 7926688804,
      "amenity": "fast_food",
      "cuisine": "donut;coffee_shop",
      "wheelchair": "yes",
      "opening_hours": "Mo-Sa 06:00-19:00; Su 07:00-19:00",
      "phone": "+1-617-536-3521",
      "takeaway": "yes",
      "drive_through": "no",
      "outdoor_seating": "no",
      "addr_state": "MA",
      "addr_city": "Boston",
      "addr_postcode": "02199",
      "addr_street": "Boylston Street",
      "addr_housenumber": "800",
      "value": 29.12457536921696
    },
    {
      "id": 189385,
      "geometry": "POINT (-71.004843 42.246209)",
      "poi_name": "Boston Market",
      "osm_id": 1231121149,
      "amenity": "fast_food",
      "cuisine": "american;chicken",
      "opening_hours": "Mo-Su 11:00-23:00",
      "website": "https://www.bostonmarket.com/location/ma/quincy/126-granite-street?utm_source=Yext&utm_medium=click&utm_campaign=listings&utm_content=594",
      "phone": "+16177741155",
      "takeaway": "yes",
      "addr_state": "MA",
      "addr_city": "Quincy",
      "addr_postcode": "02169",
      "addr_street": "Granite Street",
      "addr_housenumber": "126",
      "value": 29.12457536921696
    },
    {
      "id": 189761,
      "geometry": "POINT (-71.021091 42.363937)",
      "poi_name": "Dunkin'",
      "osm_id": 1249710181,
      "amenity": "fast_food",
      "cuisine": "donut;coffee_shop",
      "opening_hours": "Mo-Su 04:30-22:00",
      "phone": "+17819226776",
      "takeaway": "only",
      "drive_through": "no",
      "addr_state": "MA",
      "addr_city": "East Boston",
      "addr_postcode": "02128",
      "value": 29.12457536921696
    },
    {
      "id": 189762,
      "geometry": "POINT (-71.018275 42.368168)",
      "poi_name": "Dunkin'",
      "osm_id": 1249775387,
      "amenity": "fast_food",
      "cuisine": "donut;coffee_shop",
      "takeaway": "yes",
      "addr_state": "MA",
      "addr_city": "Boston",
      "addr_postcode": "02128",
      "addr_street": "Harborside Drive",
      "addr_housenumber": "1",
      "value": 29.12457536921696
    },
    {
      "id": 189769,
      "geometry": "POINT (-71.02934 42.276636)",
      "poi_name": "McDonald's",
      "osm_id": 1249819699,
      "amenity": "fast_food",
      "cuisine": "burger",
      "wheelchair": "yes",
      "opening_hours": "24/7",
      "website": "https://www.mcdonalds.com/us/en-us/location/ma/quincy/275-hancock-st/7280.html",
      "phone": "+16174796795",
      "takeaway": "yes",
      "outdoor_seating": "no",
      "addr_state": "MA",
      "addr_city": "Quincy",
      "addr_postcode": "02171",
      "addr_street": "Hancock Street",
      "addr_housenumber": "275",
      "value": 29.12457536921696
    },
    {
      "id": 190510,
      "geometry": "POINT (-71.121743 42.394923)",
      "poi_name": "Anna's Taqueria",
      "osm_id": 1298715522,
      "amenity": "fast_food",
      "cuisine": "mexican",
      "opening_hours": "Mo-Su 10:00-23:00",
      "website": "http://www.annastaqueria.com/",
      "phone": "+1 617 666 3900",
      "drive_through": "no",
      "addr_state": "MA",
      "addr_city": "Somerville",
      "addr_postcode": "02144",
      "addr_street": "Elm Street",
      "addr_housenumber": "236A",
      "value": 29.12457536921696
    },
    {
      "id": 196270,
      "geometry": "POINT (-71.158526 42.362444)",
      "poi_name": "Kura Sushi",
      "osm_id": 10571948771,
      "amenity": "fast_food",
      "cuisine": "sushi",
      "opening_hours": "Mo-Th 11:30-21:00; Fr,Sa 11:00-21:30; Su 11:00-21:00",
      "website": "https://kurasushi.com/locations/watertown-ma",
      "phone": "+1-617-675-7575",
      "takeaway": "yes",
      "official_name": "Kura Revolving Sushi Bar",
      "addr_state": "MA",
      "addr_city": "Watertown",
      "addr_postcode": "02472",
      "addr_street": "Bond Square",
      "addr_housenumber": "101",
      "value": 29.12457536921696
    },
    {
      "id": 208201,
      "geometry": "POINT (-71.121165 42.374193)",
      "poi_name": "Dunkin'",
      "osm_id": 4978287999,
      "amenity": "fast_food",
      "cuisine": "donut;coffee_shop",
      "opening_hours": "Mo-Sa 05:00-22:00; Su 06:00-22:00",
      "phone": "+16177143827",
      "takeaway": "yes",
      "addr_state": "MA",
      "addr_city": "Cambridge",
      "addr_postcode": "02138",
      "addr_street": "Church Street",
      "addr_housenumber": "61",
      "value": 29.12457536921696
    },
    {
      "id": 199181,
      "geometry": "POINT (-70.999499 42.409588)",
      "poi_name": "Dunkin'",
      "osm_id": 942035769,
      "amenity": "fast_food",
      "cuisine": "donut;coffee_shop",
      "opening_hours": "24/7",
      "phone": "+17812849815",
      "takeaway": "yes",
      "addr_state": "MA",
      "addr_city": "Revere",
      "addr_postcode": "02151",
      "addr_street": "Beach Street",
      "addr_housenumber": "477",
      "value": 29.12457536921696
    },
    {
      "id": 199183,
      "geometry": "POINT (-71.064108 42.398536)",
      "poi_name": "McDonald's",
      "osm_id": 942207723,
      "amenity": "fast_food",
      "cuisine": "burger",
      "opening_hours": "24/7",
      "website": "https://www.mcdonalds.com/us/en-us/location/ma/everett/128-broadway/20986.html",
      "phone": "+16173878625",
      "takeaway": "yes",
      "addr_state": "MA",
      "addr_city": "Everett",
      "addr_postcode": "02149",
      "addr_street": "Broadway",
      "addr_housenumber": "128",
      "value": 29.12457536921696
    },
    {
      "id": 201457,
      "geometry": "POINT (-71.23506 42.436135)",
      "poi_name": "Dunkin'",
      "osm_id": 633268855,
      "amenity": "fast_food",
      "cuisine": "donut;coffee_shop",
      "opening_hours": "Mo-Su 06:00-19:00",
      "phone": "+1-781-538-5158",
      "takeaway": "yes",
      "addr_state": "MA",
      "addr_city": "Lexington",
      "addr_postcode": "02421",
      "addr_street": "Waltham Street",
      "addr_housenumber": "373",
      "value": 29.12457536921696
    },
    {
      "id": 201708,
      "geometry": "POINT (-71.027323 42.253595)",
      "poi_name": "Dunkin'",
      "osm_id": 652791195,
      "amenity": "fast_food",
      "cuisine": "donut;coffee_shop",
      "opening_hours": "Mo-Fr 05:00-20:00; Sa-Su 06:00-20:00",
      "phone": "+1-617-773-0795",
      "takeaway": "yes",
      "addr_state": "MA",
      "addr_city": "Quincy",
      "addr_postcode": "02169",
      "addr_street": "Adams Street",
      "addr_housenumber": "550",
      "value": 29.12457536921696
    },
    {
      "id": 203794,
      "geometry": "POINT (-71.120073 42.372872)",
      "poi_name": "Sweetgreen",
      "osm_id": 7100193728,
      "amenity": "fast_food",
      "cuisine": "salad",
      "opening_hours": "Mo-Su 10:30-22:00",
      "website": "https://order.sweetgreen.com/?utm_source=google_listing&utm_medium=yext&utm_campaign=visit_main_website_CTA&y_source=1_MzY5ODIyOC03MTUtbG9jYXRpb24ud2Vic2l0ZQ%3D%3D",
      "phone": "+16179413400",
      "takeaway": "yes",
      "addr_state": "MA",
      "addr_city": "Cambridge",
      "addr_postcode": "02138",
      "addr_street": "John F. Kennedy Street",
      "addr_housenumber": "39",
      "value": 29.12457536921696
    },
    {
      "id": 203808,
      "geometry": "POINT (-71.121133 42.371717)",
      "poi_name": "Dunkin'",
      "osm_id": 7100285256,
      "amenity": "fast_food",
      "cuisine": "donut;coffee_shop",
      "opening_hours": "Mo-Su 06:00-24:00",
      "phone": "+16173545096",
      "takeaway": "yes",
      "addr_state": "MA",
      "addr_city": "Cambridge",
      "addr_postcode": "02138",
      "addr_street": "John F. Kennedy Street",
      "addr_housenumber": "65",
      "value": 29.12457536921696
    },
    {
      "id": 204006,
      "geometry": "POINT (-71.119527 42.372212)",
      "poi_name": "Dig",
      "osm_id": 7110645322,
      "amenity": "fast_food",
      "cuisine": "regional",
      "opening_hours": "Mo-Su 11:00-21:00",
      "website": "https://www.diginn.com/",
      "phone": "+1-617-904-4340",
      "takeaway": "yes",
      "addr_state": "MA",
      "addr_city": "Cambridge",
      "addr_postcode": "02138",
      "addr_street": "Mount Auburn Street",
      "addr_housenumber": "82",
      "value": 29.12457536921696
    },
    {
      "id": 205610,
      "geometry": "POINT (-71.089221 42.336512)",
      "poi_name": "Dunkin'",
      "osm_id": 7176068705,
      "amenity": "fast_food",
      "cuisine": "donut;coffee_shop",
      "opening_hours": "Mo-Fr 06:00-15:00; Sa 06:00-14:00; Su 07:00-15:00",
      "phone": "+1 617-536-7447",
      "takeaway": "yes",
      "drive_through": "no",
      "addr_state": "MA",
      "addr_city": "Boston",
      "addr_postcode": "02120",
      "addr_street": "Tremont Street",
      "addr_housenumber": "1131",
      "value": 29.12457536921696
    },
    {
      "id": 208840,
      "geometry": "POINT (-71.04083 42.389104)",
      "poi_name": "Dunkin'",
      "osm_id": 5007585143,
      "amenity": "fast_food",
      "cuisine": "donut;coffee_shop",
      "takeaway": "yes",
      "outdoor_seating": "no",
      "delivery": "no",
      "addr_state": "MA",
      "addr_city": "Chelsea",
      "addr_postcode": "02150",
      "addr_street": "Broadway",
      "addr_housenumber": "130",
      "value": 29.12457536921696
    },
    {
      "id": 209429,
      "geometry": "POINT (-71.035433 42.404833)",
      "poi_name": "Metro Pizza",
      "osm_id": 5037895386,
      "amenity": "fast_food",
      "cuisine": "pizza",
      "addr_state": "MA",
      "addr_city": "Chelsea",
      "addr_postcode": "02150",
      "addr_street": "Washington Avenue",
      "addr_housenumber": "357",
      "value": 29.12457536921696
    },
    {
      "id": 209430,
      "geometry": "POINT (-71.035678 42.40503)",
      "poi_name": "Pizza Lovers",
      "osm_id": 5037895387,
      "amenity": "fast_food",
      "cuisine": "pizza",
      "addr_state": "MA",
      "addr_city": "Chelsea",
      "addr_postcode": "02150",
      "addr_street": "Washington Avenue",
      "addr_housenumber": "368",
      "value": 29.12457536921696
    },
    {
      "id": 209431,
      "geometry": "POINT (-71.035764 42.404886)",
      "poi_name": "Dunkin'",
      "osm_id": 5037895388,
      "amenity": "fast_food",
      "cuisine": "donut;coffee_shop",
      "takeaway": "yes",
      "addr_state": "MA",
      "addr_city": "Chelsea",
      "addr_postcode": "02150",
      "addr_street": "Washington Avenue",
      "addr_housenumber": "372",
      "value": 29.12457536921696
    },
    {
      "id": 209720,
      "geometry": "POINT (-71.080855 42.403724)",
      "poi_name": "Five Guys",
      "osm_id": 5054860217,
      "amenity": "fast_food",
      "cuisine": "burger",
      "opening_hours": "Mo-Su 11:00-22:00",
      "website": "https://restaurants.fiveguys.com/65-station-landing",
      "phone": "+1-781-874-1250",
      "takeaway": "yes",
      "official_name": "Five Guys Burgers and Fries",
      "addr_state": "MA",
      "addr_city": "Medford",
      "addr_postcode": "02155",
      "addr_street": "Station Landing",
      "addr_housenumber": "65",
      "value": 29.12457536921696
    },
    {
      "id": 210815,
      "geometry": "POINT (-71.096323 42.361176)",
      "poi_name": "Oath Craft Pizza",
      "osm_id": 5122876709,
      "amenity": "fast_food",
      "cuisine": "pizza",
      "opening_hours": "Mo-Su 11:00-22:00",
      "addr_state": "MA",
      "addr_city": "Cambridge",
      "addr_postcode": "02139",
      "addr_street": "Massachusetts Avenue",
      "addr_housenumber": "181",
      "value": 29.12457536921696
    },
    {
      "id": 210744,
      "geometry": "POINT (-71.065765 42.35129)",
      "poi_name": "The Halal Guys",
      "osm_id": 5118001196,
      "amenity": "fast_food",
      "cuisine": "chicken;falafel;gyros",
      "opening_hours": "Mo-Su 11:00-24:00",
      "phone": "+1 857-250-2279",
      "takeaway": "yes",
      "addr_state": "MA",
      "addr_city": "Boston",
      "addr_postcode": "02116",
      "addr_street": "Stuart Street",
      "addr_housenumber": "137",
      "value": 29.12457536921696
    },
    {
      "id": 210745,
      "geometry": "POINT (-71.066228 42.351267)",
      "poi_name": "Dunkin'",
      "osm_id": 5118009112,
      "amenity": "fast_food",
      "cuisine": "donut;coffee_shop",
      "opening_hours": "Mo-Fr 06:00-16:00; Sa-Su 07:00-15:00",
      "phone": "+16173672823",
      "takeaway": "yes",
      "addr_state": "MA",
      "addr_city": "Boston",
      "addr_postcode": "02116",
      "addr_street": "Park Plaza",
      "addr_housenumber": "8",
      "value": 29.12457536921696
    },
    {
      "id": 212280,
      "geometry": "POINT (-71.087526 42.346403)",
      "poi_name": "Wendy's",
      "osm_id": 5197250403,
      "amenity": "fast_food",
      "cuisine": "burger",
      "opening_hours": "08:00-24:00",
      "operator": "Quality Is Our Recipe, LLC",
      "website": "https://locations.wendys.com/united-states/ma/boston/157-a-massachusetts-avenue",
      "internet_access": "wlan",
      "phone": "+1-617-236-1550",
      "takeaway": "yes",
      "drive_through": "no",
      "addr_state": "MA",
      "addr_city": "Boston",
      "addr_postcode": "02115",
      "addr_street": "Massachusetts Avenue",
      "addr_housenumber": "157-A",
      "value": 29.12457536921696
    },
    {
      "id": 212282,
      "geometry": "POINT (-71.087572 42.346497)",
      "poi_name": "Dunkin'",
      "osm_id": 5197251949,
      "amenity": "fast_food",
      "cuisine": "donut;coffee_shop",
      "opening_hours": "Mo 6:00-16:00; Tu 06:00-19:00; We 06:00-15:00; Th 06:00-19:00; Fr 06:00-15:00; Sa-Su 06:00-19:00",
      "phone": "+1 617 247 3861",
      "takeaway": "yes",
      "drive_through": "no",
      "addr_state": "MA",
      "addr_city": "Boston",
      "addr_postcode": "02115",
      "addr_street": "Massachusetts Avenue",
      "addr_housenumber": "153",
      "value": 29.12457536921696
    },
    {
      "id": 212287,
      "geometry": "POINT (-71.087262 42.345811)",
      "poi_name": "Supreme Pizza",
      "osm_id": 5197357141,
      "amenity": "fast_food",
      "cuisine": "pizza",
      "drive_through": "no",
      "addr_state": "MA",
      "addr_city": "Boston",
      "addr_postcode": "02215",
      "addr_street": "Massachusetts Avenue",
      "addr_housenumber": "177",
      "value": 29.12457536921696
    },
    {
      "id": 217395,
      "geometry": "POINT (-71.053461 42.37573)",
      "poi_name": "Dunkin'",
      "osm_id": 9219822034,
      "amenity": "fast_food",
      "cuisine": "donut;coffee_shop",
      "opening_hours": "Mo-Sa 06:00-18:00, Su 07:00-18:00",
      "phone": "+16172867321",
      "takeaway": "yes",
      "addr_state": "MA",
      "addr_city": "Boston",
      "addr_postcode": "02129",
      "addr_street": "First Avenue",
      "addr_housenumber": "100",
      "value": 29.12457536921696
    },
    {
      "id": 216217,
      "geometry": "POINT (-71.055222 42.351732)",
      "poi_name": "Au Bon Pain",
      "osm_id": 9162362339,
      "amenity": "fast_food",
      "cuisine": "sandwich",
      "wheelchair": "yes",
      "opening_hours": "Mo-Su 07:00-15:00",
      "website": "https://www.aubonpain.com/",
      "internet_access": "no",
      "phone": "+16173450427",
      "takeaway": "only",
      "drive_through": "no",
      "outdoor_seating": "no",
      "delivery": "no",
      "addr_state": "MA",
      "addr_city": "Boston",
      "addr_street": "Atlantic Avenue",
      "addr_housenumber": "640",
      "value": 29.12457536921696
    },
    {
      "id": 217054,
      "geometry": "POINT (-71.222704 42.385891)",
      "poi_name": "Dunkin'",
      "osm_id": 9201472597,
      "amenity": "fast_food",
      "cuisine": "donut;coffee_shop",
      "opening_hours": "Mo-Fr 07:00-19:00; Sa-Su 08:00-18:00",
      "website": "https://locations.dunkindonuts.com/en/ma/waltham/175-forest-st/359433",
      "phone": "+1-781-647-1219",
      "takeaway": "yes",
      "addr_state": "MA",
      "addr_city": "Waltham",
      "addr_postcode": "02452",
      "addr_street": "Forest Street",
      "addr_housenumber": "175",
      "value": 29.12457536921696
    },
    {
      "id": 217396,
      "geometry": "POINT (-71.037038 42.313026)",
      "poi_name": "Dunkin'",
      "osm_id": 9219822035,
      "amenity": "fast_food",
      "cuisine": "donut;coffee_shop",
      "opening_hours": "Mo-Fr 07:00-17:00; Sa-Su closed",
      "phone": "+1 617-827-5072",
      "takeaway": "yes",
      "addr_state": "MA",
      "addr_city": "Boston",
      "addr_postcode": "02125",
      "addr_street": "Campus Shuttle Loop",
      "addr_housenumber": "100",
      "value": 29.12457536921696
    },
    {
      "id": 217397,
      "geometry": "POINT (-71.03715 42.31293)",
      "poi_name": "Burger King",
      "osm_id": 9219822036,
      "amenity": "fast_food",
      "cuisine": "burger",
      "opening_hours": "Mo-Sa 06:00-24:00; Su 07:00-24:00",
      "website": "https://burgerking.com/",
      "phone": "+16172875033",
      "takeaway": "yes",
      "addr_state": "MA",
      "addr_city": "Boston",
      "addr_postcode": "02125",
      "addr_street": "Campus Shuttle Loop",
      "addr_housenumber": "100",
      "value": 29.12457536921696
    },
    {
      "id": 217398,
      "geometry": "POINT (-71.06583 42.343779)",
      "poi_name": "Dunkin'",
      "osm_id": 9219822037,
      "amenity": "fast_food",
      "cuisine": "donut;coffee_shop",
      "opening_hours": "Mo-Fr 05:00-18:00; Sa 06:00-18:00; Su 06:00-16:00",
      "phone": "+1 617-350-3091",
      "takeaway": "yes",
      "addr_state": "MA",
      "addr_city": "Boston",
      "addr_postcode": "02118",
      "addr_street": "Washington Street",
      "addr_housenumber": "1138",
      "value": 29.12457536921696
    },
    {
      "id": 217399,
      "geometry": "POINT (-71.096836 42.331941)",
      "poi_name": "Dunkin'",
      "osm_id": 9219822038,
      "amenity": "fast_food",
      "cuisine": "donut;coffee_shop",
      "opening_hours": "Mo-Sa 05:00-20:00; Su 06:00-20:00",
      "phone": "+1 617 442 7600",
      "takeaway": "yes",
      "drive_through": "no",
      "addr_state": "MA",
      "addr_city": "Boston",
      "addr_postcode": "02120",
      "addr_street": "Tremont Street",
      "addr_housenumber": "1443",
      "value": 29.12457536921696
    },
    {
      "id": 217400,
      "geometry": "POINT (-71.062237 42.350952)",
      "poi_name": "Dunkin'",
      "osm_id": 9219822039,
      "amenity": "fast_food",
      "cuisine": "donut;coffee_shop",
      "opening_hours": "Mo-Fr 06:00-16:00; Sa-Su 06:00-14:00",
      "phone": "+1 617 695 0546",
      "takeaway": "yes",
      "addr_state": "MA",
      "addr_city": "Boston",
      "addr_postcode": "02111",
      "addr_street": "Kneeland Street",
      "addr_housenumber": "16",
      "value": 29.12457536921696
    },
    {
      "id": 217401,
      "geometry": "POINT (-71.073512 42.332127)",
      "poi_name": "Dunkin'",
      "osm_id": 9219822040,
      "amenity": "fast_food",
      "cuisine": "donut;coffee_shop",
      "phone": "+1 617-427-0980",
      "takeaway": "yes",
      "addr_state": "MA",
      "addr_city": "Boston",
      "addr_postcode": "02119",
      "addr_street": "Melnea Cass Boulevard",
      "addr_housenumber": "17",
      "value": 29.12457536921696
    },
    {
      "id": 217402,
      "geometry": "POINT (-71.056335 42.360663)",
      "poi_name": "Dunkin'",
      "osm_id": 9219822041,
      "amenity": "fast_food",
      "cuisine": "donut;coffee_shop",
      "opening_hours": "Mo-Sa 06:00-19:00; Su 07:00-19:00",
      "phone": "+1 617 367 0041",
      "takeaway": "yes",
      "addr_state": "MA",
      "addr_city": "Boston",
      "addr_postcode": "02109",
      "addr_street": "North Street",
      "addr_housenumber": "20",
      "value": 29.12457536921696
    },
    {
      "id": 217403,
      "geometry": "POINT (-71.104773 42.339756)",
      "poi_name": "Dunkin'",
      "osm_id": 9219822042,
      "amenity": "fast_food",
      "cuisine": "donut;coffee_shop",
      "phone": "+1 617 667 0690",
      "takeaway": "yes",
      "addr_state": "MA",
      "addr_city": "Boston",
      "addr_postcode": "02215",
      "addr_street": "Brookline Avenue",
      "addr_housenumber": "330",
      "value": 29.12457536921696
    },
    {
      "id": 217404,
      "geometry": "POINT (-71.058767 42.356805)",
      "poi_name": "Dunkin'",
      "osm_id": 9219822043,
      "amenity": "fast_food",
      "cuisine": "donut;coffee_shop",
      "opening_hours": "Sa,Su 07:00-15:00; Mo-Fr 06:30-15:00",
      "phone": "+1 617 227 0565",
      "takeaway": "yes",
      "drive_through": "no",
      "addr_state": "MA",
      "addr_city": "Boston",
      "addr_postcode": "02108",
      "addr_street": "Washington Street",
      "addr_housenumber": "330",
      "value": 29.12457536921696
    },
    {
      "id": 217405,
      "geometry": "POINT (-71.107067 42.338477)",
      "poi_name": "Dunkin'",
      "osm_id": 9219822044,
      "amenity": "fast_food",
      "cuisine": "donut;coffee_shop",
      "phone": "+1 617 738 4490",
      "takeaway": "yes",
      "addr_state": "MA",
      "addr_city": "Boston",
      "addr_postcode": "02115",
      "addr_street": "Longwood Avenue",
      "addr_housenumber": "350",
      "value": 29.12457536921696
    },
    {
      "id": 217406,
      "geometry": "POINT (-71.111949 42.331185)",
      "poi_name": "Dunkin'",
      "osm_id": 9219822045,
      "amenity": "fast_food",
      "cuisine": "donut;coffee_shop",
      "phone": "+1 617 383 5417",
      "takeaway": "yes",
      "drive_through": "no",
      "addr_state": "MA",
      "addr_city": "Boston",
      "addr_postcode": "02130",
      "addr_street": "South Huntington Avenue",
      "addr_housenumber": "37",
      "value": 29.12457536921696
    },
    {
      "id": 217407,
      "geometry": "POINT (-71.098794 42.345899)",
      "poi_name": "Dunkin'",
      "osm_id": 9219822046,
      "amenity": "fast_food",
      "cuisine": "donut;coffee_shop",
      "phone": "+1 617 536 6683",
      "takeaway": "yes",
      "drive_through": "no",
      "addr_state": "MA",
      "addr_city": "Boston",
      "addr_postcode": "02115",
      "addr_street": "Yawkey Way",
      "addr_housenumber": "4",
      "value": 29.12457536921696
    },
    {
      "id": 217408,
      "geometry": "POINT (-71.102815 42.340526)",
      "poi_name": "Dunkin'",
      "osm_id": 9219822047,
      "amenity": "fast_food",
      "cuisine": "donut;coffee_shop",
      "opening_hours": "Mo-Fr 06:00-17:00; Sa-Su 09:00-15:00",
      "phone": "+1 617 735 9953",
      "takeaway": "yes",
      "drive_through": "no",
      "addr_state": "MA",
      "addr_city": "Boston",
      "addr_postcode": "02115",
      "addr_street": "Fenway",
      "addr_housenumber": "400",
      "value": 29.12457536921696
    },
    {
      "id": 217409,
      "geometry": "POINT (-71.108777 42.337982)",
      "poi_name": "Dunkin'",
      "osm_id": 9219822048,
      "amenity": "fast_food",
      "cuisine": "donut;coffee_shop",
      "opening_hours": "Mo-Fr 05:00-18:00; Sa-Su 05:00-16:00",
      "phone": "+1 617 232 8052",
      "takeaway": "yes",
      "addr_state": "MA",
      "addr_city": "Boston",
      "addr_postcode": "02215",
      "addr_street": "Brookline Avenue",
      "addr_housenumber": "457",
      "value": 29.12457536921696
    },
    {
      "id": 217410,
      "geometry": "POINT (-71.063184 42.349904)",
      "poi_name": "Dunkin'",
      "osm_id": 9219822049,
      "amenity": "fast_food",
      "cuisine": "donut;coffee_shop",
      "opening_hours": "Mo-Fr 05:30-20:00; Sa 06:00-18:00; Su 06:30-18:00",
      "phone": "+1 617-542-6165",
      "takeaway": "yes",
      "drive_through": "no",
      "addr_state": "MA",
      "addr_city": "Boston",
      "addr_postcode": "02111",
      "addr_street": "Washington Street",
      "addr_housenumber": "750",
      "value": 29.12457536921696
    },
    {
      "id": 217411,
      "geometry": "POINT (-71.108992 42.350786)",
      "poi_name": "Dunkin'",
      "osm_id": 9219822050,
      "amenity": "fast_food",
      "cuisine": "donut;coffee_shop",
      "opening_hours": "Mo-Fr 07:00-18:00; Sa-Su closed",
      "phone": "+1 781 635 4192",
      "takeaway": "yes",
      "drive_through": "no",
      "addr_state": "MA",
      "addr_city": "Boston",
      "addr_postcode": "02215",
      "addr_street": "Commonwealth Avenue",
      "addr_housenumber": "775",
      "value": 29.12457536921696
    },
    {
      "id": 217412,
      "geometry": "POINT (-71.082314 42.348442)",
      "poi_name": "Dunkin'",
      "osm_id": 9219822051,
      "amenity": "fast_food",
      "cuisine": "donut;coffee_shop",
      "opening_hours": "Mo-Sa 06:00-19:00; Su 07:00-19:00",
      "phone": "+1 617 536 3521",
      "takeaway": "yes",
      "drive_through": "no",
      "addr_state": "MA",
      "addr_city": "Boston",
      "addr_postcode": "02199",
      "addr_street": "Boylston Street",
      "addr_housenumber": "800",
      "value": 29.12457536921696
    },
    {
      "id": 217413,
      "geometry": "POINT (-71.056346 42.342562)",
      "poi_name": "Dunkin'",
      "osm_id": 9219822052,
      "amenity": "fast_food",
      "cuisine": "donut;coffee_shop",
      "opening_hours": "Mo-Sa 05:00-22:00; Su 06:00-20:00",
      "phone": "+16172681213",
      "takeaway": "yes",
      "drive_through": "no",
      "addr_state": "MA",
      "addr_city": "South Boston",
      "addr_postcode": "02127",
      "addr_street": "West Broadway",
      "addr_housenumber": "48",
      "value": 29.12457536921696
    },
    {
      "id": 218106,
      "geometry": "POINT (-71.037899 42.374586)",
      "poi_name": "\u00a1que arepa!",
      "osm_id": 9258340286,
      "amenity": "fast_food",
      "cuisine": "venezuelan",
      "operator": "Tertulia's Cafe",
      "website": "https://www.tertuliasboston.com/",
      "drive_through": "no",
      "addr_state": "MA",
      "addr_city": "East Boston",
      "addr_postcode": "02128",
      "addr_street": "Porter Street",
      "addr_housenumber": "26",
      "value": 29.12457536921696
    },
    {
      "id": 218530,
      "geometry": "POINT (-71.047421 42.351092)",
      "poi_name": "Dig",
      "osm_id": 9283314367,
      "amenity": "fast_food",
      "cuisine": "regional",
      "opening_hours": "Mo-Su 11:00-21:00",
      "website": "https://www.diginn.com/",
      "phone": "+1-617-904-4009",
      "takeaway": "yes",
      "addr_state": "MA",
      "addr_city": "Boston",
      "addr_postcode": "02210",
      "addr_street": "Thomson Place",
      "addr_housenumber": "25",
      "value": 29.12457536921696
    },
    {
      "id": 218890,
      "geometry": "POINT (-71.126361 42.358456)",
      "poi_name": "Dunkin'",
      "osm_id": 9307450537,
      "amenity": "fast_food",
      "cuisine": "donut;coffee_shop",
      "opening_hours": "Mo-Fr 05:00-21:00; Sa,Su 06:00-21:00",
      "phone": "+1 617 787 1608",
      "takeaway": "yes",
      "addr_state": "MA",
      "addr_city": "Allston",
      "addr_postcode": "02134",
      "addr_street": "Cambridge Street",
      "addr_housenumber": "219",
      "value": 29.12457536921696
    },
    {
      "id": 219684,
      "geometry": "POINT (-71.114722 42.35064)",
      "poi_name": "Taco Bell Cantina",
      "osm_id": 9342177337,
      "amenity": "fast_food",
      "cuisine": "tex-mex",
      "opening_hours": "Su-Th 09:00-23:00; Fr-Sa 09:00-24:00",
      "website": "https://locations.tacobell.com/ma/brookline/872-commonwealth-avenue.html",
      "phone": "+16179067204",
      "takeaway": "yes",
      "addr_state": "MA",
      "addr_city": "Boston",
      "addr_postcode": "02215",
      "addr_street": "Commonwealth Avenue",
      "addr_housenumber": "872",
      "value": 29.12457536921696
    },
    {
      "id": 222691,
      "geometry": "POINT (-71.023835 42.269133)",
      "poi_name": "Wendy's",
      "osm_id": 11031718631,
      "amenity": "fast_food",
      "cuisine": "burger",
      "takeaway": "yes",
      "drive_through": "yes",
      "addr_state": "MA",
      "addr_city": "Quincy",
      "addr_postcode": "02170",
      "addr_street": "Newport Avenue",
      "addr_housenumber": "191",
      "value": 29.12457536921696
    },
    {
      "id": 222225,
      "geometry": "POINT (-71.027272 42.380116)",
      "poi_name": "DaCoopas",
      "osm_id": 11010735275,
      "amenity": "fast_food",
      "cuisine": "pizza",
      "drive_through": "no",
      "addr_state": "MA",
      "addr_city": "East Boston",
      "addr_postcode": "02128",
      "addr_street": "Saratoga Street",
      "addr_housenumber": "474",
      "value": 29.12457536921696
    },
    {
      "id": 222260,
      "geometry": "POINT (-71.223357 42.223512)",
      "poi_name": "Playa Bowls",
      "osm_id": 11011464931,
      "amenity": "fast_food",
      "cuisine": "a\u00e7a\u00ed",
      "phone": "(781) 471-7914",
      "takeaway": "yes",
      "addr_state": "MA",
      "addr_city": "Westwood",
      "addr_postcode": "02090",
      "addr_street": "High Street",
      "addr_housenumber": "745",
      "value": 29.12457536921696
    },
    {
      "id": 222709,
      "geometry": "POINT (-71.060144 42.301846)",
      "poi_name": "Domino's",
      "osm_id": 11033005642,
      "amenity": "fast_food",
      "cuisine": "pizza",
      "website": "https://www.dominos.com/",
      "takeaway": "yes",
      "drive_through": "no",
      "addr_state": "MA",
      "addr_city": "Boston",
      "addr_postcode": "02122",
      "addr_street": "Adams Street",
      "addr_housenumber": "207",
      "value": 29.12457536921696
    },
    {
      "id": 225047,
      "geometry": "POINT (-71.09803 42.381262)",
      "poi_name": "Hot Box",
      "osm_id": 11108902482,
      "amenity": "fast_food",
      "cuisine": "pizza;south_shore_bar_pizza;north_shore_roast_beef",
      "website": "https://www.eathotbox.com/",
      "takeaway": "only",
      "drive_through": "no",
      "addr_state": "MA",
      "addr_city": "Somerville",
      "addr_postcode": "02143",
      "addr_street": "Bow Market Way",
      "addr_housenumber": "1",
      "value": 29.12457536921696
    },
    {
      "id": 224058,
      "geometry": "POINT (-71.144778 42.286433)",
      "poi_name": "Exodus Bagels",
      "osm_id": 11072180191,
      "amenity": "fast_food",
      "cuisine": "bagel",
      "opening_hours": "We-Fr 07:00-13:00; Sa-Su 08:00-13:00",
      "takeaway": "only",
      "drive_through": "yes",
      "addr_state": "MA",
      "addr_city": "Roslindale",
      "addr_postcode": "02131",
      "addr_street": "McCraw Street",
      "addr_housenumber": "2",
      "value": 29.12457536921696
    },
    {
      "id": 224665,
      "geometry": "POINT (-71.080456 42.393513)",
      "poi_name": "Union Square Donuts",
      "osm_id": 11092661480,
      "amenity": "fast_food",
      "cuisine": "donut",
      "addr_state": "MA",
      "addr_city": "Somerville",
      "addr_postcode": "02145",
      "addr_street": "Grand Union Boulevard",
      "addr_housenumber": "457",
      "value": 29.12457536921696
    },
    {
      "id": 224666,
      "geometry": "POINT (-71.079734 42.393274)",
      "poi_name": "Clover Food Lab",
      "osm_id": 11092661486,
      "amenity": "fast_food",
      "cuisine": "regional;american",
      "addr_state": "MA",
      "addr_city": "Somerville",
      "addr_postcode": "02145",
      "addr_street": "Foley Street",
      "addr_housenumber": "330",
      "value": 29.12457536921696
    },
    {
      "id": 225265,
      "geometry": "POINT (-71.107453 42.306328)",
      "poi_name": "Burritos Pizzeria",
      "osm_id": 11117617932,
      "amenity": "fast_food",
      "cuisine": "pizza;mexican",
      "opening_hours": "Mo-Su 10:00-22:30",
      "website": "http://www.burritospizzeria.com/",
      "phone": "+1-617-522-3813",
      "drive_through": "no",
      "addr_state": "MA",
      "addr_city": "Jamaica Plain",
      "addr_postcode": "02130",
      "addr_street": "Washington Street",
      "addr_housenumber": "3492",
      "value": 29.12457536921696
    },
    {
      "id": 225345,
      "geometry": "POINT (-71.11213 42.318594)",
      "poi_name": "Ideal Cafe & Pizza",
      "osm_id": 11123406374,
      "amenity": "fast_food",
      "cuisine": "pizza",
      "opening_hours": "Mo-Th Sa:00-22:00; Su 12:00-22:00",
      "website": "https://www.idealcafepizza.com/",
      "phone": "+1-617-524-3334",
      "drive_through": "no",
      "addr_state": "MA",
      "addr_city": "Jamaica Plain",
      "addr_postcode": "02130",
      "addr_street": "Centre Street",
      "addr_housenumber": "484",
      "value": 29.12457536921696
    },
    {
      "id": 226808,
      "geometry": "POINT (-71.094388 42.379727)",
      "poi_name": "Taqueria Picante",
      "osm_id": 11168703255,
      "amenity": "fast_food",
      "cuisine": "mexican",
      "website": "https://www.ilovepicante.com/",
      "drive_through": "no",
      "addr_state": "MA",
      "addr_city": "Somerville",
      "addr_postcode": "02143",
      "addr_street": "Washington Street",
      "addr_housenumber": "253",
      "value": 29.12457536921696
    },
    {
      "id": 228943,
      "geometry": "POINT (-71.104398 42.365)",
      "poi_name": "Subway",
      "osm_id": 4360543289,
      "amenity": "fast_food",
      "cuisine": "sandwich",
      "opening_hours": "Mo-Fr 07:00-21:00; Sa 08:00-21:00; Su 08:00-20:00",
      "takeaway": "yes",
      "addr_state": "MA",
      "addr_city": "Cambridge",
      "addr_postcode": "02139",
      "value": 29.12457536921696
    },
    {
      "id": 229252,
      "geometry": "POINT (-71.073617 42.427484)",
      "poi_name": "Bam Bam Chicken",
      "osm_id": 4374533104,
      "amenity": "fast_food",
      "cuisine": "chicken",
      "wheelchair": "yes",
      "opening_hours": "Mo-Th 10:00-22:00; Fr 10:00-25:00; Sa 11:00-25:00; Su 11:00-22:00",
      "website": "https://www.bambamchicken.com/",
      "phone": "+1-781-480-4625",
      "drive_through": "no",
      "addr_state": "MA",
      "addr_city": "Malden",
      "addr_postcode": "02148",
      "addr_street": "Florence Street",
      "addr_housenumber": "2",
      "value": 29.12457536921696
    },
    {
      "id": 229904,
      "geometry": "POINT (-71.0684 42.360994)",
      "poi_name": "Sweetgreen",
      "osm_id": 4406184596,
      "amenity": "fast_food",
      "cuisine": "salad",
      "opening_hours": "Mo-Su 09:30-22:00",
      "takeaway": "yes",
      "drive_through": "no",
      "addr_state": "MA",
      "addr_city": "Boston",
      "addr_postcode": "02114",
      "addr_street": "Cambridge Street",
      "addr_housenumber": "300",
      "value": 29.12457536921696
    },
    {
      "id": 229905,
      "geometry": "POINT (-71.068615 42.360989)",
      "poi_name": "Dunkin'",
      "osm_id": 4406184597,
      "amenity": "fast_food",
      "cuisine": "donut;coffee_shop",
      "wheelchair": "yes",
      "opening_hours": "Mo-Su 06:00-19:00",
      "phone": "+1-617-464-4001",
      "takeaway": "yes",
      "drive_through": "no",
      "outdoor_seating": "no",
      "addr_state": "MA",
      "addr_city": "Boston",
      "addr_postcode": "02114",
      "addr_street": "Cambridge Street",
      "addr_housenumber": "296",
      "value": 29.12457536921696
    },
    {
      "id": 229906,
      "geometry": "POINT (-71.070285 42.360768)",
      "poi_name": "Dunkin'",
      "osm_id": 4406195907,
      "amenity": "fast_food",
      "cuisine": "donut;coffee_shop",
      "opening_hours": "Mo 07:00-14:00; Sa 06:00-19:00; Su 07:00-19:00",
      "phone": "+1 617 726 1102",
      "takeaway": "yes",
      "addr_state": "MA",
      "addr_city": "Boston",
      "addr_postcode": "02114",
      "addr_street": "Charles Street",
      "addr_housenumber": "161",
      "value": 29.12457536921696
    },
    {
      "id": 230248,
      "geometry": "POINT (-71.065002 42.351257)",
      "poi_name": "Panera Bread",
      "osm_id": 4418926996,
      "amenity": "fast_food",
      "cuisine": "sandwich;bakery",
      "opening_hours": "Mo-Sa 06:00-23:00, Su 07:00-22:00",
      "website": "https://www.panerabread.com/",
      "takeaway": "yes",
      "outdoor_seating": "yes",
      "delivery": "yes",
      "addr_state": "MA",
      "addr_city": "Boston",
      "addr_postcode": "02116",
      "addr_street": "Stuart Street",
      "addr_housenumber": "115",
      "value": 29.12457536921696
    },
    {
      "id": 230568,
      "geometry": "POINT (-71.130996 42.350692)",
      "poi_name": "McDonald's",
      "osm_id": 4432010460,
      "amenity": "fast_food",
      "cuisine": "burger",
      "opening_hours": "Mo-Su 06:30-02:00",
      "website": "https://www.mcdonalds.com/us/en-us/location/MA/BOSTON/1223-COMMONWEALTH-AVENUE/26788.html",
      "phone": "+16175621313",
      "takeaway": "yes",
      "addr_state": "MA",
      "addr_city": "Allston",
      "addr_postcode": "02134",
      "addr_street": "Commonwealth Avenue",
      "addr_housenumber": "1223",
      "value": 29.12457536921696
    },
    {
      "id": 230313,
      "geometry": "POINT (-71.044041 42.344397)",
      "poi_name": "Dunkin'",
      "osm_id": 4421257481,
      "amenity": "fast_food",
      "cuisine": "donut;coffee_shop",
      "opening_hours": "Mo-Fr 05:00-17:00; Sa-Su 06:00-14:00",
      "phone": "+16174396020",
      "takeaway": "yes",
      "drive_through": "no",
      "addr_state": "MA",
      "addr_city": "Boston",
      "addr_postcode": "02110",
      "addr_street": "D Street",
      "addr_housenumber": "411",
      "value": 29.12457536921696
    },
    {
      "id": 231061,
      "geometry": "POINT (-71.075994 42.350703)",
      "poi_name": "Wendy's",
      "osm_id": 4454436308,
      "amenity": "fast_food",
      "cuisine": "burger",
      "internet_access": "wlan",
      "phone": "+1-617-262-0727",
      "takeaway": "yes",
      "drive_through": "no",
      "addr_state": "MA",
      "addr_city": "Boston",
      "addr_postcode": "02116",
      "addr_street": "Boylston Street",
      "addr_housenumber": "551",
      "value": 29.12457536921696
    },
    {
      "id": 231063,
      "geometry": "POINT (-71.058066 42.358135)",
      "poi_name": "Dunkin'",
      "osm_id": 4454580325,
      "amenity": "fast_food",
      "cuisine": "donut;coffee_shop",
      "opening_hours": "Mo-Fr 05:00-21:00; Su 06:00-19:00; Sa 06:00-21:00",
      "internet_access": "wlan",
      "phone": "+16172481987",
      "takeaway": "yes",
      "addr_state": "MA",
      "addr_city": "Boston",
      "addr_postcode": "02108",
      "addr_street": "Washington Street",
      "addr_housenumber": "235",
      "value": 29.12457536921696
    },
    {
      "id": 231064,
      "geometry": "POINT (-71.05956 42.359022)",
      "poi_name": "Dunkin'",
      "osm_id": 4454580326,
      "amenity": "fast_food",
      "cuisine": "donut;coffee_shop",
      "wheelchair": "yes",
      "phone": "+16175231279",
      "takeaway": "yes",
      "addr_state": "MA",
      "addr_city": "Boston",
      "addr_postcode": "02116",
      "addr_street": "Tremont Street",
      "addr_housenumber": "16",
      "value": 29.12457536921696
    },
    {
      "id": 232736,
      "geometry": "POINT (-71.111902 42.369705)",
      "poi_name": "Domino's",
      "osm_id": 4540532983,
      "amenity": "fast_food",
      "cuisine": "pizza",
      "opening_hours": "Mo-Sa 10:30-02:00; Su 10:30-01:00",
      "website": "https://pizza.dominos.com/massachusetts/cambridge/02138/1033-massachusetts-ave/",
      "phone": "+16174412101",
      "takeaway": "yes",
      "drive_through": "no",
      "delivery": "yes",
      "addr_state": "MA",
      "addr_city": "Cambridge",
      "addr_street": "Massachusetts Avenue",
      "addr_housenumber": "1033",
      "value": 29.12457536921696
    },
    {
      "id": 231120,
      "geometry": "POINT (-71.008385 42.385866)",
      "poi_name": "Dunkin'",
      "osm_id": 4456091893,
      "amenity": "fast_food",
      "cuisine": "donut;coffee_shop",
      "opening_hours": "Mo-Su 04:00-23:00",
      "phone": "+1-617-569-4919",
      "takeaway": "yes",
      "drive_through": "yes",
      "addr_state": "MA",
      "addr_city": "East Boston",
      "addr_postcode": "02128",
      "addr_street": "Bennington Street",
      "addr_housenumber": "951",
      "value": 29.12457536921696
    },
    {
      "id": 231348,
      "geometry": "POINT (-71.047702 42.429426)",
      "poi_name": "Domino's",
      "osm_id": 4464035198,
      "amenity": "fast_food",
      "cuisine": "pizza",
      "opening_hours": "Su-Th 10:00-01:00; Fr-Sa 10:00-02:00",
      "website": "https://www.dominos.com/en/?utm_source=google&utm_medium=loclist&utm_campaign=localmaps",
      "phone": "+17813220030",
      "takeaway": "yes",
      "addr_state": "MA",
      "addr_city": "Malden",
      "addr_postcode": "02148",
      "addr_street": "Eastern Avenue",
      "addr_housenumber": "775",
      "value": 29.12457536921696
    },
    {
      "id": 232910,
      "geometry": "POINT (-71.120987 42.372296)",
      "poi_name": "Shake Shack",
      "osm_id": 4549551449,
      "amenity": "fast_food",
      "cuisine": "burger",
      "wheelchair": "yes",
      "opening_hours": "Mo-Su 11:00-22:00",
      "website": "https://www.shakeshack.com/location/harvard-square/",
      "phone": "+16177588495",
      "takeaway": "yes",
      "drive_through": "no",
      "outdoor_seating": "yes",
      "delivery": "no",
      "toilets": "yes",
      "addr_state": "MA",
      "addr_city": "Cambridge",
      "addr_postcode": "02138",
      "addr_street": "Winthrop Street",
      "addr_housenumber": "92",
      "value": 29.12457536921696
    },
    {
      "id": 232937,
      "geometry": "POINT (-71.12249 42.396101)",
      "poi_name": "Oath Craft Pizza",
      "osm_id": 4550174538,
      "amenity": "fast_food",
      "cuisine": "pizza",
      "wheelchair": "no",
      "opening_hours": "Su-Th 11:00-23:00; Fr,Sa 11:00-01:30",
      "takeaway": "yes",
      "addr_state": "MA",
      "addr_city": "Somerville",
      "addr_postcode": "02144",
      "addr_street": "Elm Street",
      "addr_housenumber": "280",
      "value": 29.12457536921696
    },
    {
      "id": 233225,
      "geometry": "POINT (-70.994108 42.25383)",
      "poi_name": "Wendy's",
      "osm_id": 4564083912,
      "amenity": "fast_food",
      "cuisine": "burger",
      "opening_hours": "Mo-Su 06:30-16:00",
      "website": "https://locations.wendys.com/united-states/ma/quincy/520-southern-artery?utm_source=Yext&utm_medium=Google_My_Business&utm_campaign=Local_Search&utm_content=EN_US",
      "phone": "+16174723981",
      "takeaway": "yes",
      "drive_through": "yes",
      "addr_state": "MA",
      "addr_city": "Quincy",
      "addr_postcode": "02169",
      "addr_street": "Southern Artery",
      "addr_housenumber": "520",
      "value": 29.12457536921696
    },
    {
      "id": 233226,
      "geometry": "POINT (-70.992915 42.2529)",
      "poi_name": "Dunkin'",
      "osm_id": 4564083913,
      "amenity": "fast_food",
      "cuisine": "donut;coffee_shop",
      "opening_hours": "24/7",
      "phone": "+16174729502",
      "takeaway": "yes",
      "drive_through": "no",
      "addr_state": "MA",
      "addr_city": "Quincy",
      "addr_postcode": "02169",
      "addr_street": "Southern Artery",
      "addr_housenumber": "543",
      "value": 29.12457536921696
    },
    {
      "id": 235253,
      "geometry": "POINT (-71.058576 42.357544)",
      "poi_name": "Bruegger's Bagels",
      "osm_id": 5749774088,
      "amenity": "fast_food",
      "cuisine": "bagel",
      "opening_hours": "Mo-Fr 06:00-17:00; Sa, Su 07:00-17:00",
      "website": "https://locations.brueggers.com/us/ma/boston/7-school-street?y_source=1_OTczMjEyNy03MTUtbG9jYXRpb24ud2Vic2l0ZQ%3D%3D",
      "shop": "bakery",
      "phone": "+16173674702",
      "takeaway": "yes",
      "addr_state": "MA",
      "addr_city": "Boston",
      "addr_postcode": "02108",
      "addr_street": "School Street",
      "addr_housenumber": "7",
      "value": 29.12457536921696
    },
    {
      "id": 235254,
      "geometry": "POINT (-71.058818 42.357607)",
      "poi_name": "Sweetgreen",
      "osm_id": 5749774093,
      "amenity": "fast_food",
      "cuisine": "salad",
      "opening_hours": "Mo-Fr 09:30-20:00; Sa,Su 10:30-16:00",
      "website": "https://order.sweetgreen.com/",
      "phone": "+1 857 317 4949",
      "takeaway": "yes",
      "addr_state": "MA",
      "addr_city": "Boston",
      "addr_street": "School Street",
      "addr_housenumber": "15",
      "value": 29.12457536921696
    },
    {
      "id": 235257,
      "geometry": "POINT (-71.058314 42.357586)",
      "poi_name": "Dig",
      "osm_id": 5749774102,
      "amenity": "fast_food",
      "cuisine": "regional",
      "opening_hours": "Mo-Fr 11:00-21:00",
      "website": "https://www.diginn.com/",
      "phone": "+1-617-276-1000",
      "takeaway": "yes",
      "addr_state": "MA",
      "addr_city": "Boston",
      "addr_postcode": "02108",
      "addr_street": "Washington Street",
      "addr_housenumber": "277",
      "value": 29.12457536921696
    },
    {
      "id": 236911,
      "geometry": "POINT (-71.08167 42.350014)",
      "poi_name": "GRE.CO",
      "osm_id": 5811134127,
      "amenity": "fast_food",
      "cuisine": "greek;mediterranean",
      "description": "Menu at https://places.singleplatform.com/greco-11/menu Available on some food delivery services.",
      "wheelchair": "yes",
      "opening_hours": "Mo-Su 11:00-22:00",
      "website": "https://grecoboston.com/",
      "phone": "+16175723300",
      "takeaway": "yes",
      "drive_through": "no",
      "outdoor_seating": "yes",
      "delivery": "no",
      "addr_state": "MA",
      "addr_city": "Boston",
      "addr_postcode": "02116",
      "addr_street": "Newbury Street",
      "addr_housenumber": "225",
      "value": 29.12457536921696
    },
    {
      "id": 243128,
      "geometry": "POINT (-71.038906 42.375479)",
      "poi_name": "Dunkin'",
      "osm_id": 7626593343,
      "amenity": "fast_food",
      "cuisine": "donut;coffee_shop",
      "opening_hours": "Mo-Su 04:00-21:00",
      "phone": "+16175691542",
      "takeaway": "yes",
      "addr_state": "MA",
      "addr_city": "East Boston",
      "addr_postcode": "02128",
      "addr_street": "William Kelley Square",
      "addr_housenumber": "34",
      "value": 29.12457536921696
    },
    {
      "id": 242742,
      "geometry": "POINT (-71.062825 42.357775)",
      "poi_name": "Dunkin'",
      "osm_id": 7594031048,
      "amenity": "fast_food",
      "cuisine": "donut;coffee_shop",
      "opening_hours": "Mo-Fr 07:00-15:00; Sa-Su closed",
      "phone": "+16172270565",
      "takeaway": "yes",
      "addr_state": "MA",
      "addr_city": "Boston",
      "addr_postcode": "02108",
      "addr_street": "Beacon Street",
      "addr_housenumber": "22",
      "value": 29.12457536921696
    },
    {
      "id": 242808,
      "geometry": "POINT (-71.097357 42.347243)",
      "poi_name": "The Sausage Guy",
      "osm_id": 7599294100,
      "amenity": "fast_food",
      "cuisine": "sausage;hot_dog",
      "wheelchair": "yes",
      "operator": "David Littlefield",
      "website": "https://www.thesausageguy.com/",
      "phone": "+1-617-592-2677",
      "takeaway": "only",
      "drive_through": "no",
      "outdoor_seating": "no",
      "addr_state": "MA",
      "addr_city": "Boston",
      "addr_postcode": "02215",
      "addr_street": "Lansdowne Street",
      "addr_housenumber": "49",
      "value": 29.12457536921696
    },
    {
      "id": 243088,
      "geometry": "POINT (-71.054765 42.359114)",
      "poi_name": "Dunkin'",
      "osm_id": 7623947953,
      "amenity": "fast_food",
      "cuisine": "donut;coffee_shop",
      "opening_hours": "Mo-Fr 06:00-17:00; Sa-Su 07:00-16:00",
      "phone": "+16175231451",
      "takeaway": "yes",
      "addr_state": "MA",
      "addr_city": "Boston",
      "addr_postcode": "02109",
      "addr_street": "State Street",
      "addr_housenumber": "111",
      "value": 29.12457536921696
    },
    {
      "id": 243102,
      "geometry": "POINT (-71.086 42.348369)",
      "poi_name": "Which Wich?",
      "osm_id": 7625672550,
      "amenity": "fast_food",
      "cuisine": "sandwich",
      "website": "https://www.whichwich.com/",
      "phone": "+1-857-315-5991",
      "takeaway": "yes",
      "drive_through": "no",
      "outdoor_seating": "no",
      "addr_state": "MA",
      "addr_city": "Boston",
      "addr_postcode": "02115",
      "addr_street": "Newbury Street",
      "addr_housenumber": "324a",
      "value": 29.12457536921696
    },
    {
      "id": 243106,
      "geometry": "POINT (-71.03927 42.36903)",
      "poi_name": "Dunkin'",
      "osm_id": 7626047621,
      "amenity": "fast_food",
      "cuisine": "donut;coffee_shop",
      "opening_hours": "Mo-Su 05:00-21:00",
      "phone": "+16175692576",
      "takeaway": "yes",
      "addr_state": "MA",
      "addr_city": "East Boston",
      "addr_postcode": "02128",
      "addr_street": "Maverick Square",
      "addr_housenumber": "13-15",
      "value": 29.12457536921696
    },
    {
      "id": 243108,
      "geometry": "POINT (-71.03912 42.370116)",
      "poi_name": "Cactus Grill",
      "osm_id": 7626047634,
      "amenity": "fast_food",
      "cuisine": "mexican",
      "addr_state": "MA",
      "addr_city": "East Boston",
      "addr_postcode": "02128",
      "addr_street": "Maverick Square",
      "addr_housenumber": "44",
      "value": 29.12457536921696
    },
    {
      "id": 243979,
      "geometry": "POINT (-71.138452 42.353509)",
      "poi_name": "Dunkin'",
      "osm_id": 7690362223,
      "amenity": "fast_food",
      "cuisine": "donut;coffee_shop",
      "opening_hours": "24/7",
      "phone": "+16172540798",
      "takeaway": "yes",
      "addr_state": "MA",
      "addr_city": "Boston",
      "addr_postcode": "02134",
      "addr_street": "Cambridge Street",
      "addr_housenumber": "509",
      "value": 29.12457536921696
    },
    {
      "id": 243856,
      "geometry": "POINT (-71.100524 42.345085)",
      "poi_name": "Wahlburgers",
      "osm_id": 7683041260,
      "amenity": "fast_food",
      "cuisine": "burger",
      "opening_hours": "Mo-Su 11:00-22:00",
      "website": "https://wahlburgers.com/boston",
      "phone": "+1-617-927-6810",
      "takeaway": "yes",
      "drive_through": "no",
      "addr_state": "MA",
      "addr_city": "Boston",
      "addr_postcode": "02215",
      "addr_street": "Brookline Avenue",
      "addr_housenumber": "132",
      "value": 29.12457536921696
    },
    {
      "id": 243857,
      "geometry": "POINT (-71.100697 42.344945)",
      "poi_name": "Sweetgreen",
      "osm_id": 7683106105,
      "amenity": "fast_food",
      "cuisine": "salad",
      "opening_hours": "Mo-Su 10:30-22:00",
      "website": "https://order.sweetgreen.com/fenway/menu",
      "phone": "+1-857-233-2673",
      "takeaway": "yes",
      "outdoor_seating": "yes",
      "addr_state": "MA",
      "addr_city": "Boston",
      "addr_postcode": "02215",
      "addr_street": "Brookline Avenue",
      "addr_housenumber": "132",
      "value": 29.12457536921696
    },
    {
      "id": 243866,
      "geometry": "POINT (-71.07581 42.350736)",
      "poi_name": "Smashburger",
      "osm_id": 7683562819,
      "amenity": "fast_food",
      "cuisine": "burger",
      "website": "https://smashburger.com/",
      "takeaway": "yes",
      "drive_through": "no",
      "addr_state": "MA",
      "addr_city": "Boston",
      "addr_postcode": "02116",
      "addr_street": "Boylston Street",
      "addr_housenumber": "545",
      "value": 29.12457536921696
    },
    {
      "id": 244465,
      "geometry": "POINT (-71.074591 42.35017)",
      "poi_name": "Juice Press",
      "osm_id": 7725901192,
      "amenity": "fast_food",
      "cuisine": "juice",
      "wheelchair": "yes",
      "opening_hours": "Mo-Fr 08:00-18:00; Sa-Su 09:00-17:00",
      "website": "https://order.juicepress.com/back-bay/menu",
      "internet_access": "yes",
      "phone": "+1-212-777-0034",
      "takeaway": "yes",
      "outdoor_seating": "yes",
      "addr_state": "MA",
      "addr_city": "Boston",
      "addr_postcode": "02116",
      "addr_street": "Boylston Street",
      "addr_housenumber": "500",
      "value": 29.12457536921696
    },
    {
      "id": 244690,
      "geometry": "POINT (-71.083028 42.349653)",
      "poi_name": "La Neta",
      "osm_id": 7735023387,
      "amenity": "fast_food",
      "cuisine": "mexican;tacos",
      "phone": "+1-617-938-0355",
      "drive_through": "no",
      "addr_state": "MA",
      "addr_city": "Boston",
      "addr_postcode": "02116",
      "addr_street": "Newbury Street",
      "addr_housenumber": "255",
      "value": 29.12457536921696
    },
    {
      "id": 244730,
      "geometry": "POINT (-71.075396 42.34671)",
      "poi_name": "B.GOOD",
      "osm_id": 7738417282,
      "amenity": "fast_food",
      "cuisine": "burger",
      "website": "https://order.bgood.com/menu/dartmouth-st",
      "phone": "+1-617-424-5252",
      "takeaway": "yes",
      "drive_through": "no",
      "outdoor_seating": "no",
      "delivery": "yes",
      "addr_state": "MA",
      "addr_city": "Boston",
      "addr_postcode": "02116",
      "addr_street": "Dartmouth Street",
      "addr_housenumber": "131",
      "value": 29.12457536921696
    },
    {
      "id": 244668,
      "geometry": "POINT (-71.063101 42.355161)",
      "poi_name": "Dunkin'",
      "osm_id": 7734560605,
      "amenity": "fast_food",
      "cuisine": "donut;coffee_shop",
      "wheelchair": "yes",
      "opening_hours": "Mo-Sa 07:00-17:00; Su 07:00-16:00",
      "phone": "+1-617-904-4025",
      "takeaway": "yes",
      "drive_through": "no",
      "outdoor_seating": "no",
      "addr_state": "MA",
      "addr_city": "Boston",
      "addr_postcode": "02111",
      "addr_street": "Tremont Street",
      "addr_housenumber": "147",
      "value": 29.12457536921696
    }
  ],
  "answer_type": "loc",
  "question_entities": {
    "[2]": {
      "distance": 50000,
      "text": "50 kilometers"
    },
    "[3]": {
      "main_category": "tourism",
      "sub_category": "hotel",
      "display_name": "TownePlace Suites, Wrentham, MA",
      "geo_wkt": "POINT (-71.312415 42.038711)",
      "poi": {
        "id": 19985,
        "geometry": "POINT (-71.312415 42.038711)",
        "poi_name": "TownePlace Suites",
        "osm_id": 7798845136,
        "tourism": "hotel",
        "official_name": "TownePlace Suites by Marriott",
        "addr_state": "MA",
        "addr_city": "Wrentham",
        "addr_postcode": "02093",
        "addr_street": "Ledgeview Way",
        "addr_housenumber": "65"
      }
    },
    "[4]": {
      "main_category": "tourism",
      "sub_category": "attraction",
      "display_name": "Boston Marathon Finish Line, Boston, MA",
      "geo_wkt": "POINT (-71.078616 42.349751)",
      "poi": {
        "id": 26946,
        "geometry": "POINT (-71.078616 42.349751)",
        "poi_name": "Boston Marathon Finish Line",
        "osm_id": 7644779165,
        "historic": "yes",
        "tourism": "attraction",
        "operator": "Boston Athletic Association",
        "website": "https://www.baa.org/races/boston-marathon",
        "wikidata": "Q826038",
        "addr_state": "MA",
        "addr_city": "Boston",
        "addr_postcode": "02116",
        "addr_street": "Boylston Street",
        "addr_housenumber": "665"
      }
    },
    "[1]": {
      "main_category": "amenity",
      "sub_category": "fast_food"
    }
  },
  "id": 1231,
  "type": "range:towards+loc"
}