{
  "question": "Where can I find fast food restaurant located en route to Go Ape Treetop Adventure Course, Strongsville, OH from Country Inn & Suites, Elyria, OH, within a radius of 160 kilometers?",
  "sql": "WITH\n    angle AS (SELECT degrees(ST_Azimuth(ST_GeomFromText('POINT (-82.118609 41.401075)',4326)::geography, ST_GeomFromText('POINT (-81.818381 41.322133)',4326)::geography)) AS value)\nSELECT * FROM pois,angle\nWHERE amenity = 'fast_food'\nAND ST_DWithin(pois.geometry, ST_GeomFromText('POINT (-82.118609 41.401075)',4326)::geography, 160000)\nAND (degrees(ST_Azimuth(ST_GeomFromText('POINT (-82.118609 41.401075)',4326)::geography, pois.geometry)) BETWEEN angle.value - 22.5 AND angle.value + 22.5);\n",
  "answers": [
    {
      "id": 28454,
      "geometry": "POINT (-80.356765 41.053977)",
      "poi_name": "Arby's",
      "osm_id": 483031028,
      "amenity": "fast_food",
      "cuisine": "sandwich",
      "addr_state": "PA",
      "value": 109.13990472120426
    },
    {
      "id": 28665,
      "geometry": "POINT (-81.332149 40.963783)",
      "poi_name": "pizzaBOGO",
      "osm_id": 8249410247,
      "amenity": "fast_food",
      "cuisine": "pizza",
      "addr_state": "OH",
      "addr_city": "Hartville",
      "addr_postcode": "44632",
      "addr_street": "South Prospect Avenue",
      "addr_housenumber": "127",
      "value": 109.13990472120426
    },
    {
      "id": 28668,
      "geometry": "POINT (-81.331743 40.963766)",
      "poi_name": "Peace Love & Little Donuts",
      "osm_id": 8249700722,
      "amenity": "fast_food",
      "cuisine": "donut",
      "drive_through": "no",
      "addr_state": "OH",
      "addr_city": "Hartville",
      "addr_postcode": "44632",
      "addr_street": "South Prospect Avenue",
      "addr_housenumber": "115",
      "value": 109.13990472120426
    },
    {
      "id": 29183,
      "geometry": "POINT (-81.441446 41.102296)",
      "poi_name": "Fresh Planet",
      "osm_id": 8286826080,
      "amenity": "fast_food",
      "website": "https://fresh-planet.com/",
      "phone": "+13308495099",
      "addr_state": "OH",
      "addr_city": "Tallmadge",
      "addr_postcode": "44278",
      "addr_street": "Tallmadge Circle",
      "addr_housenumber": "116",
      "value": 109.13990472120426
    },
    {
      "id": 29781,
      "geometry": "POINT (-81.417009 41.083389)",
      "poi_name": "Gionino's Pizzeria",
      "osm_id": 8326565859,
      "amenity": "fast_food",
      "cuisine": "pizza",
      "website": "https://www.gioninos.com/locations/oh-tallmadge-676-eastwood-ave-44278",
      "phone": "+1-330-630-2010",
      "takeaway": "yes",
      "addr_state": "OH",
      "addr_city": "Tallmadge",
      "addr_postcode": "44278",
      "addr_street": "Eastwood Avenue",
      "addr_housenumber": "676",
      "value": 109.13990472120426
    },
    {
      "id": 30734,
      "geometry": "POINT (-81.570327 41.110295)",
      "poi_name": "Moe's Southwest Grill",
      "osm_id": 8379715148,
      "amenity": "fast_food",
      "cuisine": "mexican",
      "takeaway": "yes",
      "addr_state": "OH",
      "addr_city": "Akron",
      "addr_postcode": "44313",
      "addr_street": "West Market Street",
      "value": 109.13990472120426
    },
    {
      "id": 31390,
      "geometry": "POINT (-81.507233 41.148124)",
      "poi_name": "BurgerFi",
      "osm_id": 8421643884,
      "amenity": "fast_food",
      "cuisine": "burger",
      "phone": "+1-330-217-1471",
      "takeaway": "yes",
      "addr_state": "OH",
      "addr_city": "Cuyahoga Falls",
      "addr_postcode": "44223",
      "addr_street": "Portage Trail",
      "addr_housenumber": "2002",
      "value": 109.13990472120426
    },
    {
      "id": 31435,
      "geometry": "POINT (-81.74516 41.384089)",
      "poi_name": "Wingstop",
      "osm_id": 8423653252,
      "amenity": "fast_food",
      "cuisine": "wings",
      "takeaway": "yes",
      "addr_state": "OH",
      "addr_city": "Parma",
      "addr_postcode": "44129",
      "addr_street": "West Ridgewood Drive",
      "addr_housenumber": "8641",
      "value": 109.13990472120426
    },
    {
      "id": 31436,
      "geometry": "POINT (-81.742969 41.384075)",
      "poi_name": "Five Guys",
      "osm_id": 8423653254,
      "amenity": "fast_food",
      "cuisine": "burger",
      "takeaway": "yes",
      "official_name": "Five Guys Burgers and Fries",
      "addr_state": "OH",
      "addr_city": "Parma",
      "addr_postcode": "44129",
      "addr_street": "West Ridgewood Drive",
      "addr_housenumber": "8249",
      "value": 109.13990472120426
    },
    {
      "id": 31437,
      "geometry": "POINT (-81.741522 41.384197)",
      "poi_name": "Panera Bread",
      "osm_id": 8423653256,
      "amenity": "fast_food",
      "cuisine": "sandwich;bakery",
      "takeaway": "yes",
      "addr_state": "OH",
      "addr_city": "Parma",
      "addr_postcode": "44129",
      "addr_street": "West Ridgewood Drive",
      "addr_housenumber": "8109",
      "value": 109.13990472120426
    },
    {
      "id": 36484,
      "geometry": "POINT (-81.445332 41.2397)",
      "poi_name": "Bruegger's Bagels",
      "osm_id": 2767085937,
      "amenity": "fast_food",
      "cuisine": "bagel",
      "takeaway": "yes",
      "addr_city": "hudson",
      "addr_postcode": "44236",
      "value": 109.13990472120426
    },
    {
      "id": 38480,
      "geometry": "POINT (-81.834582 41.308871)",
      "poi_name": "McDonald's",
      "osm_id": 2867826001,
      "amenity": "fast_food",
      "cuisine": "burger",
      "website": "https://www.mcdonalds.com/us/en-us/location/oh/strongsville/14615-pearl-rd/3314.html",
      "takeaway": "yes",
      "addr_city": "Strongsville",
      "addr_postcode": "44136",
      "addr_street": "Pearl Road",
      "addr_housenumber": "14615",
      "value": 109.13990472120426
    },
    {
      "id": 39595,
      "geometry": "POINT (-81.834616 41.306239)",
      "poi_name": "Chipotle",
      "osm_id": 2930400821,
      "amenity": "fast_food",
      "cuisine": "mexican",
      "website": "https://www.chipotle.com/",
      "phone": "+1-440-846-9625",
      "takeaway": "yes",
      "official_name": "Chipotle Mexican Grill",
      "addr_city": "Strongsville",
      "addr_postcode": "44136",
      "addr_street": "Pearl Road",
      "addr_housenumber": "15029",
      "value": 109.13990472120426
    },
    {
      "id": 38832,
      "geometry": "POINT (-81.834612 41.306303)",
      "poi_name": "Jimmy John's",
      "osm_id": 2884626332,
      "amenity": "fast_food",
      "cuisine": "sandwich",
      "website": "https://www.jimmyjohns.com/",
      "takeaway": "yes",
      "addr_city": "Strongsville",
      "addr_postcode": "44136",
      "addr_street": "Pearl Road",
      "addr_housenumber": "14993",
      "value": 109.13990472120426
    },
    {
      "id": 41167,
      "geometry": "POINT (-81.536677 41.393425)",
      "poi_name": "Burger King",
      "osm_id": 3003066333,
      "amenity": "fast_food",
      "cuisine": "burger",
      "takeaway": "yes",
      "addr_state": "OH",
      "addr_city": "Bedford",
      "addr_postcode": "44146",
      "addr_street": "Center Road",
      "addr_housenumber": "4",
      "value": 109.13990472120426
    },
    {
      "id": 42800,
      "geometry": "POINT (-81.343008 41.151236)",
      "poi_name": "Burrito-Del-Rey",
      "osm_id": 3079567204,
      "amenity": "fast_food",
      "cuisine": "mexican",
      "website": "https://www.kent.edu/dining/prentice-hall",
      "takeaway": "yes",
      "drive_through": "no",
      "delivery": "no",
      "addr_city": "Kent",
      "value": 109.13990472120426
    },
    {
      "id": 45946,
      "geometry": "POINT (-81.827805 41.342697)",
      "poi_name": "McDonald's",
      "osm_id": 3237282873,
      "amenity": "fast_food",
      "cuisine": "burger",
      "website": "https://www.mcdonalds.com/us/en-us/location/oh/strongsville/9192-pearl-road/36762.html",
      "takeaway": "yes",
      "addr_city": "Strongsville",
      "addr_postcode": "44136",
      "addr_street": "Pearl Road",
      "addr_housenumber": "9192",
      "value": 109.13990472120426
    },
    {
      "id": 45386,
      "geometry": "POINT (-81.834459 41.312547)",
      "poi_name": "Dunkin'",
      "osm_id": 3204196528,
      "amenity": "fast_food",
      "cuisine": "donut;coffee_shop",
      "takeaway": "yes",
      "addr_city": "Strongsville",
      "addr_postcode": "44136",
      "addr_street": "Pearl Road",
      "addr_housenumber": "14009",
      "value": 109.13990472120426
    },
    {
      "id": 45744,
      "geometry": "POINT (-81.438491 41.307494)",
      "poi_name": "Arby's",
      "osm_id": 3227141037,
      "amenity": "fast_food",
      "cuisine": "sandwich",
      "addr_state": "OH",
      "value": 109.13990472120426
    },
    {
      "id": 46665,
      "geometry": "POINT (-81.517016 41.085383)",
      "poi_name": "Subway",
      "osm_id": 3281436608,
      "amenity": "fast_food",
      "cuisine": "sandwich",
      "takeaway": "yes",
      "addr_state": "OH",
      "addr_city": "Akron",
      "addr_postcode": "44308",
      "addr_street": "North Main Street",
      "addr_housenumber": "10",
      "value": 109.13990472120426
    },
    {
      "id": 56416,
      "geometry": "POINT (-81.356997 41.15356)",
      "poi_name": "Pita Pit",
      "osm_id": 10235832904,
      "amenity": "fast_food",
      "cuisine": "pita",
      "takeaway": "yes",
      "addr_state": "OH",
      "addr_city": "Kent",
      "addr_housenumber": "154B",
      "value": 109.13990472120426
    },
    {
      "id": 55406,
      "geometry": "POINT (-81.464419 40.967095)",
      "poi_name": "Subway",
      "osm_id": 10186046225,
      "amenity": "fast_food",
      "cuisine": "sandwich",
      "website": "https://restaurants.subway.com/united-states/oh/uniontown/3471-massillon-rd",
      "phone": "+1-330-896-9181",
      "takeaway": "yes",
      "drive_through": "no",
      "addr_state": "OH",
      "addr_city": "Uniontown",
      "addr_postcode": "44685",
      "addr_street": "Massillon Road",
      "addr_housenumber": "3471",
      "value": 109.13990472120426
    },
    {
      "id": 55407,
      "geometry": "POINT (-81.464433 40.966761)",
      "poi_name": "Gionino's Pizzeria",
      "osm_id": 10186046229,
      "amenity": "fast_food",
      "cuisine": "pizza",
      "website": "http://www.gioninos.com/",
      "phone": "+1-330-896-1002",
      "takeaway": "yes",
      "addr_state": "OH",
      "addr_city": "Uniontown",
      "addr_postcode": "44685",
      "addr_street": "Massillon Road",
      "addr_housenumber": "3483",
      "value": 109.13990472120426
    },
    {
      "id": 55403,
      "geometry": "POINT (-81.465783 40.965533)",
      "poi_name": "Taco Bell",
      "osm_id": 10186045452,
      "amenity": "fast_food",
      "cuisine": "tex-mex",
      "website": "https://locations.tacobell.com/oh/uniontown/3532-massillon-road.html",
      "phone": "+1-234-270-0247",
      "takeaway": "yes",
      "drive_through": "yes",
      "addr_state": "OH",
      "addr_city": "Uniontown",
      "addr_postcode": "44685",
      "addr_street": "Massillon Road",
      "addr_housenumber": "3532",
      "value": 109.13990472120426
    },
    {
      "id": 55871,
      "geometry": "POINT (-81.469615 41.101657)",
      "poi_name": "Gionino's Pizzeria",
      "osm_id": 10212206517,
      "amenity": "fast_food",
      "cuisine": "pizza",
      "website": "https://www.gioninos.com/locations/oh-akron-1250-e-tallmadge-ave-44310",
      "phone": "+1-330-634-1110",
      "takeaway": "yes",
      "addr_state": "OH",
      "addr_city": "Akron",
      "addr_postcode": "44310",
      "addr_street": "East Tallmadge Avenue",
      "addr_housenumber": "1250",
      "value": 109.13990472120426
    },
    {
      "id": 57763,
      "geometry": "POINT (-82.115825 41.400168)",
      "poi_name": "Wendy's",
      "osm_id": 5350221558,
      "amenity": "fast_food",
      "cuisine": "burger",
      "takeaway": "yes",
      "drive_through": "yes",
      "addr_city": "Elyria",
      "addr_postcode": "44035",
      "addr_street": "Griswold Road",
      "addr_housenumber": "558",
      "value": 109.13990472120426
    },
    {
      "id": 59108,
      "geometry": "POINT (-80.69936 40.900462)",
      "poi_name": "Arby's",
      "osm_id": 5411352144,
      "amenity": "fast_food",
      "cuisine": "sandwich",
      "takeaway": "yes",
      "addr_state": "OH",
      "value": 109.13990472120426
    },
    {
      "id": 59583,
      "geometry": "POINT (-81.425135 41.03202)",
      "poi_name": "Subway",
      "osm_id": 5433629368,
      "amenity": "fast_food",
      "cuisine": "sandwich",
      "phone": "+1-330-628-7449",
      "takeaway": "yes",
      "addr_state": "OH",
      "addr_city": "Akron",
      "addr_postcode": "44312",
      "addr_street": "East Waterloo Road",
      "addr_housenumber": "2843",
      "value": 109.13990472120426
    },
    {
      "id": 59584,
      "geometry": "POINT (-81.425038 41.032016)",
      "poi_name": "Papa John's",
      "osm_id": 5433629369,
      "amenity": "fast_food",
      "cuisine": "pizza",
      "phone": "+1-330-628-4100",
      "takeaway": "yes",
      "addr_state": "OH",
      "addr_city": "Akron",
      "addr_postcode": "44312",
      "addr_street": "East Waterloo Road",
      "addr_housenumber": "2845",
      "value": 109.13990472120426
    },
    {
      "id": 62441,
      "geometry": "POINT (-81.685264 41.359373)",
      "poi_name": "Little Caesars",
      "osm_id": 5567870615,
      "amenity": "fast_food",
      "cuisine": "pizza",
      "website": "https://littlecaesars.com/en-us/store/8729/",
      "takeaway": "yes",
      "addr_state": "OH",
      "addr_city": "Parma",
      "addr_postcode": "44134",
      "addr_street": "West Pleasant Valley Road",
      "addr_housenumber": "1011",
      "value": 109.13990472120426
    },
    {
      "id": 66989,
      "geometry": "POINT (-80.648223 41.02478)",
      "poi_name": "Hot Head Burritos",
      "osm_id": 11218601135,
      "amenity": "fast_food",
      "cuisine": "mexican",
      "takeaway": "yes",
      "addr_state": "OH",
      "addr_city": "Boardman",
      "addr_postcode": "44512",
      "addr_street": "Boardman Poland Road",
      "addr_housenumber": "362",
      "value": 109.13990472120426
    },
    {
      "id": 66947,
      "geometry": "POINT (-80.319661 40.97791)",
      "poi_name": "Nina's Italian Ice",
      "osm_id": 11216964081,
      "amenity": "fast_food",
      "cuisine": "ice_cream",
      "opening_hours": "Mo-Su 12:00-21:00",
      "website": "https://www.facebook.com/profile.php?id=640026856009357&paipv=0&eav=AfYrMQDRv-p3K_GOkwXn_lzoYY_4I2u-CCpxo1WQXdIJCXa0FWM0LiH_p8D8HEcJ9b0&_rdr",
      "phone": "(724) 944-2747",
      "addr_state": "PA",
      "addr_city": "New Castle",
      "addr_postcode": "16101",
      "addr_street": "East Washington Street",
      "addr_housenumber": "1928",
      "value": 109.13990472120426
    },
    {
      "id": 84279,
      "geometry": "POINT (-80.972366 41.187208)",
      "poi_name": "Subway",
      "osm_id": 1782737086,
      "amenity": "fast_food",
      "cuisine": "sandwich",
      "takeaway": "yes",
      "addr_state": "OH",
      "addr_city": "Newton Falls",
      "addr_postcode": "44444",
      "addr_street": "River Street",
      "addr_housenumber": "17",
      "value": 109.13990472120426
    },
    {
      "id": 82084,
      "geometry": "POINT (-80.395057 41.011619)",
      "poi_name": "Arby's",
      "osm_id": 1681570628,
      "amenity": "fast_food",
      "cuisine": "sandwich",
      "takeaway": "yes",
      "addr_state": "PA",
      "value": 109.13990472120426
    },
    {
      "id": 82087,
      "geometry": "POINT (-80.395638 41.013306)",
      "poi_name": "Wendy's",
      "osm_id": 1681572518,
      "amenity": "fast_food",
      "cuisine": "burger",
      "takeaway": "yes",
      "drive_through": "yes",
      "addr_state": "PA",
      "addr_city": "New Castle",
      "addr_postcode": "16101",
      "addr_street": "West State Street",
      "addr_housenumber": "2590",
      "value": 109.13990472120426
    },
    {
      "id": 76189,
      "geometry": "POINT (-81.996293 41.396676)",
      "poi_name": "Subway",
      "osm_id": 9764405299,
      "amenity": "fast_food",
      "cuisine": "sandwich",
      "takeaway": "yes",
      "addr_state": "OH",
      "addr_city": "North Ridgeville",
      "addr_postcode": "44039",
      "addr_street": "Center Ridge Road",
      "addr_housenumber": "34299",
      "value": 109.13990472120426
    },
    {
      "id": 76190,
      "geometry": "POINT (-81.995991 41.397836)",
      "poi_name": "Wendy's",
      "osm_id": 9764405313,
      "amenity": "fast_food",
      "cuisine": "burger",
      "takeaway": "yes",
      "addr_state": "OH",
      "addr_city": "North Ridgeville",
      "addr_postcode": "44039",
      "addr_street": "Center Ridge Road",
      "addr_housenumber": "34323",
      "value": 109.13990472120426
    },
    {
      "id": 76196,
      "geometry": "POINT (-82.018066 41.390834)",
      "poi_name": "McDonald's",
      "osm_id": 9764622496,
      "amenity": "fast_food",
      "cuisine": "burger",
      "website": "https://www.mcdonalds.com/us/en-us/location/oh/north-ridgeville/35900-center-ridge-rd/34162.html",
      "takeaway": "yes",
      "addr_state": "OH",
      "addr_city": "North Ridgeville",
      "addr_postcode": "44039",
      "addr_street": "Center Ridge Road",
      "addr_housenumber": "35900",
      "value": 109.13990472120426
    },
    {
      "id": 88374,
      "geometry": "POINT (-81.74455 41.380118)",
      "poi_name": "Mr. Hero",
      "osm_id": 8781130051,
      "amenity": "fast_food",
      "cuisine": "sandwich",
      "addr_state": "OH",
      "addr_city": "Parma",
      "addr_postcode": "44129",
      "addr_street": "Day Drive",
      "addr_housenumber": "8505",
      "value": 109.13990472120426
    },
    {
      "id": 88379,
      "geometry": "POINT (-81.735233 41.380153)",
      "poi_name": "Charleys Philly Steaks",
      "osm_id": 8781361246,
      "amenity": "fast_food",
      "cuisine": "sandwich",
      "takeaway": "yes",
      "addr_state": "OH",
      "addr_city": "Parma",
      "addr_postcode": "44129",
      "addr_street": "Ridge Road",
      "addr_housenumber": "6780",
      "value": 109.13990472120426
    },
    {
      "id": 88380,
      "geometry": "POINT (-81.738051 41.379794)",
      "poi_name": "Subway",
      "osm_id": 8781361260,
      "amenity": "fast_food",
      "cuisine": "sandwich",
      "takeaway": "yes",
      "addr_state": "OH",
      "addr_city": "Parma",
      "addr_postcode": "44129",
      "addr_street": "Day Drive",
      "addr_housenumber": "7759",
      "value": 109.13990472120426
    },
    {
      "id": 88381,
      "geometry": "POINT (-81.735619 41.380213)",
      "poi_name": "Taco Bell",
      "osm_id": 8781366119,
      "amenity": "fast_food",
      "cuisine": "tex-mex",
      "website": "https://locations.tacobell.com/oh/parma/7475-day-dr.html",
      "takeaway": "yes",
      "addr_state": "OH",
      "addr_city": "Parma",
      "addr_postcode": "44129",
      "addr_street": "Day Drive",
      "addr_housenumber": "7475",
      "value": 109.13990472120426
    },
    {
      "id": 88651,
      "geometry": "POINT (-81.597245 41.399754)",
      "poi_name": "McDonald's",
      "osm_id": 8789977409,
      "amenity": "fast_food",
      "cuisine": "burger",
      "website": "https://www.mcdonalds.com/us/en-us/location/oh/garfield-heights/12690-rockside-rd/33898.html",
      "takeaway": "yes",
      "addr_state": "OH",
      "addr_city": "Garfield Heights",
      "addr_postcode": "44125",
      "addr_street": "Rockside Road",
      "addr_housenumber": "12690",
      "value": 109.13990472120426
    },
    {
      "id": 88669,
      "geometry": "POINT (-81.684016 41.357067)",
      "poi_name": "Burger King",
      "osm_id": 8791842899,
      "amenity": "fast_food",
      "cuisine": "burger",
      "takeaway": "yes",
      "addr_state": "OH",
      "addr_city": "Seven Hills",
      "addr_postcode": "44131",
      "addr_street": "Broadview Road",
      "addr_housenumber": "7677",
      "value": 109.13990472120426
    },
    {
      "id": 88925,
      "geometry": "POINT (-81.791233 41.377335)",
      "poi_name": "Krispy Kreme",
      "osm_id": 8809276392,
      "amenity": "fast_food",
      "cuisine": "donut",
      "takeaway": "yes",
      "addr_state": "OH",
      "addr_city": "Middleburg Heights",
      "addr_postcode": "44130",
      "addr_street": "Pearl Road",
      "addr_housenumber": "6907",
      "value": 109.13990472120426
    },
    {
      "id": 88535,
      "geometry": "POINT (-81.736139 41.379982)",
      "poi_name": "McDonald's",
      "osm_id": 8786733581,
      "amenity": "fast_food",
      "cuisine": "burger",
      "website": "https://www.mcdonalds.com/us/en-us/location/oh/parma/7505-day-dr/3529.html",
      "takeaway": "yes",
      "addr_state": "OH",
      "addr_city": "Parma",
      "addr_postcode": "44129",
      "addr_street": "Day Drive",
      "addr_housenumber": "7505",
      "value": 109.13990472120426
    },
    {
      "id": 88536,
      "geometry": "POINT (-81.737158 41.38)",
      "poi_name": "Arby's",
      "osm_id": 8786757359,
      "amenity": "fast_food",
      "cuisine": "sandwich",
      "takeaway": "yes",
      "addr_state": "OH",
      "addr_city": "Parma",
      "addr_postcode": "44129",
      "addr_street": "Day Drive",
      "addr_housenumber": "7647",
      "value": 109.13990472120426
    },
    {
      "id": 89010,
      "geometry": "POINT (-81.537928 41.414774)",
      "poi_name": "Wendy's",
      "osm_id": 8814947751,
      "amenity": "fast_food",
      "cuisine": "burger",
      "takeaway": "yes",
      "addr_state": "OH",
      "addr_city": "Maple Heights",
      "addr_postcode": "44137",
      "addr_street": "Warrensville Center Road",
      "addr_housenumber": "5360",
      "value": 109.13990472120426
    },
    {
      "id": 89457,
      "geometry": "POINT (-80.446514 41.263795)",
      "poi_name": "The Corral",
      "osm_id": 8846889361,
      "amenity": "fast_food",
      "cuisine": "burger;ice_cream;hot_dog;coffee",
      "addr_state": "PA",
      "addr_city": "Hermitage",
      "addr_postcode": "16148",
      "addr_street": "North Hermitage Road",
      "addr_housenumber": "2190",
      "value": 109.13990472120426
    },
    {
      "id": 89252,
      "geometry": "POINT (-81.492674 40.977834)",
      "poi_name": "Subway",
      "osm_id": 8833837953,
      "amenity": "fast_food",
      "cuisine": "sandwich",
      "phone": "+13306444762",
      "takeaway": "yes",
      "addr_state": "OH",
      "addr_city": "Akron",
      "addr_postcode": "44312",
      "addr_street": "South Arlington Road",
      "addr_housenumber": "3421",
      "value": 109.13990472120426
    },
    {
      "id": 90956,
      "geometry": "POINT (-81.348459 41.320132)",
      "poi_name": "Subway",
      "osm_id": 2030555263,
      "amenity": "fast_food",
      "cuisine": "sandwich",
      "takeaway": "yes",
      "addr_state": "OH",
      "addr_city": "Aurora",
      "addr_postcode": "44202",
      "addr_street": "Barrington Town Square",
      "addr_housenumber": "92",
      "value": 109.13990472120426
    },
    {
      "id": 94971,
      "geometry": "POINT (-81.549388 41.132553)",
      "poi_name": "Gionino's Pizzeria",
      "osm_id": 6382305314,
      "amenity": "fast_food",
      "cuisine": "pizza",
      "website": "https://www.gioninos.com/locations/oh-akron-1376-n-portage-path-44313",
      "phone": "+1-330-867-3337",
      "takeaway": "yes",
      "addr_state": "OH",
      "addr_city": "Akron",
      "addr_postcode": "44313",
      "addr_street": "North Portage Path",
      "addr_housenumber": "1376",
      "value": 109.13990472120426
    },
    {
      "id": 92237,
      "geometry": "POINT (-81.827041 41.313001)",
      "poi_name": "Robek's",
      "osm_id": 2107734031,
      "amenity": "fast_food",
      "cuisine": "ice_cream",
      "addr_city": "Strongsville",
      "addr_postcode": "44136",
      "addr_street": "Royalton Road",
      "addr_housenumber": "18025",
      "value": 109.13990472120426
    },
    {
      "id": 105988,
      "geometry": "POINT (-81.529281 41.416132)",
      "poi_name": "Mr. Hero",
      "osm_id": 8657279015,
      "amenity": "fast_food",
      "cuisine": "sandwich",
      "addr_state": "OH",
      "addr_city": "Maple Heights",
      "addr_postcode": "44137",
      "addr_street": "Libby Road",
      "addr_housenumber": "21680",
      "value": 109.13990472120426
    },
    {
      "id": 106466,
      "geometry": "POINT (-81.41701 41.019677)",
      "poi_name": "Marco's Pizza",
      "osm_id": 8681404850,
      "amenity": "fast_food",
      "cuisine": "pizza",
      "phone": "+1 (330) 752-7639",
      "takeaway": "yes",
      "addr_state": "OH",
      "addr_city": "Akron",
      "addr_postcode": "44312",
      "addr_street": "Canton Road",
      "addr_housenumber": "1766",
      "value": 109.13990472120426
    },
    {
      "id": 110809,
      "geometry": "POINT (-81.637784 41.137027)",
      "poi_name": "Jimmy John's",
      "osm_id": 3718589941,
      "amenity": "fast_food",
      "cuisine": "sandwich",
      "takeaway": "yes",
      "drive_through": "no",
      "official_name": "Jimmy John's Gourmet Sandwiches",
      "delivery": "yes",
      "addr_state": "OH",
      "addr_city": "Akron",
      "addr_postcode": "44333",
      "addr_street": "Medina Road",
      "addr_housenumber": "3867",
      "value": 109.13990472120426
    },
    {
      "id": 115596,
      "geometry": "POINT (-81.734852 41.415155)",
      "poi_name": "Dairy Queen",
      "osm_id": 8904884400,
      "amenity": "fast_food",
      "cuisine": "ice_cream;burger",
      "takeaway": "yes",
      "addr_state": "OH",
      "addr_city": "Parma",
      "addr_postcode": "44129",
      "addr_street": "Ridge Road",
      "addr_housenumber": "5342",
      "value": 109.13990472120426
    },
    {
      "id": 115623,
      "geometry": "POINT (-81.733157 41.414739)",
      "poi_name": "KFC",
      "osm_id": 8905694538,
      "amenity": "fast_food",
      "cuisine": "chicken",
      "website": "https://locations.kfc.com/oh/parma/5380-pearl-road",
      "takeaway": "yes",
      "addr_state": "OH",
      "addr_city": "Parma",
      "addr_postcode": "44129",
      "addr_street": "Pearl Road",
      "addr_housenumber": "5380",
      "value": 109.13990472120426
    },
    {
      "id": 112666,
      "geometry": "POINT (-80.772458 41.273958)",
      "poi_name": "Subway",
      "osm_id": 3799658916,
      "amenity": "fast_food",
      "cuisine": "sandwich",
      "phone": "+1 330 372 1519",
      "takeaway": "yes",
      "drive_through": "no",
      "delivery": "no",
      "addr_state": "OH",
      "addr_city": "Cortland",
      "addr_postcode": "44410",
      "addr_street": "Millennium Blvd",
      "addr_housenumber": "2016",
      "value": 109.13990472120426
    },
    {
      "id": 116255,
      "geometry": "POINT (-81.805529 41.238732)",
      "poi_name": "Wendy's",
      "osm_id": 8934133902,
      "amenity": "fast_food",
      "cuisine": "burger",
      "takeaway": "yes",
      "addr_state": "OH",
      "addr_city": "Brunswick",
      "addr_postcode": "44212",
      "addr_street": "Center Road",
      "addr_housenumber": "3309",
      "value": 109.13990472120426
    },
    {
      "id": 116166,
      "geometry": "POINT (-81.795767 41.405364)",
      "poi_name": "Arby's",
      "osm_id": 8930909357,
      "amenity": "fast_food",
      "cuisine": "sandwich",
      "takeaway": "yes",
      "addr_state": "OH",
      "addr_city": "Brook Park",
      "addr_postcode": "44142",
      "addr_street": "Snow Road",
      "addr_housenumber": "14500",
      "value": 109.13990472120426
    },
    {
      "id": 116168,
      "geometry": "POINT (-81.802244 41.404386)",
      "poi_name": "Mr. Hero",
      "osm_id": 8930911092,
      "amenity": "fast_food",
      "cuisine": "sandwich",
      "addr_state": "OH",
      "addr_city": "Brook Park",
      "addr_postcode": "44142",
      "addr_street": "Smith Road",
      "addr_housenumber": "5875",
      "value": 109.13990472120426
    },
    {
      "id": 116174,
      "geometry": "POINT (-81.797138 41.404083)",
      "poi_name": "Burger King",
      "osm_id": 8931064083,
      "amenity": "fast_food",
      "cuisine": "burger",
      "takeaway": "yes",
      "addr_state": "OH",
      "addr_city": "Brook Park",
      "addr_postcode": "44142",
      "addr_street": "Snow Road",
      "addr_housenumber": "14601",
      "value": 109.13990472120426
    },
    {
      "id": 116175,
      "geometry": "POINT (-81.798062 41.404068)",
      "poi_name": "Taco Bell",
      "osm_id": 8931064104,
      "amenity": "fast_food",
      "cuisine": "tex-mex",
      "website": "https://locations.tacobell.com/oh/brook-park/14701-snow-rd-.html",
      "takeaway": "yes",
      "addr_state": "OH",
      "addr_city": "Brook Park",
      "addr_postcode": "44142",
      "addr_street": "Snow Road",
      "addr_housenumber": "14701",
      "value": 109.13990472120426
    },
    {
      "id": 116257,
      "geometry": "POINT (-81.80284 41.239699)",
      "poi_name": "McDonald's",
      "osm_id": 8934140226,
      "amenity": "fast_food",
      "cuisine": "burger",
      "website": "https://www.mcdonalds.com/us/en-us/location/oh/brunswick/3115-center-rd/10859.html",
      "takeaway": "yes",
      "addr_state": "OH",
      "addr_city": "Brunswick",
      "addr_postcode": "44212",
      "addr_street": "Center Road",
      "addr_housenumber": "3115",
      "value": 109.13990472120426
    },
    {
      "id": 116266,
      "geometry": "POINT (-81.807615 41.239912)",
      "poi_name": "Subway",
      "osm_id": 8934324189,
      "amenity": "fast_food",
      "cuisine": "sandwich",
      "takeaway": "yes",
      "addr_state": "OH",
      "addr_city": "Brunswick",
      "addr_postcode": "44212",
      "addr_street": "North Carpenter Road",
      "addr_housenumber": "1319",
      "value": 109.13990472120426
    },
    {
      "id": 116267,
      "geometry": "POINT (-81.806003 41.237784)",
      "poi_name": "Steak 'n Shake",
      "osm_id": 8934343026,
      "amenity": "fast_food",
      "cuisine": "burger",
      "takeaway": "yes",
      "addr_state": "OH",
      "addr_city": "Brunswick",
      "addr_postcode": "44212",
      "addr_street": "Center Road",
      "addr_housenumber": "3316",
      "value": 109.13990472120426
    },
    {
      "id": 116268,
      "geometry": "POINT (-81.806838 41.2378)",
      "poi_name": "Chipotle",
      "osm_id": 8934343040,
      "amenity": "fast_food",
      "cuisine": "mexican",
      "takeaway": "yes",
      "official_name": "Chipotle Mexican Grill",
      "addr_state": "OH",
      "addr_city": "Brunswick",
      "addr_postcode": "44212",
      "addr_street": "Center Road",
      "addr_housenumber": "3362",
      "value": 109.13990472120426
    },
    {
      "id": 116269,
      "geometry": "POINT (-81.807186 41.237801)",
      "poi_name": "Jersey Mike's Subs",
      "osm_id": 8934343042,
      "amenity": "fast_food",
      "cuisine": "sandwich",
      "takeaway": "yes",
      "addr_state": "OH",
      "addr_city": "Brunswick",
      "addr_postcode": "44212",
      "addr_street": "Center Road",
      "addr_housenumber": "3362",
      "value": 109.13990472120426
    },
    {
      "id": 116271,
      "geometry": "POINT (-81.808551 41.237147)",
      "poi_name": "Pulp",
      "osm_id": 8934343104,
      "amenity": "fast_food",
      "cuisine": "juice",
      "addr_state": "OH",
      "addr_city": "Brunswick",
      "addr_postcode": "44212",
      "addr_street": "Town Center Boulevard",
      "addr_housenumber": "1418",
      "value": 109.13990472120426
    },
    {
      "id": 116283,
      "geometry": "POINT (-81.810282 41.237855)",
      "poi_name": "Chick-fil-A",
      "osm_id": 8934457959,
      "amenity": "fast_food",
      "cuisine": "chicken",
      "takeaway": "yes",
      "addr_state": "OH",
      "addr_city": "Brunswick",
      "addr_postcode": "44212",
      "addr_street": "Center Road",
      "addr_housenumber": "3470",
      "value": 109.13990472120426
    },
    {
      "id": 116750,
      "geometry": "POINT (-81.834863 41.316277)",
      "poi_name": "Hot Head Burritos",
      "osm_id": 8958333986,
      "amenity": "fast_food",
      "cuisine": "mexican",
      "takeaway": "yes",
      "addr_state": "OH",
      "addr_city": "Strongsville",
      "addr_postcode": "44136",
      "addr_street": "Pearl Road",
      "addr_housenumber": "13405",
      "value": 109.13990472120426
    },
    {
      "id": 116751,
      "geometry": "POINT (-81.834531 41.316874)",
      "poi_name": "Jersey Mike's Subs",
      "osm_id": 8958333987,
      "amenity": "fast_food",
      "cuisine": "sandwich",
      "takeaway": "yes",
      "addr_state": "OH",
      "addr_city": "Strongsville",
      "addr_postcode": "44136",
      "addr_street": "Pearl Road",
      "addr_housenumber": "13309",
      "value": 109.13990472120426
    },
    {
      "id": 117472,
      "geometry": "POINT (-81.348675 41.317731)",
      "poi_name": "Wendy's",
      "osm_id": 8996573410,
      "amenity": "fast_food",
      "cuisine": "burger",
      "takeaway": "yes",
      "addr_state": "OH",
      "addr_city": "Aurora",
      "addr_postcode": "44202",
      "addr_street": "Barrington Town Square",
      "addr_housenumber": "215",
      "value": 109.13990472120426
    },
    {
      "id": 117270,
      "geometry": "POINT (-80.378119 41.006453)",
      "poi_name": "Subway",
      "osm_id": 8985919658,
      "amenity": "fast_food",
      "cuisine": "sandwich",
      "opening_hours": "Mo-Su 10:00-20:00",
      "website": "https://restaurants.subway.com/united-states/pa/new-castle/1909-w-state-st",
      "phone": "+1-724-654-9917",
      "takeaway": "yes",
      "addr_state": "PA",
      "addr_city": "New Castle",
      "addr_postcode": "16101",
      "addr_street": "West State Street",
      "addr_housenumber": "1909",
      "value": 109.13990472120426
    },
    {
      "id": 119391,
      "geometry": "POINT (-81.581874 41.045723)",
      "poi_name": "Long John Silver's",
      "osm_id": 9101528676,
      "amenity": "fast_food",
      "cuisine": "seafood",
      "takeaway": "yes",
      "addr_state": "OH",
      "addr_city": "Akron",
      "addr_postcode": "44320",
      "addr_street": "Romig Road",
      "addr_housenumber": "2520",
      "value": 109.13990472120426
    },
    {
      "id": 117532,
      "geometry": "POINT (-81.385844 41.352699)",
      "poi_name": "McDonald's",
      "osm_id": 8999420192,
      "amenity": "fast_food",
      "cuisine": "burger",
      "website": "https://www.mcdonalds.com/us/en-us/location/oh/aurora/7195-aurora-rd/26316.html",
      "takeaway": "yes",
      "addr_state": "OH",
      "addr_city": "Aurora",
      "addr_postcode": "44202",
      "addr_street": "Aurora Road",
      "addr_housenumber": "7195",
      "value": 109.13990472120426
    },
    {
      "id": 117533,
      "geometry": "POINT (-81.389557 41.356831)",
      "poi_name": "Chipotle",
      "osm_id": 8999471796,
      "amenity": "fast_food",
      "cuisine": "mexican",
      "takeaway": "yes",
      "official_name": "Chipotle Mexican Grill",
      "addr_state": "OH",
      "addr_city": "Aurora",
      "addr_postcode": "44202",
      "addr_street": "Aurora Road",
      "addr_housenumber": "7020",
      "value": 109.13990472120426
    },
    {
      "id": 119566,
      "geometry": "POINT (-81.474222 41.119496)",
      "poi_name": "Boston Market",
      "osm_id": 9107805035,
      "amenity": "fast_food",
      "cuisine": "american;chicken",
      "takeaway": "yes",
      "addr_state": "OH",
      "addr_city": "Cuyahoga Falls",
      "addr_postcode": "44221",
      "addr_street": "Howe Avenue",
      "addr_housenumber": "699",
      "value": 109.13990472120426
    },
    {
      "id": 119498,
      "geometry": "POINT (-81.479868 41.118747)",
      "poi_name": "Chick-fil-A",
      "osm_id": 9105683925,
      "amenity": "fast_food",
      "cuisine": "chicken",
      "takeaway": "yes",
      "addr_state": "OH",
      "addr_city": "Cuyahoga Falls",
      "addr_postcode": "44221",
      "addr_street": "Howe Avenue",
      "addr_housenumber": "420",
      "value": 109.13990472120426
    },
    {
      "id": 119499,
      "geometry": "POINT (-81.483954 41.118823)",
      "poi_name": "Raising Cane's",
      "osm_id": 9105683994,
      "amenity": "fast_food",
      "cuisine": "chicken",
      "takeaway": "yes",
      "official_name": "Raising Cane's Chicken Fingers",
      "addr_state": "OH",
      "addr_city": "Cuyahoga Falls",
      "addr_postcode": "44221",
      "addr_street": "Howe Avenue",
      "addr_housenumber": "200",
      "value": 109.13990472120426
    },
    {
      "id": 119500,
      "geometry": "POINT (-81.47885 41.118738)",
      "poi_name": "Wendy's",
      "osm_id": 9105684205,
      "amenity": "fast_food",
      "cuisine": "burger",
      "takeaway": "yes",
      "addr_state": "OH",
      "addr_city": "Cuyahoga Falls",
      "addr_postcode": "44221",
      "addr_street": "Howe Avenue",
      "addr_housenumber": "460",
      "value": 109.13990472120426
    },
    {
      "id": 119502,
      "geometry": "POINT (-81.477198 41.118616)",
      "poi_name": "McDonald's",
      "osm_id": 9105684358,
      "amenity": "fast_food",
      "cuisine": "burger",
      "website": "https://www.mcdonalds.com/us/en-us/location/oh/cuyahoga-falls/482-howe-ave/11090.html",
      "takeaway": "yes",
      "addr_state": "OH",
      "addr_city": "Cuyahoga Falls",
      "addr_postcode": "44221",
      "addr_street": "Howe Avenue",
      "addr_housenumber": "482",
      "value": 109.13990472120426
    },
    {
      "id": 119626,
      "geometry": "POINT (-81.485685 41.116878)",
      "poi_name": "Steak 'n Shake",
      "osm_id": 9110884319,
      "amenity": "fast_food",
      "cuisine": "burger",
      "takeaway": "yes",
      "addr_state": "OH",
      "addr_city": "Akron",
      "addr_postcode": "44310",
      "addr_street": "Home Avenue",
      "addr_housenumber": "1684",
      "value": 109.13990472120426
    },
    {
      "id": 120140,
      "geometry": "POINT (-81.58024 41.048421)",
      "poi_name": "Taco Bell",
      "osm_id": 9142789566,
      "amenity": "fast_food",
      "cuisine": "tex-mex",
      "takeaway": "yes",
      "addr_state": "OH",
      "addr_city": "Akron",
      "addr_postcode": "44320",
      "addr_street": "Romig Road",
      "addr_housenumber": "2419",
      "value": 109.13990472120426
    },
    {
      "id": 120143,
      "geometry": "POINT (-81.617924 41.133633)",
      "poi_name": "Duck Donuts",
      "osm_id": 9142944968,
      "amenity": "fast_food",
      "cuisine": "donut",
      "addr_state": "OH",
      "addr_city": "Fairlawn",
      "addr_postcode": "44333",
      "addr_street": "West Market Street",
      "addr_housenumber": "3265",
      "value": 109.13990472120426
    },
    {
      "id": 123423,
      "geometry": "POINT (-82.106531 41.396999)",
      "poi_name": "Chipotle",
      "osm_id": 6853889014,
      "amenity": "fast_food",
      "cuisine": "mexican",
      "takeaway": "yes",
      "official_name": "Chipotle Mexican Grill",
      "addr_state": "OH",
      "addr_city": "Elyria",
      "addr_postcode": "44035",
      "addr_street": "West River Road North",
      "addr_housenumber": "1615",
      "value": 109.13990472120426
    },
    {
      "id": 128663,
      "geometry": "POINT (-81.735312 41.382702)",
      "poi_name": "Chick-fil-A",
      "osm_id": 8176969463,
      "amenity": "fast_food",
      "cuisine": "chicken",
      "takeaway": "yes",
      "drive_through": "yes",
      "addr_state": "OH",
      "addr_city": "Parma",
      "addr_postcode": "44129",
      "addr_street": "Ridge Road",
      "addr_housenumber": "6676",
      "value": 109.13990472120426
    },
    {
      "id": 132016,
      "geometry": "POINT (-81.783741 41.315115)",
      "poi_name": "Subway",
      "osm_id": 9938103384,
      "amenity": "fast_food",
      "cuisine": "sandwich",
      "phone": "+1-440-628-8700",
      "takeaway": "yes",
      "addr_state": "OH",
      "addr_city": "North Royalton",
      "addr_postcode": "44133",
      "addr_street": "Royalton Road",
      "addr_housenumber": "12786",
      "value": 109.13990472120426
    },
    {
      "id": 140276,
      "geometry": "POINT (-81.734337 41.403304)",
      "poi_name": "P. Jay's Pizza",
      "osm_id": 6238670315,
      "amenity": "fast_food",
      "cuisine": "pizza;pasta;salad",
      "phone": "+1 440 885 4355",
      "drive_through": "no",
      "addr_state": "OH",
      "addr_city": "Parma",
      "addr_street": "Ridge Road",
      "addr_housenumber": "5859",
      "value": 109.13990472120426
    },
    {
      "id": 140463,
      "geometry": "POINT (-81.432382 41.03268)",
      "poi_name": "Dunkin'",
      "osm_id": 6248205367,
      "amenity": "fast_food",
      "cuisine": "donut;coffee_shop",
      "phone": "+1-330-818-6334",
      "takeaway": "yes",
      "drive_through": "yes",
      "addr_state": "OH",
      "addr_city": "Akron",
      "addr_postcode": "44312",
      "addr_street": "Shanafelt Avenue",
      "addr_housenumber": "1286",
      "value": 109.13990472120426
    },
    {
      "id": 139477,
      "geometry": "POINT (-81.404674 41.166953)",
      "poi_name": "Dunkin'",
      "osm_id": 6198968353,
      "amenity": "fast_food",
      "cuisine": "donut;coffee_shop",
      "takeaway": "yes",
      "addr_state": "OH",
      "addr_city": "Stow",
      "addr_postcode": "44224",
      "addr_street": "Graham Road",
      "addr_housenumber": "3027",
      "value": 109.13990472120426
    },
    {
      "id": 139478,
      "geometry": "POINT (-81.404666 41.166897)",
      "poi_name": "Jersey Mike's Subs",
      "osm_id": 6198968354,
      "amenity": "fast_food",
      "cuisine": "sandwich",
      "takeaway": "yes",
      "addr_state": "OH",
      "addr_city": "Stow",
      "addr_postcode": "44224",
      "addr_street": "Graham Road",
      "addr_housenumber": "3037",
      "value": 109.13990472120426
    },
    {
      "id": 141883,
      "geometry": "POINT (-81.472674 41.119605)",
      "poi_name": "Penn Station",
      "osm_id": 6299193687,
      "amenity": "fast_food",
      "cuisine": "sandwich",
      "takeaway": "yes",
      "addr_state": "OH",
      "addr_city": "Cuyahoga Falls",
      "addr_postcode": "44221",
      "addr_street": "Howe Avenue",
      "addr_housenumber": "753",
      "value": 109.13990472120426
    },
    {
      "id": 141884,
      "geometry": "POINT (-81.472536 41.1196)",
      "poi_name": "Moe's Southwest Grill",
      "osm_id": 6299193688,
      "amenity": "fast_food",
      "cuisine": "mexican",
      "takeaway": "yes",
      "addr_state": "OH",
      "addr_city": "Cuyahoga Falls",
      "addr_postcode": "44221",
      "addr_street": "Howe Avenue",
      "addr_housenumber": "753",
      "value": 109.13990472120426
    },
    {
      "id": 143643,
      "geometry": "POINT (-81.739375 41.383449)",
      "poi_name": "Pulp",
      "osm_id": 6345983695,
      "amenity": "fast_food",
      "cuisine": "juice",
      "addr_state": "OH",
      "addr_city": "Parma",
      "addr_postcode": "44129",
      "addr_street": "West Ridgewood Drive",
      "addr_housenumber": "7727",
      "value": 109.13990472120426
    },
    {
      "id": 148893,
      "geometry": "POINT (-81.735345 41.412693)",
      "poi_name": "Subway",
      "osm_id": 3987162135,
      "amenity": "fast_food",
      "cuisine": "sandwich",
      "takeaway": "yes",
      "addr_state": "OH",
      "addr_city": "Parma",
      "addr_postcode": "44129",
      "addr_street": "Pearl Road",
      "addr_housenumber": "5466",
      "value": 109.13990472120426
    },
    {
      "id": 153479,
      "geometry": "POINT (-81.788267 41.379419)",
      "poi_name": "Longetivity Drive-Thru",
      "osm_id": 4198873572,
      "amenity": "fast_food",
      "cuisine": "smoothie",
      "takeaway": "yes",
      "drive_through": "yes",
      "outdoor_seating": "no",
      "addr_state": "OH",
      "addr_city": "Middleburgh Heights",
      "addr_postcode": "44130",
      "addr_street": "Pearl Road",
      "addr_housenumber": "6872",
      "value": 109.13990472120426
    },
    {
      "id": 156305,
      "geometry": "POINT (-81.616344 41.409504)",
      "poi_name": "Chipotle",
      "osm_id": 4646615637,
      "amenity": "fast_food",
      "cuisine": "mexican",
      "takeaway": "yes",
      "official_name": "Chipotle Mexican Grill",
      "addr_state": "OH",
      "addr_city": "Garfield Heights",
      "addr_postcode": "44125",
      "addr_street": "Vista Way",
      "addr_housenumber": "9761",
      "value": 109.13990472120426
    },
    {
      "id": 156306,
      "geometry": "POINT (-81.61759 41.409562)",
      "poi_name": "Penn Station",
      "osm_id": 4646615638,
      "amenity": "fast_food",
      "cuisine": "sandwich",
      "takeaway": "yes",
      "addr_state": "OH",
      "addr_city": "Garfield Heights",
      "addr_postcode": "44125",
      "addr_street": "Vista Way",
      "addr_housenumber": "9591",
      "value": 109.13990472120426
    },
    {
      "id": 161145,
      "geometry": "POINT (-81.512741 41.072644)",
      "poi_name": "Arby's",
      "osm_id": 4868359194,
      "amenity": "fast_food",
      "cuisine": "sandwich",
      "takeaway": "yes",
      "addr_state": "OH",
      "value": 109.13990472120426
    },
    {
      "id": 161611,
      "geometry": "POINT (-81.782958 41.380752)",
      "poi_name": "Arby's",
      "osm_id": 4892123150,
      "amenity": "fast_food",
      "cuisine": "sandwich",
      "takeaway": "yes",
      "addr_state": "OH",
      "addr_city": "Parma Heights",
      "addr_postcode": "44130",
      "addr_street": "Pearl Road",
      "addr_housenumber": "6677",
      "value": 109.13990472120426
    },
    {
      "id": 162646,
      "geometry": "POINT (-81.575664 41.391265)",
      "poi_name": "China Wok",
      "osm_id": 4937651893,
      "amenity": "fast_food",
      "cuisine": "chinese",
      "takeaway": "yes",
      "addr_city": "Maple Heights",
      "addr_street": "Dunham Road",
      "addr_housenumber": "6178",
      "value": 109.13990472120426
    },
    {
      "id": 159446,
      "geometry": "POINT (-81.8408 41.228271)",
      "poi_name": "McDonald's",
      "osm_id": 4793534809,
      "amenity": "fast_food",
      "cuisine": "burger",
      "website": "https://www.mcdonalds.com/us/en-us/location/oh/brunswick/1733-pearl-rd/25335.html",
      "takeaway": "yes",
      "addr_state": "OH",
      "addr_city": "Brunswick",
      "addr_postcode": "44212",
      "addr_street": "Pearl Road",
      "addr_housenumber": "1733",
      "value": 109.13990472120426
    },
    {
      "id": 159448,
      "geometry": "POINT (-81.840774 41.227316)",
      "poi_name": "Mr. Hero's",
      "osm_id": 4793534811,
      "amenity": "fast_food",
      "cuisine": "sandwich",
      "addr_state": "OH",
      "addr_city": "Brunswick",
      "addr_postcode": "44212",
      "addr_street": "Pearl Road",
      "addr_housenumber": "1737",
      "value": 109.13990472120426
    },
    {
      "id": 173718,
      "geometry": "POINT (-81.352636 41.154343)",
      "poi_name": "Penn Station",
      "osm_id": 2451963743,
      "amenity": "fast_food",
      "cuisine": "sandwich",
      "takeaway": "yes",
      "addr_state": "OH",
      "addr_city": "Kent",
      "value": 109.13990472120426
    },
    {
      "id": 177149,
      "geometry": "POINT (-81.357378 41.244641)",
      "poi_name": "Steak 'n Shake",
      "osm_id": 2575254710,
      "amenity": "fast_food",
      "cuisine": "burger",
      "website": "http://steaknshake.com",
      "capacity": "30",
      "phone": "+1-330-474-3431",
      "takeaway": "yes",
      "addr_city": "Streetsboro",
      "addr_postcode": "44241",
      "addr_street": "Cleve E Liverpool Road",
      "addr_housenumber": "9545",
      "value": 109.13990472120426
    },
    {
      "id": 177151,
      "geometry": "POINT (-81.342839 41.239724)",
      "poi_name": "Dunkin' Donuts",
      "osm_id": 2575279364,
      "amenity": "fast_food",
      "cuisine": "donut;coffee_shop",
      "internet_access": "yes",
      "phone": "+1-330-422-1155",
      "takeaway": "yes",
      "addr_city": "Streetsboro",
      "addr_postcode": "44241",
      "addr_street": "Cleve E Liverpool Road",
      "addr_housenumber": "9168",
      "value": 109.13990472120426
    },
    {
      "id": 177152,
      "geometry": "POINT (-81.341595 41.238872)",
      "poi_name": "Wendy's",
      "osm_id": 2575282052,
      "amenity": "fast_food",
      "cuisine": "burger",
      "website": "https://www.wendys.com/",
      "phone": "+1-330-626-1170",
      "takeaway": "yes",
      "drive_through": "yes",
      "addr_city": "Streetsboro",
      "addr_postcode": "44241",
      "addr_street": "Cleveland East Liverpool Road",
      "addr_housenumber": "9143",
      "value": 109.13990472120426
    },
    {
      "id": 177154,
      "geometry": "POINT (-81.343451 41.238949)",
      "poi_name": "Taco Bell",
      "osm_id": 2575286323,
      "amenity": "fast_food",
      "cuisine": "tex-mex",
      "website": "https://locations.tacobell.com/oh/streetsboro/9223-st-rte-14.html",
      "phone": "+1-330-626-2409",
      "takeaway": "yes",
      "addr_city": "Streetsboro",
      "addr_postcode": "44241",
      "addr_street": "Cleve E Liverpool Road",
      "addr_housenumber": "9223",
      "value": 109.13990472120426
    },
    {
      "id": 178146,
      "geometry": "POINT (-80.758909 41.182407)",
      "poi_name": "Rally's",
      "osm_id": 10713276679,
      "amenity": "fast_food",
      "cuisine": "burger",
      "phone": "+1 330 574 5005",
      "takeaway": "yes",
      "drive_through": "yes",
      "addr_state": "OH",
      "addr_city": "Niles",
      "addr_postcode": "44446",
      "addr_street": "Robbins Avenue",
      "addr_housenumber": "301",
      "value": 109.13990472120426
    },
    {
      "id": 178006,
      "geometry": "POINT (-81.686169 41.313617)",
      "poi_name": "Dunkin' Donuts",
      "osm_id": 2612235162,
      "amenity": "fast_food",
      "cuisine": "donut",
      "addr_city": "Broadview Heights",
      "addr_postcode": "44147",
      "addr_street": "Royalton Road",
      "addr_housenumber": "1057",
      "value": 109.13990472120426
    },
    {
      "id": 179280,
      "geometry": "POINT (-81.597104 41.400874)",
      "poi_name": "Arthur Treacher's",
      "osm_id": 10756133264,
      "amenity": "fast_food",
      "cuisine": "fish_and_chips",
      "addr_state": "OH",
      "addr_city": "Garfield Heights",
      "addr_postcode": "44125",
      "addr_street": "Rockside Road",
      "addr_housenumber": "12585",
      "value": 109.13990472120426
    },
    {
      "id": 179611,
      "geometry": "POINT (-81.517766 41.313387)",
      "poi_name": "Jersey Mike's Subs",
      "osm_id": 10771264020,
      "amenity": "fast_food",
      "cuisine": "sandwich",
      "takeaway": "yes",
      "addr_state": "OH",
      "addr_city": "Macedonia",
      "addr_postcode": "44056",
      "addr_street": "Macedonia Commons Boulevard",
      "addr_housenumber": "8210",
      "value": 109.13990472120426
    },
    {
      "id": 179215,
      "geometry": "POINT (-81.787941 41.378325)",
      "poi_name": "Charleys Philly Steaks",
      "osm_id": 10753368029,
      "amenity": "fast_food",
      "cuisine": "sandwich",
      "takeaway": "yes",
      "addr_state": "OH",
      "addr_city": "Middleburg Heights",
      "addr_postcode": "44130",
      "addr_street": "Pearl Road",
      "addr_housenumber": "6869",
      "value": 109.13990472120426
    },
    {
      "id": 179972,
      "geometry": "POINT (-81.491518 40.993806)",
      "poi_name": "Pulp Juice and Smoothie Bar",
      "osm_id": 10784242056,
      "amenity": "fast_food",
      "cuisine": "juice",
      "addr_state": "OH",
      "addr_city": "Akron",
      "addr_postcode": "44312",
      "addr_street": "South Arlington Road",
      "addr_housenumber": "2863",
      "value": 109.13990472120426
    },
    {
      "id": 179973,
      "geometry": "POINT (-81.491403 40.993804)",
      "poi_name": "Jimmy John's",
      "osm_id": 10784242057,
      "amenity": "fast_food",
      "cuisine": "sandwich",
      "takeaway": "yes",
      "official_name": "Jimmy John's Gourmet Sandwiches",
      "addr_state": "OH",
      "addr_city": "Akron",
      "addr_postcode": "44312",
      "addr_street": "South Arlington Road",
      "addr_housenumber": "2863",
      "value": 109.13990472120426
    },
    {
      "id": 179974,
      "geometry": "POINT (-81.491773 40.993932)",
      "poi_name": "Mr. Hero",
      "osm_id": 10784242061,
      "amenity": "fast_food",
      "cuisine": "sandwich",
      "addr_state": "OH",
      "addr_city": "Akron",
      "addr_postcode": "44312",
      "addr_street": "South Arlington Road",
      "addr_housenumber": "2863",
      "value": 109.13990472120426
    },
    {
      "id": 180768,
      "geometry": "POINT (-81.530072 41.416001)",
      "poi_name": "Little Caesars",
      "osm_id": 10817016174,
      "amenity": "fast_food",
      "cuisine": "pizza",
      "website": "https://littlecaesars.com/en-us/store/20427/",
      "takeaway": "yes",
      "addr_state": "OH",
      "addr_city": "Maple Heights",
      "addr_postcode": "44137",
      "addr_street": "Libby Road",
      "addr_housenumber": "21650",
      "value": 109.13990472120426
    },
    {
      "id": 182913,
      "geometry": "POINT (-81.34809 41.238925)",
      "poi_name": "Freddy's",
      "osm_id": 10911390649,
      "amenity": "fast_food",
      "cuisine": "ice_cream;burger",
      "opening_hours": "Mo-Th, Su 10:30-22:00; Fr-Sa 10:30-23:00",
      "website": "http://www.freddys.com",
      "phone": "+1-330-968-3349",
      "takeaway": "yes",
      "official_name": "Freddy's Frozen Custard & Steakburgers",
      "addr_state": "OH",
      "addr_city": "Streetsboro",
      "addr_postcode": "44241",
      "addr_street": "State Route 303",
      "addr_housenumber": "1240",
      "value": 109.13990472120426
    },
    {
      "id": 197829,
      "geometry": "POINT (-81.406416 40.975721)",
      "poi_name": "Subway",
      "osm_id": 10677249956,
      "amenity": "fast_food",
      "cuisine": "sandwich",
      "takeaway": "yes",
      "addr_state": "OH",
      "addr_city": "Uniontown",
      "addr_postcode": "44685",
      "addr_street": "Cleveland Avenue Northwest",
      "addr_housenumber": "13030",
      "value": 109.13990472120426
    },
    {
      "id": 197552,
      "geometry": "POINT (-81.852899 41.368538)",
      "poi_name": "Boss Chickn Beer",
      "osm_id": 10653006484,
      "amenity": "fast_food",
      "cuisine": "chicken",
      "website": "https://www.bosschicknbeer.com",
      "addr_state": "OH",
      "addr_city": "Berea",
      "addr_street": "Front Street",
      "addr_housenumber": "120",
      "value": 109.13990472120426
    },
    {
      "id": 197553,
      "geometry": "POINT (-81.852901 41.368472)",
      "poi_name": "Dave's Cosmic Subs",
      "osm_id": 10653006485,
      "amenity": "fast_food",
      "cuisine": "sandwich",
      "takeaway": "yes",
      "addr_state": "OH",
      "addr_city": "Berea",
      "addr_street": "Front Street",
      "addr_housenumber": "118",
      "value": 109.13990472120426
    },
    {
      "id": 197554,
      "geometry": "POINT (-81.852903 41.368392)",
      "poi_name": "Papa John's",
      "osm_id": 10653006486,
      "amenity": "fast_food",
      "cuisine": "pizza",
      "takeaway": "yes",
      "addr_state": "OH",
      "addr_city": "Berea",
      "addr_street": "Front Street",
      "addr_housenumber": "114",
      "value": 109.13990472120426
    },
    {
      "id": 205246,
      "geometry": "POINT (-81.817978 41.236571)",
      "poi_name": "Jimmy John's",
      "osm_id": 7161367599,
      "amenity": "fast_food",
      "cuisine": "sandwich",
      "takeaway": "yes",
      "official_name": "Jimmy John's Gourmet Sandwiches",
      "addr_state": "OH",
      "addr_city": "Brunswick",
      "addr_postcode": "44212",
      "addr_street": "Center Road",
      "addr_housenumber": "3668",
      "value": 109.13990472120426
    },
    {
      "id": 207574,
      "geometry": "POINT (-81.141218 40.902275)",
      "poi_name": "Little Caesars",
      "osm_id": 4952925021,
      "amenity": "fast_food",
      "cuisine": "pizza",
      "opening_hours": "Su-We 09:30-23:00, Fr-Sa 09:30-23:59",
      "phone": "+1-330-823-7884",
      "takeaway": "only",
      "drive_through": "no",
      "outdoor_seating": "no",
      "addr_state": "OH",
      "addr_city": "Alliance",
      "addr_postcode": "44601",
      "addr_street": "West State Street",
      "addr_housenumber": "2113",
      "value": 109.13990472120426
    },
    {
      "id": 209533,
      "geometry": "POINT (-81.481424 41.118819)",
      "poi_name": "Taco Bell",
      "osm_id": 5042020824,
      "amenity": "fast_food",
      "cuisine": "tex-mex",
      "website": "https://locations.tacobell.com/oh/cuyahoga-falls/360-howe-ave.html",
      "takeaway": "yes",
      "addr_state": "OH",
      "addr_city": "Cuyahoga Falls",
      "addr_postcode": "44221",
      "addr_street": "Howe Avenue",
      "addr_housenumber": "360",
      "value": 109.13990472120426
    },
    {
      "id": 209534,
      "geometry": "POINT (-81.482262 41.118798)",
      "poi_name": "Burger King",
      "osm_id": 5042020825,
      "amenity": "fast_food",
      "cuisine": "burger",
      "takeaway": "yes",
      "addr_state": "OH",
      "addr_city": "Cuyahoga Falls",
      "addr_postcode": "44221",
      "addr_street": "Howe Avenue",
      "addr_housenumber": "290",
      "value": 109.13990472120426
    },
    {
      "id": 209530,
      "geometry": "POINT (-81.479427 41.119583)",
      "poi_name": "Chipotle",
      "osm_id": 5042003022,
      "amenity": "fast_food",
      "cuisine": "mexican",
      "takeaway": "yes",
      "official_name": "Chipotle Mexican Grill",
      "addr_state": "OH",
      "addr_city": "Cuyahoga Falls",
      "addr_postcode": "44221",
      "addr_street": "Howe Avenue",
      "addr_housenumber": "371",
      "value": 109.13990472120426
    },
    {
      "id": 212389,
      "geometry": "POINT (-81.596706 41.39819)",
      "poi_name": "Subway",
      "osm_id": 5205002078,
      "amenity": "fast_food",
      "cuisine": "sandwich",
      "takeaway": "yes",
      "addr_state": "OH",
      "addr_city": "Garfield Heights",
      "addr_postcode": "44125",
      "addr_street": "Rockside Road",
      "addr_housenumber": "12598",
      "value": 109.13990472120426
    },
    {
      "id": 215500,
      "geometry": "POINT (-81.472271 41.119596)",
      "poi_name": "Five Guys",
      "osm_id": 5300908879,
      "amenity": "fast_food",
      "cuisine": "burger",
      "takeaway": "yes",
      "official_name": "Five Guys Burgers and Fries",
      "addr_state": "OH",
      "addr_city": "Cuyahoga Falls",
      "addr_postcode": "44221",
      "addr_street": "Howe Avenue",
      "addr_housenumber": "753",
      "value": 109.13990472120426
    },
    {
      "id": 213154,
      "geometry": "POINT (-81.738162 41.383298)",
      "poi_name": "Jimmy John's",
      "osm_id": 5237912350,
      "amenity": "fast_food",
      "cuisine": "sandwich",
      "takeaway": "yes",
      "official_name": "Jimmy John's Gourmet Sandwiches",
      "addr_state": "OH",
      "addr_city": "Parma",
      "addr_postcode": "44129",
      "addr_street": "West Ridgewood Drive",
      "addr_housenumber": "7701",
      "value": 109.13990472120426
    },
    {
      "id": 215646,
      "geometry": "POINT (-81.385038 41.352008)",
      "poi_name": "Subway",
      "osm_id": 5307983559,
      "amenity": "fast_food",
      "cuisine": "sandwich",
      "takeaway": "yes",
      "addr_state": "OH",
      "addr_city": "Aurora",
      "addr_postcode": "44202",
      "addr_street": "Market Place Drive",
      "addr_housenumber": "7725",
      "value": 109.13990472120426
    },
    {
      "id": 225028,
      "geometry": "POINT (-80.663225 41.032438)",
      "poi_name": "DQ Grill & Chill",
      "osm_id": 11108458545,
      "amenity": "fast_food",
      "cuisine": "ice_cream;burger",
      "takeaway": "yes",
      "drive_through": "yes",
      "addr_state": "OH",
      "addr_city": "Boardman",
      "addr_postcode": "44512",
      "addr_street": "Market Street",
      "addr_housenumber": "6532",
      "value": 109.13990472120426
    },
    {
      "id": 225417,
      "geometry": "POINT (-80.663365 40.998764)",
      "poi_name": "Sespe Burger",
      "osm_id": 11126141345,
      "amenity": "fast_food",
      "cuisine": "burger",
      "addr_state": "OH",
      "addr_city": "Boardman",
      "addr_postcode": "44512",
      "addr_street": "Market Street",
      "addr_housenumber": "8252",
      "value": 109.13990472120426
    },
    {
      "id": 225435,
      "geometry": "POINT (-80.678941 41.024831)",
      "poi_name": "Chick-fil-A",
      "osm_id": 11126413395,
      "amenity": "fast_food",
      "cuisine": "chicken",
      "opening_hours": "Mo-Sa 06:30-21:00",
      "website": "https://www.chick-fil-a.com/locations/oh/boardman-oh",
      "phone": "+1-330-717-9061",
      "takeaway": "yes",
      "drive_through": "yes",
      "addr_state": "OH",
      "addr_city": "Boardman",
      "addr_postcode": "44512",
      "addr_street": "Boardman Canfield Road",
      "addr_housenumber": "480",
      "value": 109.13990472120426
    },
    {
      "id": 228248,
      "geometry": "POINT (-81.81282 41.237311)",
      "poi_name": "Panera Bread",
      "osm_id": 4336207317,
      "amenity": "fast_food",
      "cuisine": "sandwich",
      "takeaway": "yes",
      "addr_state": "OH",
      "addr_city": "Brunswick",
      "addr_postcode": "44212",
      "addr_street": "Parschen",
      "addr_housenumber": "1405",
      "value": 109.13990472120426
    },
    {
      "id": 233743,
      "geometry": "POINT (-81.738329 41.384114)",
      "poi_name": "Chipotle",
      "osm_id": 4585637265,
      "amenity": "fast_food",
      "cuisine": "mexican",
      "takeaway": "yes",
      "official_name": "Chipotle Mexican Grill",
      "addr_state": "OH",
      "addr_city": "Parma",
      "addr_postcode": "44129",
      "addr_street": "West Ridgewood Drive",
      "addr_housenumber": "7683",
      "value": 109.13990472120426
    },
    {
      "id": 233631,
      "geometry": "POINT (-81.438664 41.139223)",
      "poi_name": "Subway",
      "osm_id": 4582150850,
      "amenity": "fast_food",
      "cuisine": "sandwich",
      "takeaway": "yes",
      "outdoor_seating": "no",
      "delivery": "no",
      "addr_city": "Munroe Falls",
      "addr_street": "South Main Street",
      "addr_housenumber": "14",
      "value": 109.13990472120426
    },
    {
      "id": 234624,
      "geometry": "POINT (-81.516466 41.074148)",
      "poi_name": "Steak 'n Shake",
      "osm_id": 4630819210,
      "amenity": "fast_food",
      "cuisine": "burger",
      "takeaway": "yes",
      "addr_state": "OH",
      "addr_city": "Akron",
      "addr_postcode": "44325",
      "addr_street": "East Exchange Street",
      "value": 109.13990472120426
    },
    {
      "id": 235653,
      "geometry": "POINT (-81.474665 41.12004)",
      "poi_name": "Panera Bread",
      "osm_id": 5762309453,
      "amenity": "fast_food",
      "cuisine": "sandwich;bakery",
      "takeaway": "yes",
      "addr_state": "OH",
      "addr_city": "Cuyahoga Falls",
      "addr_postcode": "44221",
      "addr_street": "Howe Avenue",
      "addr_housenumber": "689",
      "value": 109.13990472120426
    },
    {
      "id": 235758,
      "geometry": "POINT (-81.543433 41.092429)",
      "poi_name": "Portage Path Broaster and Mini Mart",
      "osm_id": 5765955225,
      "amenity": "fast_food",
      "cuisine": "chicken",
      "operator": "Portage Path Broaster",
      "addr_state": "OH",
      "addr_city": "Akron",
      "addr_postcode": "44302",
      "addr_street": "South Portage Path",
      "addr_housenumber": "183",
      "value": 109.13990472120426
    },
    {
      "id": 235760,
      "geometry": "POINT (-81.567433 41.084189)",
      "poi_name": "Little Caesars",
      "osm_id": 5766083263,
      "amenity": "fast_food",
      "cuisine": "pizza",
      "takeaway": "only",
      "drive_through": "yes",
      "addr_state": "OH",
      "addr_city": "Akron",
      "addr_postcode": "44320",
      "addr_street": "Copley Road",
      "addr_housenumber": "1260",
      "value": 109.13990472120426
    },
    {
      "id": 236923,
      "geometry": "POINT (-80.585176 40.671549)",
      "poi_name": "Subway",
      "osm_id": 5811572996,
      "amenity": "fast_food",
      "cuisine": "sandwich",
      "website": "https://subway.com",
      "phone": "+13303851600",
      "takeaway": "yes",
      "delivery": "no",
      "addr_state": "OH",
      "addr_city": "Calcutta",
      "addr_postcode": "43920",
      "addr_street": "SR 170",
      "addr_housenumber": "15937",
      "value": 109.13990472120426
    },
    {
      "id": 239655,
      "geometry": "POINT (-81.437692 41.100451)",
      "poi_name": "Subway",
      "osm_id": 5932948285,
      "amenity": "fast_food",
      "cuisine": "sandwich",
      "takeaway": "yes",
      "drive_through": "no",
      "addr_state": "OH",
      "addr_city": "Tallmadge",
      "addr_postcode": "44278",
      "addr_street": "Erie Road",
      "addr_housenumber": "35",
      "value": 109.13990472120426
    },
    {
      "id": 240905,
      "geometry": "POINT (-81.785922 41.379225)",
      "poi_name": "Mr. Hero",
      "osm_id": 5998515136,
      "amenity": "fast_food",
      "cuisine": "sandwich",
      "addr_state": "OH",
      "addr_city": "Middleburg Heights",
      "addr_postcode": "44130",
      "addr_street": "Pearl Road",
      "addr_housenumber": "6833",
      "value": 109.13990472120426
    }
  ],
  "answer_type": "loc",
  "question_entities": {
    "[2]": {
      "distance": 160000,
      "text": "160 kilometers"
    },
    "[3]": {
      "main_category": "tourism",
      "sub_category": "hotel",
      "display_name": "Country Inn & Suites, Elyria, OH",
      "geo_wkt": "POINT (-82.118609 41.401075)",
      "poi": {
        "id": 10770,
        "geometry": "POINT (-82.118609 41.401075)",
        "poi_name": "Country Inn & Suites",
        "osm_id": 8032293366,
        "tourism": "hotel",
        "website": "https://www.radissonhotels.com/en-us/hotels/country-inn-elyria-oh",
        "phone": "+1-440-324-0099",
        "addr_state": "OH",
        "addr_city": "Elyria",
        "addr_postcode": "44035",
        "addr_street": "Griswold Road",
        "addr_housenumber": "645"
      }
    },
    "[4]": {
      "main_category": "tourism",
      "sub_category": "theme park",
      "display_name": "Go Ape Treetop Adventure Course, Strongsville, OH",
      "geo_wkt": "POINT (-81.818381 41.322133)",
      "poi": {
        "id": 14029,
        "geometry": "POINT (-81.818381 41.322133)",
        "poi_name": "Go Ape Treetop Adventure Course",
        "osm_id": 4214519779,
        "tourism": "theme_park",
        "operator": "Go Ape",
        "website": "https://goape.com/zip-line/mill-stream-run-reservation",
        "addr_state": "OH",
        "addr_city": "Strongsville",
        "addr_postcode": "44136",
        "addr_street": "Valley Parkway",
        "addr_housenumber": "16200"
      }
    },
    "[1]": {
      "main_category": "amenity",
      "sub_category": "fast_food"
    }
  },
  "id": 1262,
  "type": "range:towards+loc"
}