{
  "question": "Could you track down a seafood restaurant that is conveniently situated within 20 kilometers from LEGOLAND Discovery Center Dallas/Fort Worth, Grapevine, TX?",
  "sql": "SELECT * FROM pois\nWHERE ST_DWithin(pois.geometry, ST_GeomFromText('POINT (-97.043468 32.966617)',4326)::geography, 20000)\nAND amenity = 'restaurant'\nAND cuisine ILIKE '%Seafood%';\n",
  "answers": [
    {
      "id": 206250,
      "geometry": "POINT (-97.131895 32.943194)",
      "poi_name": "Rockfish Seafood Grill",
      "osm_id": 7202281631,
      "amenity": "restaurant",
      "cuisine": "seafood"
    },
    {
      "id": 56656,
      "geometry": "POINT (-96.991388 32.846824)",
      "poi_name": "The Catch",
      "osm_id": 10245599514,
      "amenity": "restaurant",
      "cuisine": "seafood"
    },
    {
      "id": 56675,
      "geometry": "POINT (-96.956357 32.912806)",
      "poi_name": "Fish City Grill",
      "osm_id": 10245678414,
      "amenity": "restaurant",
      "cuisine": "seafood",
      "addr_state": "TX",
      "addr_city": "Irving"
    },
    {
      "id": 144019,
      "geometry": "POINT (-97.011786 33.045245)",
      "poi_name": "The Catch",
      "osm_id": 6359290723,
      "amenity": "restaurant",
      "cuisine": "seafood",
      "wheelchair": "yes",
      "opening_hours": "Mo-Th, Su 11:00-21:00; Fr, Sa 11:00-22:00",
      "website": "https://www.thecatchseafood.com/",
      "phone": "+1 214-222-4711",
      "takeaway": "yes",
      "toilets": "yes",
      "addr_street": "West Main Street",
      "addr_housenumber": "724"
    },
    {
      "id": 182060,
      "geometry": "POINT (-96.993788 33.013103)",
      "poi_name": "Camele\u00f3n Seafood  Restaurant",
      "osm_id": 10876504845,
      "amenity": "restaurant",
      "cuisine": "seafood",
      "opening_hours": "Mo-Th,Su 10:00-20:00; Fr-Sa 10:00-21:00; PH closed",
      "shop": "seafood",
      "takeaway": "yes",
      "toilets": "yes"
    },
    {
      "id": 121486,
      "geometry": "POINT (-96.966959 33.002909)",
      "poi_name": "Red Lobster",
      "osm_id": 6764030288,
      "amenity": "restaurant",
      "cuisine": "seafood",
      "opening_hours": "Mo-Th, Su 11:00-22:00; Fr, Sa 11:00-23:00",
      "website": "https://www.redlobster.com/locations/list/tx/lewisville/2497-s-stemmons-freeway/",
      "phone": "+1-972-315-6271",
      "addr_street": "South Stemmons Fairway",
      "addr_housenumber": "2497"
    },
    {
      "id": 234781,
      "geometry": "POINT (-97.070181 33.022213)",
      "poi_name": "Fish City Grill",
      "osm_id": 5736416932,
      "amenity": "restaurant",
      "cuisine": "seafood",
      "wheelchair": "yes",
      "opening_hours": "Mo-Th 11:00-21:30; Fr-Sa 11:00-22:00; Su 11:00-21:00",
      "website": "https://fishcitygrill.com/",
      "phone": "+1-972-899-1630",
      "takeaway": "yes",
      "addr_state": "TX",
      "addr_city": "Flower Mound",
      "addr_postcode": "75022",
      "addr_street": "Long Prairie Road",
      "addr_housenumber": "2628"
    },
    {
      "id": 221152,
      "geometry": "POINT (-97.019974 33.044107)",
      "poi_name": "Lagos Island Meat & Seafood market",
      "osm_id": 10968248959,
      "amenity": "restaurant",
      "cuisine": "seafood",
      "wheelchair": "yes",
      "opening_hours": "Mo-Fr 10:00-20:30; Sa 09:00-20:30; Su 13:00-18:00",
      "internet_access": "no"
    },
    {
      "id": 238555,
      "geometry": "POINT (-97.044752 32.898836)",
      "poi_name": "Cool River Cafe",
      "osm_id": 5883086247,
      "amenity": "restaurant",
      "cuisine": "seafood;steak_house",
      "opening_hours": "Mo-Su 06:00-21:00",
      "website": "https://www.coolrivercafe.com/?locId=cool-river-14",
      "phone": "+1-972-973-4268",
      "takeaway": "yes",
      "outdoor_seating": "no",
      "delivery": "no",
      "addr_state": "TX",
      "addr_city": "DFW Airport",
      "addr_postcode": "75261",
      "addr_street": "East Airfield Drive",
      "addr_housenumber": "3200"
    },
    {
      "id": 242484,
      "geometry": "POINT (-97.228211 33.000132)",
      "poi_name": "Churchill's Fish & Chips",
      "osm_id": 7573419085,
      "amenity": "restaurant",
      "cuisine": "seafood;british"
    }
  ],
  "answer_type": "name",
  "question_entities": {
    "[1]": {
      "main_category": "amenity",
      "sub_category": "restaurant",
      "poi_filter_desc": "seafood restaurant",
      "poi_filter_sql": "cuisine ILIKE '%Seafood%'"
    },
    "[2]": {
      "distance": 20000,
      "text": "20 kilometers"
    },
    "[3]": {
      "main_category": "tourism",
      "sub_category": "theme park",
      "display_name": "LEGOLAND Discovery Center Dallas/Fort Worth, Grapevine, TX",
      "geo_wkt": "POINT (-97.043468 32.966617)",
      "poi": {
        "id": 9989,
        "geometry": "POINT (-97.043468 32.966617)",
        "poi_name": "LEGOLAND Discovery Center Dallas/Fort Worth",
        "osm_id": 9095109739,
        "tourism": "theme_park",
        "wheelchair": "limited",
        "operator": "Merlin Entertainments",
        "website": "https://www.legolanddiscoverycenter.com/dallas-fw/",
        "phone": "(469) 444-3050",
        "wikidata": "Q20712562",
        "addr_state": "TX",
        "addr_city": "Grapevine",
        "addr_postcode": "76051",
        "addr_street": "Grapevine Mills Pkwy",
        "addr_housenumber": "3000"
      }
    }
  },
  "id": 590,
  "type": "range:non_spat_filter+name"
}