{
  "question": "Would you be able to find me an indian restaurant located within 10 kilometers from Ferry Street Farm, New Haven, CT?",
  "sql": "SELECT * FROM pois\nWHERE ST_DWithin(pois.geometry, ST_GeomFromText('POINT (-72.89683 41.31639)',4326)::geography, 10000)\nAND amenity = 'restaurant'\nAND cuisine ILIKE '%indian%';\n",
  "answers": [
    {
      "id": 32754,
      "geometry": "POINT (-72.933259 41.31265)",
      "poi_name": "Pataka",
      "osm_id": 2637704331,
      "amenity": "restaurant",
      "cuisine": "indian"
    },
    {
      "id": 35386,
      "geometry": "POINT (-72.930715 41.312009)",
      "poi_name": "Sherkaan",
      "osm_id": 2719765603,
      "amenity": "restaurant",
      "cuisine": "indian",
      "addr_state": "CT",
      "addr_city": "New Haven",
      "addr_postcode": "06511",
      "addr_street": "Broadway",
      "addr_housenumber": "65"
    },
    {
      "id": 39326,
      "geometry": "POINT (-72.925458 41.30388)",
      "poi_name": "Lazeez",
      "osm_id": 2917385598,
      "amenity": "restaurant",
      "cuisine": "indian"
    },
    {
      "id": 45551,
      "geometry": "POINT (-72.937629 41.306854)",
      "poi_name": "Tikkaway",
      "osm_id": 3216125931,
      "amenity": "restaurant",
      "cuisine": "indian",
      "addr_state": "CT",
      "addr_city": "New Haven",
      "addr_postcode": "06519",
      "addr_street": "Howe Street",
      "addr_housenumber": "2"
    },
    {
      "id": 173502,
      "geometry": "POINT (-72.924025 41.30566)",
      "poi_name": "Tikkaway",
      "osm_id": 2441442797,
      "amenity": "restaurant",
      "cuisine": "indian",
      "opening_hours": "Mo-Fr 11:30-22:00; Sa,Su 12:00-20:00",
      "website": "https://www.tikkaway.com/",
      "takeaway": "yes",
      "addr_state": "CT",
      "addr_city": "New Haven",
      "addr_postcode": "06510",
      "addr_street": "Orange Street",
      "addr_housenumber": "135"
    },
    {
      "id": 93901,
      "geometry": "POINT (-72.935387 41.30915)",
      "poi_name": "Tandoor",
      "osm_id": 2191965699,
      "amenity": "restaurant",
      "cuisine": "indian",
      "addr_state": "CT",
      "addr_city": "New Haven",
      "addr_postcode": "06511",
      "addr_street": "Chapel Street",
      "addr_housenumber": "1226"
    },
    {
      "id": 93903,
      "geometry": "POINT (-72.935135 41.309594)",
      "poi_name": "House of Naan",
      "osm_id": 2191968198,
      "amenity": "restaurant",
      "cuisine": "indian",
      "opening_hours": "Mo-Th, Su 11:30-15:00, 16:30-00:00; Fr, Sa 11:30-15:00, 16:30-01:00"
    },
    {
      "id": 152317,
      "geometry": "POINT (-72.997021 41.271743)",
      "poi_name": "Coromandel",
      "osm_id": 4139026696,
      "amenity": "restaurant",
      "cuisine": "indian"
    },
    {
      "id": 152321,
      "geometry": "POINT (-72.99435 41.272914)",
      "poi_name": "Star Of India",
      "osm_id": 4139127599,
      "amenity": "restaurant",
      "cuisine": "indian",
      "addr_state": "CT",
      "addr_city": "Milford",
      "addr_postcode": "06460",
      "addr_street": "Boston Post Road",
      "addr_housenumber": "157"
    },
    {
      "id": 172380,
      "geometry": "POINT (-72.921105 41.310015)",
      "poi_name": "Sitar",
      "osm_id": 2400994291,
      "amenity": "restaurant",
      "cuisine": "indian"
    },
    {
      "id": 109876,
      "geometry": "POINT (-72.922424 41.363155)",
      "poi_name": "Tangra Biryani Point",
      "osm_id": 3677044107,
      "amenity": "restaurant",
      "cuisine": "indian"
    },
    {
      "id": 174189,
      "geometry": "POINT (-72.932446 41.307614)",
      "poi_name": "Zaroka",
      "osm_id": 2469480130,
      "amenity": "restaurant",
      "cuisine": "indian"
    }
  ],
  "answer_type": "name",
  "question_entities": {
    "[1]": {
      "main_category": "amenity",
      "sub_category": "restaurant",
      "poi_filter_desc": "indian restaurant",
      "poi_filter_sql": "cuisine ILIKE '%indian%'"
    },
    "[2]": {
      "distance": 10000,
      "text": "10 kilometers"
    },
    "[3]": {
      "main_category": "leisure",
      "sub_category": "garden",
      "display_name": "Ferry Street Farm, New Haven, CT",
      "geo_wkt": "POINT (-72.89683 41.31639)",
      "poi": {
        "id": 246385,
        "geometry": "POINT (-72.89683 41.31639)",
        "poi_name": "Ferry Street Farm",
        "osm_id": 11413367607,
        "leisure": "garden",
        "operator": "Gather New Haven",
        "website": "http://www.gathernewhaven.org/",
        "addr_state": "CT",
        "addr_city": "New Haven",
        "addr_postcode": "06513",
        "addr_street": "Ferry Street",
        "addr_housenumber": "613"
      }
    }
  },
  "id": 583,
  "type": "range:non_spat_filter+name"
}