{
  "question": "Within a radius of 40 kilometers, what caf\u00e9 can I find located in the southeast of Canopy by Hilton Washington DC Bethesda North, North Bethesda, MD?",
  "sql": "\nWITH origin AS  (SELECT ST_GeomFromText('POINT (-77.116876 39.050782)',4326)::geography AS geometry)\nSELECT * FROM pois, origin\nWHERE ST_DWithin(pois.geometry, ST_GeomFromText('POINT (-77.116876 39.050782)',4326)::geography, 40000)\nAND amenity = 'cafe'\nAND degrees(ST_Azimuth(origin.geometry, pois.geometry)) BETWEEN 112.5 AND 157.5;\n",
  "answers": [
    {
      "id": 28531,
      "geometry": "POINT (-77.116876 39.050782)",
      "poi_name": "Dos Gringos",
      "osm_id": 490254398,
      "amenity": "cafe",
      "wheelchair": "no",
      "opening_hours": "Tu,We 07:30-20:00; Fr 07:30-17:00; Sa 09:00-21:00; Su 09:00-16:00",
      "website": "https://www.dosgringosdc.com",
      "phone": "+1 202-462-1159",
      "outdoor_seating": "yes",
      "addr_state": "DC",
      "addr_city": "Washington",
      "addr_postcode": "20009",
      "addr_street": "Mount Pleasant Street Northwest",
      "addr_housenumber": "3116"
    },
    {
      "id": 27955,
      "geometry": "POINT (-77.116876 39.050782)",
      "poi_name": "Starbucks",
      "osm_id": 460237284,
      "amenity": "cafe",
      "cuisine": "coffee_shop",
      "takeaway": "yes",
      "official_name": "Starbucks Coffee",
      "addr_city": "Silver Spring",
      "addr_postcode": "20910",
      "addr_street": "Colesville Road",
      "addr_housenumber": "8399"
    },
    {
      "id": 27958,
      "geometry": "POINT (-77.116876 39.050782)",
      "poi_name": "Peet's Coffee",
      "osm_id": 460292999,
      "amenity": "cafe",
      "cuisine": "coffee_shop",
      "opening_hours": "Mo-Th 06:00-18:00; Fr 06:00-19:00; Sa 07:00-19:00; Su 07:00-18:00",
      "takeaway": "yes",
      "outdoor_seating": "yes",
      "addr_city": "Silver Spring",
      "addr_postcode": "20910",
      "addr_street": "East West Highway",
      "addr_housenumber": "1316"
    },
    {
      "id": 27960,
      "geometry": "POINT (-77.116876 39.050782)",
      "poi_name": "Atrium Cafe",
      "osm_id": 460293011,
      "amenity": "cafe",
      "addr_city": "Silver Spring",
      "addr_postcode": "20910",
      "addr_street": "East West Highway",
      "addr_housenumber": "1317"
    },
    {
      "id": 28486,
      "geometry": "POINT (-77.116876 39.050782)",
      "poi_name": "Gregorys Coffee",
      "osm_id": 486275962,
      "amenity": "cafe",
      "cuisine": "coffee_shop",
      "wheelchair": "yes",
      "outdoor_seating": "yes"
    },
    {
      "id": 28494,
      "geometry": "POINT (-77.116876 39.050782)",
      "poi_name": "Courtyard Cafe",
      "osm_id": 486527130,
      "amenity": "cafe",
      "opening_hours": "11:30-17:30",
      "website": "https://npg.si.edu/visit/courtyard-cafe",
      "internet_access": "wlan",
      "outdoor_seating": "yes"
    },
    {
      "id": 158925,
      "geometry": "POINT (-77.116876 39.050782)",
      "poi_name": "Sheba Coffee",
      "osm_id": 4770094538,
      "amenity": "cafe"
    },
    {
      "id": 36623,
      "geometry": "POINT (-77.116876 39.050782)",
      "poi_name": "Saints Paradise Cafeteria",
      "osm_id": 2776241340,
      "amenity": "cafe",
      "cuisine": "regional",
      "addr_street": "M Street Northwest"
    },
    {
      "id": 32530,
      "geometry": "POINT (-77.116876 39.050782)",
      "poi_name": "Cascade Caf\u00e9",
      "osm_id": 2629039434,
      "amenity": "cafe",
      "opening_hours": "Mo-Su 11:00-15:00",
      "website": "https://www.nga.gov/visit/food-drink/cascade-cafe-menu.html"
    },
    {
      "id": 39150,
      "geometry": "POINT (-77.116876 39.050782)",
      "poi_name": "Starbucks",
      "osm_id": 2906355785,
      "amenity": "cafe",
      "cuisine": "coffee_shop",
      "takeaway": "yes",
      "official_name": "Starbucks Coffee"
    },
    {
      "id": 36814,
      "geometry": "POINT (-77.116876 39.050782)",
      "poi_name": "La Colombe Coffee Roasters",
      "osm_id": 2786062685,
      "amenity": "cafe",
      "cuisine": "coffee_shop",
      "wheelchair": "yes",
      "website": "https://www.lacolombe.com/",
      "internet_access": "no",
      "phone": "+1 800-563-0860",
      "takeaway": "yes",
      "outdoor_seating": "yes",
      "addr_state": "DC",
      "addr_city": "Washington",
      "addr_postcode": "20001",
      "addr_street": "N Street Northwest",
      "addr_housenumber": "924"
    },
    {
      "id": 45492,
      "geometry": "POINT (-77.116876 39.050782)",
      "poi_name": "NOMA Deli",
      "osm_id": 3212487616,
      "amenity": "cafe",
      "cuisine": "italian",
      "addr_state": "DC",
      "addr_city": "Washington",
      "addr_postcode": "20002",
      "addr_street": "2nd Street Northeast",
      "addr_housenumber": "1300"
    },
    {
      "id": 40651,
      "geometry": "POINT (-77.116876 39.050782)",
      "poi_name": "WAPA cafe",
      "osm_id": 2975863789,
      "amenity": "cafe",
      "opening_hours": "Mo-Sa 08:00-20:00; Su 09:00-24:00; Mo 00:00-04:00",
      "website": "www.wapacafe.com",
      "internet_access": "yes",
      "phone": "+1 202-291-2224",
      "addr_state": "DC",
      "addr_city": "Washington",
      "addr_postcode": "20011",
      "addr_street": "Georgia Avenue Northwest",
      "addr_housenumber": "6230"
    },
    {
      "id": 40652,
      "geometry": "POINT (-77.116876 39.050782)",
      "poi_name": "Starbucks",
      "osm_id": 2975868991,
      "amenity": "cafe",
      "cuisine": "coffee_shop",
      "opening_hours": "Mo-Fr 05:30-17:30; Sa,Su 07:00-15:30",
      "internet_access": "yes",
      "takeaway": "yes",
      "official_name": "Starbucks Coffee",
      "outdoor_seating": "yes",
      "addr_state": "DC",
      "addr_city": "Washington",
      "addr_postcode": "20001",
      "addr_street": "Georgia Avenue Northwest",
      "addr_housenumber": "2225"
    },
    {
      "id": 40996,
      "geometry": "POINT (-77.116876 39.050782)",
      "poi_name": "Takoma Coffee",
      "osm_id": 2989830133,
      "amenity": "cafe",
      "addr_state": "DC",
      "addr_city": "Washington",
      "addr_postcode": "20012",
      "addr_street": "Juniper Street Northwest",
      "addr_housenumber": "7711"
    },
    {
      "id": 41160,
      "geometry": "POINT (-77.116876 39.050782)",
      "poi_name": "Amen Coffee and Juice",
      "osm_id": 3001374833,
      "amenity": "cafe"
    },
    {
      "id": 39426,
      "geometry": "POINT (-77.116876 39.050782)",
      "poi_name": "Starbucks",
      "osm_id": 2921237508,
      "amenity": "cafe",
      "cuisine": "coffee_shop",
      "takeaway": "yes",
      "official_name": "Starbucks Coffee"
    },
    {
      "id": 39864,
      "geometry": "POINT (-77.116876 39.050782)",
      "poi_name": "City Place Cafe",
      "osm_id": 2944631896,
      "amenity": "cafe"
    },
    {
      "id": 40923,
      "geometry": "POINT (-77.116876 39.050782)",
      "poi_name": "Harrar Coffee and Roastery",
      "osm_id": 2986709133,
      "amenity": "cafe",
      "cuisine": "coffee_shop",
      "opening_hours": "Mo-Fr 07:00-14:00; Sa 07:00-15:00; Su 08:00-15:00",
      "website": "https://shop.harrarcoffeeroastery.com",
      "internet_access": "yes",
      "addr_state": "DC",
      "addr_city": "Washington",
      "addr_postcode": "20001",
      "addr_street": "Harvard Street Northwest",
      "addr_housenumber": "2904"
    },
    {
      "id": 41224,
      "geometry": "POINT (-77.116876 39.050782)",
      "poi_name": "Starbucks",
      "osm_id": 3007506242,
      "amenity": "cafe",
      "cuisine": "coffee_shop",
      "takeaway": "yes",
      "official_name": "Starbucks Coffee"
    },
    {
      "id": 41234,
      "geometry": "POINT (-77.116876 39.050782)",
      "poi_name": "Blue Bottle Coffee",
      "osm_id": 3007954883,
      "amenity": "cafe",
      "cuisine": "coffee_shop",
      "takeaway": "yes",
      "addr_state": "DC",
      "addr_city": "Washington",
      "addr_postcode": "20002",
      "addr_street": "4th Street Northeast",
      "addr_housenumber": "1250"
    },
    {
      "id": 41390,
      "geometry": "POINT (-77.116876 39.050782)",
      "poi_name": "Roots and Blooms Flower Shop & Cafe",
      "osm_id": 3012311757,
      "amenity": "cafe",
      "website": "https://www.therootsandblooms.com/",
      "shop": "florist",
      "addr_postcode": "20011",
      "addr_street": "Kennedy Street Northwest",
      "addr_housenumber": "703"
    },
    {
      "id": 42145,
      "geometry": "POINT (-77.116876 39.050782)",
      "poi_name": "Starbucks",
      "osm_id": 3047744924,
      "amenity": "cafe",
      "cuisine": "coffee_shop",
      "takeaway": "yes",
      "official_name": "Starbucks Coffee"
    },
    {
      "id": 45525,
      "geometry": "POINT (-77.116876 39.050782)",
      "poi_name": "Slipstream",
      "osm_id": 3214777199,
      "amenity": "cafe",
      "opening_hours": "Mo-Th 07:00-14:00; Fr 07:00-17:00; Sa-Su 08:00-17:00",
      "website": "http://slipstreamdc.com/",
      "internet_access": "yes",
      "addr_state": "DC",
      "addr_city": "Washington",
      "addr_postcode": "20005",
      "addr_street": "14th Street Northwest",
      "addr_housenumber": "1333"
    },
    {
      "id": 45858,
      "geometry": "POINT (-77.116876 39.050782)",
      "poi_name": "Blind Dog",
      "osm_id": 3233548956,
      "amenity": "cafe",
      "website": "http://blinddogcafe.com/",
      "internet_access": "yes",
      "addr_state": "DC",
      "addr_city": "Washington",
      "addr_postcode": "20001",
      "addr_street": "Florida Avenue Northwest",
      "addr_housenumber": "944"
    },
    {
      "id": 53759,
      "geometry": "POINT (-77.116876 39.050782)",
      "poi_name": "Dolcezza",
      "osm_id": 10093744706,
      "amenity": "cafe",
      "cuisine": "ice_cream",
      "wheelchair": "yes",
      "opening_hours": "Mo-Th 07:00-23:00; Fr 07:00-24:00; Sa 08:00-24:00; Su 08:00-23:00",
      "website": "https://dolcezzagelato.com/",
      "internet_access": "wlan",
      "phone": "+1 202 733-2879",
      "addr_state": "DC",
      "addr_city": "Washington",
      "addr_postcode": "20001",
      "addr_street": "Palmer Alley Northwest",
      "addr_housenumber": "904"
    },
    {
      "id": 47718,
      "geometry": "POINT (-77.116876 39.050782)",
      "poi_name": "Olympia Cafe",
      "osm_id": 3344441604,
      "amenity": "cafe",
      "opening_hours": "Mo-Fr 06:00-18:00; Sa 07:00-17:00; Su 08:00-15:00",
      "addr_street": "Brookville Road",
      "addr_housenumber": "7021"
    },
    {
      "id": 47882,
      "geometry": "POINT (-77.116876 39.050782)",
      "poi_name": "Starbucks",
      "osm_id": 3354796433,
      "amenity": "cafe",
      "cuisine": "coffee_shop",
      "opening_hours": "Mo-Fr 05:00-22:00; Sa 05:30-22:00; Su 05:30-20:00",
      "website": "https://www.starbucks.com/store-locator/store/11458/1429-p-street-1425-p-street-nw-washington-dc-200051957-us",
      "internet_access": "yes",
      "phone": "+1 202-462-9717",
      "takeaway": "yes",
      "official_name": "Starbucks Coffee",
      "addr_state": "DC",
      "addr_city": "Washington",
      "addr_postcode": "20005",
      "addr_street": "P Street Northwest",
      "addr_housenumber": "1425"
    },
    {
      "id": 50583,
      "geometry": "POINT (-77.116876 39.050782)",
      "poi_name": "Kefa Cafe",
      "osm_id": 3492569211,
      "amenity": "cafe"
    },
    {
      "id": 51139,
      "geometry": "POINT (-77.116876 39.050782)",
      "poi_name": "Starbucks",
      "osm_id": 513423917,
      "amenity": "cafe",
      "cuisine": "coffee_shop",
      "wheelchair": "yes",
      "takeaway": "yes",
      "official_name": "Starbucks Coffee"
    },
    {
      "id": 52485,
      "geometry": "POINT (-77.116876 39.050782)",
      "poi_name": "Starbucks",
      "osm_id": 585335296,
      "amenity": "cafe",
      "cuisine": "coffee_shop",
      "wheelchair": "yes",
      "opening_hours": "Mo-Fr 05:30-19:00; Sa-Su 06:30-18:00",
      "internet_access": "wlan",
      "phone": "+1 202-289-7451",
      "takeaway": "yes",
      "drive_through": "no",
      "official_name": "Starbucks Coffee",
      "outdoor_seating": "yes",
      "addr_street": "New York Avenue Northwest",
      "addr_housenumber": "901"
    },
    {
      "id": 52487,
      "geometry": "POINT (-77.116876 39.050782)",
      "poi_name": "Starbucks Reserve",
      "osm_id": 585335301,
      "amenity": "cafe",
      "cuisine": "coffee_shop",
      "opening_hours": "Mo-Su 06:00-20:00",
      "internet_access": "wlan",
      "phone": "+1 202-805-4814",
      "takeaway": "yes",
      "addr_street": "H Street Northwest",
      "addr_housenumber": "1000"
    },
    {
      "id": 52488,
      "geometry": "POINT (-77.116876 39.050782)",
      "poi_name": "Starbucks",
      "osm_id": 585335303,
      "amenity": "cafe",
      "cuisine": "coffee_shop",
      "takeaway": "yes",
      "official_name": "Starbucks Coffee"
    },
    {
      "id": 52489,
      "geometry": "POINT (-77.116876 39.050782)",
      "poi_name": "Starbucks",
      "osm_id": 585335304,
      "amenity": "cafe",
      "cuisine": "coffee_shop",
      "opening_hours": "Mo-Th 04:30-19:00; Sa 05:30-20:00; Fr 04:30-20:00; Su 05:30-18:00",
      "internet_access": "wlan",
      "phone": "+1 202-868-7726",
      "takeaway": "yes",
      "official_name": "Starbucks Coffee",
      "addr_postcode": "20001",
      "addr_street": "9th Street Northwest",
      "addr_housenumber": "999"
    },
    {
      "id": 52490,
      "geometry": "POINT (-77.116876 39.050782)",
      "poi_name": "Starbucks",
      "osm_id": 585335311,
      "amenity": "cafe",
      "cuisine": "coffee_shop",
      "phone": "+1 202-824-6120",
      "takeaway": "yes",
      "official_name": "Starbucks Coffee",
      "addr_street": "12th Street Northwest",
      "addr_housenumber": "775"
    },
    {
      "id": 55126,
      "geometry": "POINT (-77.116876 39.050782)",
      "poi_name": "M\u00f6ge Tee",
      "osm_id": 10172644051,
      "amenity": "cafe",
      "cuisine": "tea",
      "website": "https://www.mogeteeusa.com/"
    },
    {
      "id": 56346,
      "geometry": "POINT (-77.116876 39.050782)",
      "poi_name": "Sweet Lemon Cafe",
      "osm_id": 10233018517,
      "amenity": "cafe",
      "opening_hours": "Mo-Fr 07:00-15:00; Sa 08:30-15:00; Su off",
      "takeaway": "yes",
      "outdoor_seating": "yes"
    },
    {
      "id": 59732,
      "geometry": "POINT (-77.116876 39.050782)",
      "poi_name": "Firehook Bakery",
      "osm_id": 5440076131,
      "amenity": "cafe",
      "cuisine": "coffee_shop"
    },
    {
      "id": 56899,
      "geometry": "POINT (-77.116876 39.050782)",
      "poi_name": "Caf\u00e9 Riggs",
      "osm_id": 10251747187,
      "amenity": "cafe",
      "internet_access": "yes",
      "outdoor_seating": "yes"
    },
    {
      "id": 61176,
      "geometry": "POINT (-77.116876 39.050782)",
      "poi_name": "Compass Coffee",
      "osm_id": 5501816623,
      "amenity": "cafe",
      "opening_hours": "Mo-Su 06:00-21:00",
      "website": "https://compasscoffee.com/",
      "internet_access": "wlan",
      "phone": "+1 202-838-3139",
      "addr_postcode": "20004",
      "addr_street": "F Street Northwest",
      "addr_housenumber": "650"
    },
    {
      "id": 60553,
      "geometry": "POINT (-77.116876 39.050782)",
      "poi_name": "Compass Coffee",
      "osm_id": 5470146958,
      "amenity": "cafe",
      "cuisine": "coffee_shop",
      "internet_access": "wlan",
      "addr_street": "I Street Northwest"
    },
    {
      "id": 61204,
      "geometry": "POINT (-77.116876 39.050782)",
      "poi_name": "The Wydown",
      "osm_id": 5503443221,
      "amenity": "cafe",
      "opening_hours": "Su-Mo 07:00-18:00; Tu-Sa 07:00-22:00",
      "website": "https://thewydown.com/",
      "internet_access": "wlan",
      "phone": "+1 202-846-7986",
      "addr_postcode": "20002",
      "addr_street": "H Street Northeast",
      "addr_housenumber": "600"
    },
    {
      "id": 61263,
      "geometry": "POINT (-77.116876 39.050782)",
      "poi_name": "Maison Kayser",
      "osm_id": 5509329657,
      "amenity": "cafe",
      "addr_street": "F Street Northwest",
      "addr_housenumber": "1345"
    },
    {
      "id": 69725,
      "geometry": "POINT (-77.116876 39.050782)",
      "poi_name": "Officina Cafe",
      "osm_id": 11329577820,
      "amenity": "cafe",
      "outdoor_seating": "yes"
    },
    {
      "id": 66905,
      "geometry": "POINT (-77.116876 39.050782)",
      "poi_name": "Gong Cha",
      "osm_id": 11216057090,
      "amenity": "cafe",
      "cuisine": "bubble_tea",
      "website": "https://gongchausa.com",
      "takeaway": "yes",
      "addr_street": "New York Avenue Northwest",
      "addr_housenumber": "1399"
    },
    {
      "id": 66907,
      "geometry": "POINT (-77.116876 39.050782)",
      "poi_name": "Bluestone Lane Coffee",
      "osm_id": 11216187328,
      "amenity": "cafe",
      "cuisine": "coffee_shop"
    },
    {
      "id": 66908,
      "geometry": "POINT (-77.116876 39.050782)",
      "poi_name": "Coffee Republic",
      "osm_id": 11216187330,
      "amenity": "cafe",
      "cuisine": "coffee_shop",
      "takeaway": "yes"
    },
    {
      "id": 67177,
      "geometry": "POINT (-77.116876 39.050782)",
      "poi_name": "Zeke's Coffee",
      "osm_id": 11226824372,
      "amenity": "cafe",
      "cuisine": "coffee_shop",
      "opening_hours": "Mo-Fr 06:30-16:00; Sa-Su 07:00-16:00",
      "website": "https://www.zekescoffeedc.com/",
      "phone": "+1-202-629-2379",
      "outdoor_seating": "yes",
      "addr_state": "DC",
      "addr_city": "Washington",
      "addr_street": "14th Street Northwest",
      "addr_housenumber": "4602"
    },
    {
      "id": 69391,
      "geometry": "POINT (-77.116876 39.050782)",
      "poi_name": "Joe & The Juice",
      "osm_id": 11303550788,
      "amenity": "cafe",
      "cuisine": "coffee_shop",
      "takeaway": "yes",
      "outdoor_seating": "yes",
      "addr_street": "K Street Northwest",
      "addr_housenumber": "400"
    },
    {
      "id": 62329,
      "geometry": "POINT (-77.116876 39.050782)",
      "poi_name": "Starbucks",
      "osm_id": 5564450313,
      "amenity": "cafe",
      "cuisine": "coffee_shop",
      "wheelchair": "yes",
      "opening_hours": "Mo-Fr 05:30-20:00; Sa-Su 07:00-20:00",
      "internet_access": "wlan",
      "phone": "+1 202-823-0131",
      "takeaway": "yes",
      "official_name": "Starbucks Coffee",
      "outdoor_seating": "yes"
    },
    {
      "id": 67020,
      "geometry": "POINT (-77.116876 39.050782)",
      "poi_name": "Compass Coffee",
      "osm_id": 11219211058,
      "amenity": "cafe",
      "cuisine": "coffee_shop",
      "opening_hours": "Mo-Fr 07:00-14:00; Sa-Su 08:00-14:00"
    },
    {
      "id": 68803,
      "geometry": "POINT (-77.116876 39.050782)",
      "poi_name": "Earth Grocery and Cafe",
      "osm_id": 11285104008,
      "amenity": "cafe",
      "opening_hours": "Mo-Fr 08:00-19:30; Sa 08:30-19:30; Su 08:30-17:00",
      "addr_street": "6th Street Northwest",
      "addr_housenumber": "1701"
    },
    {
      "id": 73486,
      "geometry": "POINT (-77.116876 39.050782)",
      "poi_name": "Rue Cafe",
      "osm_id": 9635642240,
      "amenity": "cafe",
      "cuisine": "coffee_shop;sandwich",
      "opening_hours": "Mo-Su 07:00-21:00",
      "website": "https://ruecafe.com/",
      "internet_access": "wlan",
      "outdoor_seating": "no",
      "delivery": "yes",
      "addr_state": "DC",
      "addr_city": "Washington",
      "addr_postcode": "20011",
      "addr_street": "14th Street Northwest",
      "addr_housenumber": "3906"
    },
    {
      "id": 70594,
      "geometry": "POINT (-77.116876 39.050782)",
      "poi_name": "Tony's Breakfast",
      "osm_id": 11367470787,
      "amenity": "cafe",
      "cuisine": "american;breakfast;sandwich",
      "wheelchair": "limited",
      "opening_hours": "Mo-Sa 05:30-19:00; Su 06:00-15:30",
      "website": "http://tonysbreakfast.com/",
      "phone": "+1-202-397-7750",
      "takeaway": "only",
      "outdoor_seating": "no"
    },
    {
      "id": 71915,
      "geometry": "POINT (-77.116876 39.050782)",
      "poi_name": "Baked Joint",
      "osm_id": 11405733193,
      "amenity": "cafe",
      "cuisine": "bakery",
      "wheelchair": "yes",
      "opening_hours": "Mo-Tu 07:30-14:00; We 07:30-18:00; Th-Sa 07:30-20:30; Su 07:30-18:00",
      "website": "https://abakedjoint.com/",
      "phone": "+1 202-408-6985",
      "takeaway": "yes",
      "outdoor_seating": "yes",
      "addr_street": "K Street Northwest",
      "addr_housenumber": "430"
    },
    {
      "id": 78052,
      "geometry": "POINT (-77.116876 39.050782)",
      "poi_name": "Tryst Coffeehouse",
      "osm_id": 737066423,
      "amenity": "cafe",
      "wheelchair": "yes",
      "website": "https://www.trystdc.com/",
      "internet_access": "wlan",
      "outdoor_seating": "yes",
      "addr_street": "18th Street Northwest",
      "addr_housenumber": "2459"
    },
    {
      "id": 74615,
      "geometry": "POINT (-77.116876 39.050782)",
      "poi_name": "Sam's Donut Coffee",
      "osm_id": 9688737259,
      "amenity": "cafe",
      "cuisine": "coffee"
    },
    {
      "id": 77976,
      "geometry": "POINT (-77.116876 39.050782)",
      "poi_name": "Starbucks",
      "osm_id": 734367503,
      "amenity": "cafe",
      "cuisine": "coffee_shop",
      "opening_hours": "Mo-Tu,Fr 05:00-19:00; We-Th off; Sa-Su 07:00-18:00",
      "internet_access": "wlan",
      "takeaway": "yes",
      "official_name": "Starbucks Coffee",
      "outdoor_seating": "no"
    },
    {
      "id": 77977,
      "geometry": "POINT (-77.116876 39.050782)",
      "poi_name": "Cafe Phillips",
      "osm_id": 734403880,
      "amenity": "cafe"
    },
    {
      "id": 77984,
      "geometry": "POINT (-77.116876 39.050782)",
      "poi_name": "Starbucks",
      "osm_id": 734461801,
      "amenity": "cafe",
      "cuisine": "coffee_shop",
      "takeaway": "yes",
      "official_name": "Starbucks Coffee"
    },
    {
      "id": 78151,
      "geometry": "POINT (-77.116876 39.050782)",
      "poi_name": "Starbucks",
      "osm_id": 737848087,
      "amenity": "cafe",
      "cuisine": "coffee_shop",
      "takeaway": "yes",
      "official_name": "Starbucks Coffee"
    },
    {
      "id": 76850,
      "geometry": "POINT (-77.116876 39.050782)",
      "poi_name": "Senbeb Caf\u00e9",
      "osm_id": 9795524383,
      "amenity": "cafe",
      "opening_hours": "Mo-Sa 11:00-18:00; Su 10:00-15:00",
      "outdoor_seating": "no"
    },
    {
      "id": 77954,
      "geometry": "POINT (-77.116876 39.050782)",
      "poi_name": "Starbucks",
      "osm_id": 731372635,
      "amenity": "cafe",
      "cuisine": "coffee_shop",
      "wheelchair": "no",
      "takeaway": "yes",
      "official_name": "Starbucks Coffee",
      "outdoor_seating": "yes"
    },
    {
      "id": 77974,
      "geometry": "POINT (-77.116876 39.050782)",
      "poi_name": "Corner Bakery",
      "osm_id": 734278762,
      "amenity": "cafe",
      "cuisine": "coffee_shop",
      "takeaway": "yes"
    },
    {
      "id": 78096,
      "geometry": "POINT (-77.116876 39.050782)",
      "poi_name": "Le Pain Quotidien",
      "osm_id": 737405121,
      "amenity": "cafe",
      "cuisine": "coffee_shop",
      "takeaway": "yes",
      "addr_state": "DC",
      "addr_city": "Washington",
      "addr_postcode": "20003",
      "addr_street": "Pennsylvania Avenue Southeast",
      "addr_housenumber": "666"
    },
    {
      "id": 78098,
      "geometry": "POINT (-77.116876 39.050782)",
      "poi_name": "Liberty Tree",
      "osm_id": 737405165,
      "amenity": "cafe",
      "cuisine": "fusion",
      "opening_hours": "Mo-Fr 17:00-22:00;Sa-Su 11:00-22:00",
      "addr_street": "H Street Northeast",
      "addr_housenumber": "1016"
    },
    {
      "id": 78105,
      "geometry": "POINT (-77.116876 39.050782)",
      "poi_name": "Cafe Berlin",
      "osm_id": 737405212,
      "amenity": "cafe",
      "addr_street": "Massachusetts Avenue Northeast",
      "addr_housenumber": "322"
    },
    {
      "id": 78106,
      "geometry": "POINT (-77.116876 39.050782)",
      "poi_name": "East St Cafe",
      "osm_id": 737405220,
      "amenity": "cafe",
      "outdoor_seating": "no",
      "addr_street": "Massachusetts Avenue Northeast",
      "addr_housenumber": "50"
    },
    {
      "id": 78110,
      "geometry": "POINT (-77.116876 39.050782)",
      "poi_name": "As You Are",
      "osm_id": 737405238,
      "amenity": "cafe",
      "website": "https://asyouaredc.com/",
      "addr_street": "8th Street Southeast",
      "addr_housenumber": "500"
    },
    {
      "id": 78156,
      "geometry": "POINT (-77.116876 39.050782)",
      "poi_name": "Big Chair Coffee",
      "osm_id": 738001067,
      "amenity": "cafe"
    },
    {
      "id": 78061,
      "geometry": "POINT (-77.116876 39.050782)",
      "poi_name": "Keren Restaurant",
      "osm_id": 737066535,
      "amenity": "cafe",
      "wheelchair": "yes",
      "addr_street": "Florida Avenue Northwest",
      "addr_housenumber": "1780"
    },
    {
      "id": 78168,
      "geometry": "POINT (-77.116876 39.050782)",
      "poi_name": "Tynan Coffee and Tea",
      "osm_id": 738190931,
      "amenity": "cafe",
      "wheelchair": "yes",
      "internet_access": "wlan",
      "drive_through": "no",
      "addr_state": "DC",
      "addr_city": "Washington",
      "addr_postcode": "20010",
      "addr_street": "Irving Street Northwest",
      "addr_housenumber": "1400"
    },
    {
      "id": 78240,
      "geometry": "POINT (-77.116876 39.050782)",
      "poi_name": "Teaism",
      "osm_id": 739150322,
      "amenity": "cafe",
      "cuisine": "sandwich;coffee_shop;bubble_tea",
      "opening_hours": "11:30-20:00",
      "website": "https://www.teaism.com/restaurant-details-40.html",
      "phone": "+1 202-638-6010",
      "outdoor_seating": "no",
      "addr_street": "8th Street Northwest",
      "addr_housenumber": "400"
    },
    {
      "id": 78519,
      "geometry": "POINT (-77.116876 39.050782)",
      "poi_name": "Busboys and Poets",
      "osm_id": 750467842,
      "amenity": "cafe",
      "cuisine": "american",
      "wheelchair": "limited",
      "shop": "books",
      "internet_access": "yes",
      "wikidata": "Q5001291"
    },
    {
      "id": 78335,
      "geometry": "POINT (-77.116876 39.050782)",
      "poi_name": "Sabor Catering & Cafe",
      "osm_id": 739653564,
      "amenity": "cafe",
      "opening_hours": "Mo-Sa 07:30-22:30",
      "addr_state": "DC",
      "addr_city": "Washington",
      "addr_postcode": "20011",
      "addr_street": "Georgia Avenue Northwest",
      "addr_housenumber": "6209"
    },
    {
      "id": 78272,
      "geometry": "POINT (-77.116876 39.050782)",
      "poi_name": "Java House",
      "osm_id": 739339942,
      "amenity": "cafe",
      "addr_street": "Q Street Northwest",
      "addr_housenumber": "1645"
    },
    {
      "id": 78429,
      "geometry": "POINT (-77.116876 39.050782)",
      "poi_name": "B\u00fcna Coffeehouse",
      "osm_id": 744636070,
      "amenity": "cafe",
      "opening_hours": "Mo-Su 07:00-15:00",
      "website": "https://www.bunacoffeehouse.com",
      "internet_access": "wlan",
      "phone": "+1 202-882-2223",
      "outdoor_seating": "yes",
      "addr_state": "DC",
      "addr_city": "Washington",
      "addr_postcode": "20011",
      "addr_street": "Georgia Avenue Northwest",
      "addr_housenumber": "4400"
    },
    {
      "id": 78431,
      "geometry": "POINT (-77.116876 39.050782)",
      "poi_name": "The Roasted Boon",
      "osm_id": 745905454,
      "amenity": "cafe",
      "wheelchair": "yes",
      "opening_hours": "Mo-Su 07:00-19:00",
      "website": "https://roastedboon.com",
      "internet_access": "wlan",
      "phone": "+1 202-555-0179",
      "takeaway": "yes",
      "outdoor_seating": "yes",
      "toilets": "yes",
      "addr_street": "Rhode Island Avenue Northwest",
      "addr_housenumber": "1018"
    },
    {
      "id": 78438,
      "geometry": "POINT (-77.116876 39.050782)",
      "poi_name": "Vie De France",
      "osm_id": 745922223,
      "amenity": "cafe",
      "wheelchair": "yes",
      "addr_street": "Maryland Avenue Southwest",
      "addr_housenumber": "600"
    },
    {
      "id": 78522,
      "geometry": "POINT (-77.116876 39.050782)",
      "poi_name": "Gori Cafe",
      "osm_id": 750467861,
      "amenity": "cafe",
      "addr_street": "V Street Northwest",
      "addr_housenumber": "1119"
    },
    {
      "id": 78552,
      "geometry": "POINT (-77.116876 39.050782)",
      "poi_name": "Compass Coffee",
      "osm_id": 751881400,
      "amenity": "cafe",
      "cuisine": "coffee_shop",
      "opening_hours": "Mo-Fr 06:30-17:00; Sa-Su 08:00-16:00",
      "website": "https://www.compasscoffee.com/",
      "takeaway": "yes",
      "outdoor_seating": "no",
      "addr_city": "Washington",
      "addr_postcode": "20004",
      "addr_street": "11th Street Northwest",
      "addr_housenumber": "435"
    },
    {
      "id": 79072,
      "geometry": "POINT (-77.116876 39.050782)",
      "poi_name": "Sidamo Coffee and Tea",
      "osm_id": 772330048,
      "amenity": "cafe",
      "addr_street": "H Street Northeast",
      "addr_housenumber": "417"
    },
    {
      "id": 79028,
      "geometry": "POINT (-77.116876 39.050782)",
      "poi_name": "Big Bear Cafe",
      "osm_id": 769079444,
      "amenity": "cafe",
      "wheelchair": "no",
      "opening_hours": "Su, Tu 08:00-15:00; We-Sa 08:00-15:00, 17:00-21:00",
      "website": "http://www.bigbearcafe-dc.com/",
      "internet_access": "wlan",
      "phone": "+1-202-643-9222",
      "takeaway": "yes",
      "outdoor_seating": "yes",
      "addr_city": "Washington",
      "addr_postcode": "20001",
      "addr_street": "1st Street Northwest",
      "addr_housenumber": "1700"
    },
    {
      "id": 79036,
      "geometry": "POINT (-77.116876 39.050782)",
      "poi_name": "Soho Cafe & Market",
      "osm_id": 769318418,
      "amenity": "cafe",
      "outdoor_seating": "yes"
    },
    {
      "id": 79113,
      "geometry": "POINT (-77.116876 39.050782)",
      "poi_name": "Bagels & Baguettes",
      "osm_id": 773540258,
      "amenity": "cafe",
      "cuisine": "breakfast;brunch",
      "website": "http://bagelsandbaguetteswashingtondc.com/",
      "addr_state": "DC",
      "addr_city": "Washington",
      "addr_postcode": "20002",
      "addr_street": "Massachusetts Avenue Northeast",
      "addr_housenumber": "236"
    },
    {
      "id": 79313,
      "geometry": "POINT (-77.116876 39.050782)",
      "poi_name": "Starbucks",
      "osm_id": 793933181,
      "amenity": "cafe",
      "cuisine": "coffee_shop",
      "wheelchair": "yes",
      "takeaway": "yes",
      "official_name": "Starbucks Coffee"
    },
    {
      "id": 79314,
      "geometry": "POINT (-77.116876 39.050782)",
      "poi_name": "Cosmo",
      "osm_id": 793933186,
      "amenity": "cafe",
      "wheelchair": "yes"
    },
    {
      "id": 79944,
      "geometry": "POINT (-77.116876 39.050782)",
      "poi_name": "Little Food Studio",
      "osm_id": 837830320,
      "amenity": "cafe",
      "website": "https://www.littlefoodstudio.com/",
      "addr_state": "DC",
      "addr_city": "Washington",
      "addr_street": "Upshur Street Northwest",
      "addr_housenumber": "849"
    },
    {
      "id": 79486,
      "geometry": "POINT (-77.116876 39.050782)",
      "poi_name": "Qualia Coffee",
      "osm_id": 808115259,
      "amenity": "cafe",
      "cuisine": "coffee_shop",
      "wheelchair": "no",
      "opening_hours": "Mo-Fr 07:00-19:00; Sa,Su 08:00-18:00",
      "website": "https://www.qualiacoffee.com/",
      "internet_access": "yes",
      "phone": "+1 202-248-6423",
      "addr_state": "DC",
      "addr_city": "Washington",
      "addr_postcode": "20011",
      "addr_street": "Georgia Avenue Northwest",
      "addr_housenumber": "3917"
    },
    {
      "id": 79508,
      "geometry": "POINT (-77.116876 39.050782)",
      "poi_name": "Yerevan",
      "osm_id": 809402117,
      "amenity": "cafe",
      "cuisine": "armenian",
      "opening_hours": "Fr-Sa 10:00-21:00; Su-Th 10:00-20:00",
      "website": "http://yerevandc.com/",
      "phone": "+1-202-516-5924",
      "addr_postcode": "20009",
      "addr_street": "18th Street Northwest",
      "addr_housenumber": "2204"
    },
    {
      "id": 79518,
      "geometry": "POINT (-77.116876 39.050782)",
      "poi_name": "South Block",
      "osm_id": 810477700,
      "amenity": "cafe",
      "cuisine": "juice;smoothie;coffee;a\u00e7a\u00ed",
      "opening_hours": "Mo-Su 08:00-19:00",
      "addr_street": "14th Street Northwest",
      "addr_housenumber": "1418"
    },
    {
      "id": 79570,
      "geometry": "POINT (-77.116876 39.050782)",
      "poi_name": "Radici",
      "osm_id": 814314345,
      "amenity": "cafe",
      "cuisine": "italian;coffee_shop",
      "internet_access": "wlan",
      "addr_street": "7th Street Southeast",
      "addr_housenumber": "303"
    },
    {
      "id": 79525,
      "geometry": "POINT (-77.116876 39.050782)",
      "poi_name": "Starbucks",
      "osm_id": 810627234,
      "amenity": "cafe",
      "cuisine": "coffee_shop",
      "operator": "Starbucks",
      "internet_access": "wlan",
      "phone": "+1 202-902-8372",
      "takeaway": "yes",
      "official_name": "Starbucks Coffee",
      "addr_street": "U Street Northwest",
      "addr_housenumber": "1600"
    },
    {
      "id": 79537,
      "geometry": "POINT (-77.116876 39.050782)",
      "poi_name": "Blank Street Coffee",
      "osm_id": 810786889,
      "amenity": "cafe",
      "cuisine": "coffee_shop",
      "opening_hours": "Mo-Fr 07:00-18:00; Sa-Su 08:00-18:00",
      "website": "https://www.blankstreet.com/",
      "takeaway": "yes",
      "addr_street": "14th Street Northwest",
      "addr_housenumber": "1807"
    },
    {
      "id": 91113,
      "geometry": "POINT (-77.116876 39.050782)",
      "poi_name": "Starbucks",
      "osm_id": 2043203802,
      "amenity": "cafe",
      "cuisine": "coffee_shop",
      "takeaway": "yes",
      "official_name": "Starbucks Coffee"
    },
    {
      "id": 81856,
      "geometry": "POINT (-77.116876 39.050782)",
      "poi_name": "Sticky Fingers",
      "osm_id": 1668199603,
      "amenity": "cafe",
      "wheelchair": "yes",
      "opening_hours": "Mo off; Tu-Sa 10:00-17:00; Su 10:00-16:00",
      "website": "https://stickyfingersbakery.com/",
      "takeaway": "yes",
      "addr_state": "DC",
      "addr_city": "Washington",
      "addr_postcode": "20010",
      "addr_street": "Park Road Northwest",
      "addr_housenumber": "1370"
    },
    {
      "id": 84382,
      "geometry": "POINT (-77.116876 39.050782)",
      "poi_name": "Tiramisu Caf\u00e9",
      "osm_id": 1786882054,
      "amenity": "cafe",
      "cuisine": "coffee_shop",
      "internet_access": "wlan",
      "addr_street": "Eastern Avenue Northwest",
      "addr_housenumber": "7847"
    },
    {
      "id": 84384,
      "geometry": "POINT (-77.116876 39.050782)",
      "poi_name": "Moorenko's Ice Cream & Caf\u00e9",
      "osm_id": 1786883731,
      "amenity": "cafe",
      "cuisine": "ice_cream"
    },
    {
      "id": 90203,
      "geometry": "POINT (-77.116876 39.050782)",
      "poi_name": "Bean & Bite",
      "osm_id": 1983196726,
      "amenity": "cafe",
      "wheelchair": "no",
      "opening_hours": "Mo-Fr 08:00-18:00"
    },
    {
      "id": 99315,
      "geometry": "POINT (-77.116876 39.050782)",
      "poi_name": "Quantum cafe",
      "osm_id": 6547741178,
      "amenity": "cafe",
      "wheelchair": "yes",
      "takeaway": "yes"
    },
    {
      "id": 94826,
      "geometry": "POINT (-77.116876 39.050782)",
      "poi_name": "Gregorys Coffee",
      "osm_id": 6376651245,
      "amenity": "cafe",
      "phone": "+1-202-750-9191",
      "addr_state": "DC",
      "addr_city": "Washington",
      "addr_postcode": "20003",
      "addr_street": "New Jersey Avenue Southeast",
      "addr_housenumber": "1115"
    },
    {
      "id": 97605,
      "geometry": "POINT (-77.116876 39.050782)",
      "poi_name": "Starbucks",
      "osm_id": 6484723662,
      "amenity": "cafe",
      "cuisine": "coffee_shop",
      "opening_hours": "06:00-20:00",
      "phone": "+1 202768413",
      "takeaway": "yes",
      "official_name": "Starbucks Coffee",
      "addr_state": "MD",
      "addr_street": "Van Buren Street",
      "addr_housenumber": "4501"
    },
    {
      "id": 98690,
      "geometry": "POINT (-77.116876 39.050782)",
      "poi_name": "The Coffee Bar",
      "osm_id": 6530465504,
      "amenity": "cafe",
      "cuisine": "coffee",
      "website": "https://thestamp.umd.edu/food_shops_and_services/stamp_dining/the_coffee_bar",
      "internet_access": "yes",
      "outdoor_seating": "yes",
      "addr_state": "MD",
      "addr_city": "College Park",
      "addr_postcode": "20742",
      "addr_street": "Campus Drive",
      "addr_housenumber": "3972"
    },
    {
      "id": 99470,
      "geometry": "POINT (-77.116876 39.050782)",
      "poi_name": "Bluestone Lane",
      "osm_id": 6553791695,
      "amenity": "cafe",
      "internet_access": "wlan",
      "addr_state": "DC",
      "addr_city": "Washington",
      "addr_postcode": "20005",
      "addr_street": "Rhode Island Avenue Northwest",
      "addr_housenumber": "1515"
    },
    {
      "id": 91593,
      "geometry": "POINT (-77.116876 39.050782)",
      "poi_name": "The Coffee Bar (TCB)",
      "osm_id": 2076863951,
      "amenity": "cafe",
      "cuisine": "coffee_shop",
      "opening_hours": "Mo-Fr 07:00-17:00; Sa-Su 08:00-18:00",
      "website": "https://www.thecoffeebardc.com/",
      "internet_access": "yes",
      "phone": "+1 202-733-1049",
      "takeaway": "yes",
      "outdoor_seating": "yes",
      "toilets": "yes",
      "addr_state": "DC",
      "addr_city": "Washington",
      "addr_postcode": "20009",
      "addr_street": "S Street Northwest",
      "addr_housenumber": "1201"
    },
    {
      "id": 92639,
      "geometry": "POINT (-77.116876 39.050782)",
      "poi_name": "Lot 38 Espresso Bar",
      "osm_id": 2129716338,
      "amenity": "cafe",
      "cuisine": "coffee_shop",
      "internet_access": "wlan",
      "outdoor_seating": "no"
    },
    {
      "id": 95594,
      "geometry": "POINT (-77.116876 39.050782)",
      "poi_name": "The Hill Cafe",
      "osm_id": 6402934444,
      "amenity": "cafe",
      "addr_state": "DC",
      "addr_city": "Washington",
      "addr_postcode": "20002",
      "addr_street": "15th Street Northeast",
      "addr_housenumber": "101"
    },
    {
      "id": 96799,
      "geometry": "POINT (-77.116876 39.050782)",
      "poi_name": "La Colombe Coffee Roasters",
      "osm_id": 6445938290,
      "amenity": "cafe",
      "cuisine": "coffee_shop",
      "takeaway": "yes",
      "addr_street": "6th Street Northwest",
      "addr_housenumber": "900"
    },
    {
      "id": 97139,
      "geometry": "POINT (-77.116876 39.050782)",
      "poi_name": "Blue Bottle Coffee",
      "osm_id": 6463565101,
      "amenity": "cafe",
      "cuisine": "coffee_shop",
      "takeaway": "yes",
      "addr_state": "DC",
      "addr_city": "Washington",
      "addr_postcode": "20005",
      "addr_street": "15th Street Northwest",
      "addr_housenumber": "1100"
    },
    {
      "id": 98285,
      "geometry": "POINT (-77.116876 39.050782)",
      "poi_name": "Kung Fu Tea",
      "osm_id": 6514225815,
      "amenity": "cafe",
      "cuisine": "bubble_tea",
      "opening_hours": "Mo-Su 12:00-21:00",
      "website": "https://www.kungfutea.com",
      "phone": "+1 240-714-3156",
      "takeaway": "yes",
      "addr_state": "MD",
      "addr_city": "College Park",
      "addr_postcode": "20740",
      "addr_street": "Baltimore Avenue",
      "addr_housenumber": "7313"
    },
    {
      "id": 98788,
      "geometry": "POINT (-77.116876 39.050782)",
      "poi_name": "Casey's Coffee",
      "osm_id": 6532427257,
      "amenity": "cafe",
      "outdoor_seating": "no",
      "addr_state": "MD",
      "addr_city": "College Park",
      "addr_postcode": "20740"
    },
    {
      "id": 99316,
      "geometry": "POINT (-77.116876 39.050782)",
      "poi_name": "Breakpoint Cafe",
      "osm_id": 6547838710,
      "amenity": "cafe"
    },
    {
      "id": 107391,
      "geometry": "POINT (-77.116876 39.050782)",
      "poi_name": "Port City Java",
      "osm_id": 3559302435,
      "amenity": "cafe",
      "website": "https://www.portcityjava.com/"
    },
    {
      "id": 100866,
      "geometry": "POINT (-77.116876 39.050782)",
      "poi_name": "Le Pain Quotidien",
      "osm_id": 6602819983,
      "amenity": "cafe",
      "cuisine": "coffee_shop",
      "opening_hours": "Mo-Fr 06:30-18:00; Sa,Su 08:00-18:00",
      "takeaway": "yes"
    },
    {
      "id": 101664,
      "geometry": "POINT (-77.116876 39.050782)",
      "poi_name": "E+M Cafe",
      "osm_id": 6637512134,
      "amenity": "cafe"
    },
    {
      "id": 103846,
      "geometry": "POINT (-77.116876 39.050782)",
      "poi_name": "La Gelatteria",
      "osm_id": 8529603472,
      "amenity": "cafe",
      "cuisine": "coffee_shop;sandwich;ice_cream",
      "opening_hours": "Su-Th 08:00-19:00; Fr-Sa 08:00-20:00",
      "website": "https://lagelatteria.com/",
      "internet_access": "wlan",
      "phone": "+1 301 272 2255",
      "takeaway": "yes",
      "drive_through": "no",
      "outdoor_seating": "yes",
      "delivery": "yes",
      "addr_state": "MD",
      "addr_city": "Kensington",
      "addr_postcode": "20895",
      "addr_street": "Detrick Avenue",
      "addr_housenumber": "10414"
    },
    {
      "id": 106631,
      "geometry": "POINT (-77.116876 39.050782)",
      "poi_name": "Colada Shop",
      "osm_id": 8691887364,
      "amenity": "cafe",
      "cuisine": "coffee_shop;cuban",
      "website": "https://www.coladashop.com/",
      "outdoor_seating": "yes",
      "addr_state": "DC",
      "addr_city": "Washington",
      "addr_postcode": "20024",
      "addr_street": "Pearl Street Southwest",
      "addr_housenumber": "10"
    },
    {
      "id": 112042,
      "geometry": "POINT (-77.116876 39.050782)",
      "poi_name": "Le Caprice DC Caf\u00e9 Bakery",
      "osm_id": 3778088364,
      "amenity": "cafe",
      "opening_hours": "07:00-20:00",
      "phone": "+1 202-290-3109",
      "outdoor_seating": "yes",
      "addr_state": "DC",
      "addr_city": "Washington",
      "addr_postcode": "20010",
      "addr_street": "14th Street Northwest",
      "addr_housenumber": "3460"
    },
    {
      "id": 110048,
      "geometry": "POINT (-77.116876 39.050782)",
      "poi_name": "Starbucks",
      "osm_id": 3684845708,
      "amenity": "cafe",
      "cuisine": "coffee_shop",
      "takeaway": "yes",
      "official_name": "Starbucks Coffee",
      "addr_state": "DC",
      "addr_city": "Washington",
      "addr_postcode": "20003",
      "addr_street": "8th Street Southeast",
      "addr_housenumber": "401"
    },
    {
      "id": 110096,
      "geometry": "POINT (-77.116876 39.050782)",
      "poi_name": "Call Your Mother",
      "osm_id": 3687328483,
      "amenity": "cafe",
      "cuisine": "bagel;sandwich",
      "opening_hours": "Mo-Su 07:30-14:00",
      "website": "https://www.callyourmotherdeli.com/",
      "phone": "+1-202-601-7655",
      "outdoor_seating": "yes",
      "addr_state": "DC",
      "addr_city": "Washington",
      "addr_postcode": "20003",
      "addr_street": "8th Street Southeast",
      "addr_housenumber": "701"
    },
    {
      "id": 109979,
      "geometry": "POINT (-77.116876 39.050782)",
      "poi_name": "Timgad",
      "osm_id": 3680880725,
      "amenity": "cafe"
    },
    {
      "id": 112121,
      "geometry": "POINT (-77.116876 39.050782)",
      "poi_name": "Heat da Spot",
      "osm_id": 3781187511,
      "amenity": "cafe",
      "cuisine": "coffee_shop;american;ethiopian",
      "opening_hours": "Mo-Fr 07:30-15:00; Sa-Su 08:30-15:00",
      "website": "https://heatdaspot.com/",
      "phone": "+1-202-836-4719",
      "outdoor_seating": "yes",
      "addr_city": "Washington",
      "addr_postcode": "20010",
      "addr_street": "Georgia Avenue Northwest",
      "addr_housenumber": "3213"
    },
    {
      "id": 112122,
      "geometry": "POINT (-77.116876 39.050782)",
      "poi_name": "Starbucks",
      "osm_id": 3781207317,
      "amenity": "cafe",
      "cuisine": "coffee_shop",
      "takeaway": "yes",
      "official_name": "Starbucks Coffee"
    },
    {
      "id": 113502,
      "geometry": "POINT (-77.116876 39.050782)",
      "poi_name": "Galley Cafe",
      "osm_id": 3836387765,
      "amenity": "cafe",
      "cuisine": "american;korean"
    },
    {
      "id": 112266,
      "geometry": "POINT (-77.116876 39.050782)",
      "poi_name": "The Wydown",
      "osm_id": 3784892672,
      "amenity": "cafe",
      "addr_street": "14th Street Northwest",
      "addr_housenumber": "1920"
    },
    {
      "id": 112282,
      "geometry": "POINT (-77.116876 39.050782)",
      "poi_name": "Starbucks",
      "osm_id": 3785303915,
      "amenity": "cafe",
      "cuisine": "coffee_shop",
      "internet_access": "yes",
      "takeaway": "yes",
      "official_name": "Starbucks Coffee",
      "addr_state": "MD",
      "addr_city": "Hyattsville"
    },
    {
      "id": 128388,
      "geometry": "POINT (-77.116876 39.050782)",
      "poi_name": "The Ministry",
      "osm_id": 8153393017,
      "amenity": "cafe"
    },
    {
      "id": 116722,
      "geometry": "POINT (-77.116876 39.050782)",
      "poi_name": "Starbucks",
      "osm_id": 8956355022,
      "amenity": "cafe",
      "cuisine": "coffee_shop",
      "shop": "bakery",
      "takeaway": "yes",
      "official_name": "Starbucks Coffee",
      "addr_street": "14th street nortwest",
      "addr_housenumber": "3100"
    },
    {
      "id": 119261,
      "geometry": "POINT (-77.116876 39.050782)",
      "poi_name": "Pearl's Bagels",
      "osm_id": 9093379513,
      "amenity": "cafe",
      "cuisine": "bagel",
      "opening_hours": "Mo-Su 08:00-14:00",
      "website": "https://www.pearlsbagels.com/",
      "internet_access": "wlan",
      "outdoor_seating": "yes",
      "addr_state": "DC",
      "addr_city": "Washington",
      "addr_postcode": "20001",
      "addr_street": "7th Street Northwest",
      "addr_housenumber": "1017"
    },
    {
      "id": 126480,
      "geometry": "POINT (-77.116876 39.050782)",
      "poi_name": "Jdrink",
      "osm_id": 7004870921,
      "amenity": "cafe"
    },
    {
      "id": 120112,
      "geometry": "POINT (-77.116876 39.050782)",
      "poi_name": "Dolci Gelati Cafe",
      "osm_id": 9140696257,
      "amenity": "cafe",
      "cuisine": "gelato",
      "outdoor_seating": "yes"
    },
    {
      "id": 124939,
      "geometry": "POINT (-77.116876 39.050782)",
      "poi_name": "Pitango",
      "osm_id": 6943096187,
      "amenity": "cafe",
      "wheelchair": "yes",
      "internet_access": "wlan",
      "outdoor_seating": "yes"
    },
    {
      "id": 126475,
      "geometry": "POINT (-77.116876 39.050782)",
      "poi_name": "Aladdin Kitchen",
      "osm_id": 7004857399,
      "amenity": "cafe",
      "wheelchair": "yes"
    },
    {
      "id": 128279,
      "geometry": "POINT (-77.116876 39.050782)",
      "poi_name": "Java Nation",
      "osm_id": 8144619148,
      "amenity": "cafe",
      "cuisine": "coffee_shop",
      "opening_hours": "Mo-Tu 07:00-17:00; We-Sa 07:00-19:00; Su 08:00-17:00",
      "website": "https://java-nation.com",
      "internet_access": "wlan",
      "phone": "+1 301 327 6580",
      "takeaway": "yes",
      "outdoor_seating": "yes",
      "addr_state": "MD",
      "addr_city": "Kensington",
      "addr_postcode": "20895",
      "addr_street": "Connecticut Avenue",
      "addr_housenumber": "10516"
    },
    {
      "id": 128497,
      "geometry": "POINT (-77.116876 39.050782)",
      "poi_name": "Bluestone Lane",
      "osm_id": 8165041764,
      "amenity": "cafe",
      "opening_hours": "Mo-Su 07:30-20:00",
      "website": "https://bluestonelane.com/cafes/logan-circle-cafe-1367-r-street-nw/",
      "addr_state": "DC",
      "addr_city": "Washington",
      "addr_postcode": "20009",
      "addr_street": "R Street Northwest",
      "addr_housenumber": "1367"
    },
    {
      "id": 128407,
      "geometry": "POINT (-77.116876 39.050782)",
      "poi_name": "Sweet Science Coffee",
      "osm_id": 8155517517,
      "amenity": "cafe",
      "outdoor_seating": "yes",
      "addr_state": "DC",
      "addr_city": "Washington",
      "addr_postcode": "20002",
      "addr_street": "N Street Northeast",
      "addr_housenumber": "35"
    },
    {
      "id": 128572,
      "geometry": "POINT (-77.116876 39.050782)",
      "poi_name": "La Coop",
      "osm_id": 8171276603,
      "amenity": "cafe",
      "cuisine": "coffee_shop",
      "opening_hours": "Mo-Fr 07:00-17:00, Sa-Su 08:00-16:00",
      "website": "https://www.lacoopcoffee.com/",
      "internet_access": "wlan",
      "phone": "+1 202-921-9202",
      "outdoor_seating": "yes",
      "addr_state": "DC",
      "addr_city": "Washington",
      "addr_postcode": "20011",
      "addr_street": "1st Street Northwest",
      "addr_housenumber": "5505"
    },
    {
      "id": 132019,
      "geometry": "POINT (-77.116876 39.050782)",
      "poi_name": "Starbucks",
      "osm_id": 9938131775,
      "amenity": "cafe",
      "cuisine": "coffee_shop",
      "takeaway": "yes",
      "official_name": "Starbucks Coffee",
      "addr_state": "DC",
      "addr_city": "Washington",
      "addr_postcode": "20024",
      "addr_street": "7th Street Southwest",
      "addr_housenumber": "925"
    },
    {
      "id": 132058,
      "geometry": "POINT (-77.116876 39.050782)",
      "poi_name": "Starbucks",
      "osm_id": 9939638523,
      "amenity": "cafe",
      "cuisine": "coffee_shop",
      "opening_hours": "Mo-Fr 05:30-18:00; Sa-Su 05:30-18:30",
      "internet_access": "wlan",
      "takeaway": "yes",
      "official_name": "Starbucks Coffee",
      "addr_postcode": "20004",
      "addr_street": "F Street Northwest",
      "addr_housenumber": "1304"
    },
    {
      "id": 136475,
      "geometry": "POINT (-77.116876 39.050782)",
      "poi_name": "Foxtrot",
      "osm_id": 11585703836,
      "amenity": "cafe",
      "website": "https://foxtrotco.com/stores/washington-dc"
    },
    {
      "id": 154701,
      "geometry": "POINT (-77.116876 39.050782)",
      "poi_name": "Starbucks",
      "osm_id": 4252926719,
      "amenity": "cafe",
      "cuisine": "coffee_shop",
      "takeaway": "yes",
      "official_name": "Starbucks Coffee",
      "addr_state": "DC",
      "addr_city": "Washington",
      "addr_postcode": "20024",
      "addr_street": "3rd Street Southwest",
      "addr_housenumber": "409"
    },
    {
      "id": 136416,
      "geometry": "POINT (-77.116876 39.050782)",
      "poi_name": "Sharetea",
      "osm_id": 11583132475,
      "amenity": "cafe",
      "cuisine": "bubble_tea",
      "opening_hours": "Mo 10:30-21:00; Tu-We,Th,Fr 10:45-21:00; Sa 11:00-21:00; Su 10:30-21:00",
      "website": "https://www.shareteadcchinatown.com/",
      "phone": "+1 202-758-2570",
      "addr_street": "H Street Northwest",
      "addr_housenumber": "519"
    },
    {
      "id": 136986,
      "geometry": "POINT (-77.116876 39.050782)",
      "poi_name": "Kaldi's Social House",
      "osm_id": 6080100348,
      "amenity": "cafe",
      "phone": "+13015579990",
      "addr_street": "Silver Spring Ave",
      "addr_housenumber": "918"
    },
    {
      "id": 138845,
      "geometry": "POINT (-77.116876 39.050782)",
      "poi_name": "Starbucks",
      "osm_id": 6171655190,
      "amenity": "cafe",
      "cuisine": "coffee_shop",
      "takeaway": "yes",
      "official_name": "Starbucks Coffee"
    },
    {
      "id": 140171,
      "geometry": "POINT (-77.116876 39.050782)",
      "poi_name": "Milk Bar",
      "osm_id": 6234257111,
      "amenity": "cafe",
      "opening_hours": "Mo-Th 09:00-23:00; Fr, Sa 09:00-00:00; Su 09:00-22:00",
      "addr_street": "15th Street Northwest",
      "addr_housenumber": "1525"
    },
    {
      "id": 140197,
      "geometry": "POINT (-77.116876 39.050782)",
      "poi_name": "Tropics Ice Cream",
      "osm_id": 6235177255,
      "amenity": "cafe",
      "cuisine": "ice_cream;caribbean;jamaican",
      "opening_hours": "Mo-Th 11:00-19:00; Fr 10:00-15:00; Sa 18:00-21:00; Su 12:00-18:00",
      "website": "https://tropicsicecream.com/",
      "addr_state": "MD",
      "addr_city": "Silver Spring",
      "addr_postcode": "20910",
      "addr_street": "Georgia Avenue"
    },
    {
      "id": 151506,
      "geometry": "POINT (-77.116876 39.050782)",
      "poi_name": "Starbucks",
      "osm_id": 4102660478,
      "amenity": "cafe",
      "cuisine": "coffee_shop",
      "opening_hours": "Mo-Fr 06:00-21:00; Sa,Su 07:00-21:00",
      "takeaway": "yes",
      "official_name": "Starbucks Coffee",
      "outdoor_seating": "no",
      "addr_state": "MD",
      "addr_city": "College Park",
      "addr_street": "Baltimore Avenue",
      "addr_housenumber": "7336"
    },
    {
      "id": 140137,
      "geometry": "POINT (-77.116876 39.050782)",
      "poi_name": "Mikko",
      "osm_id": 6232229113,
      "amenity": "cafe",
      "website": "https://www.chefmikko.com/",
      "wikidata": "Q96754560"
    },
    {
      "id": 145122,
      "geometry": "POINT (-77.116876 39.050782)",
      "poi_name": "Karlee's Deli and market",
      "osm_id": 7316151626,
      "amenity": "cafe",
      "cuisine": "sandwich",
      "opening_hours": "Tu-Fr 10:30-18:00; Sa 09:30-18:00; Su 10:30-16:00",
      "outdoor_seating": "yes",
      "addr_state": "MD",
      "addr_city": "Kensington",
      "addr_postcode": "20895",
      "addr_street": "Howard Avenue",
      "addr_housenumber": "3750"
    },
    {
      "id": 148318,
      "geometry": "POINT (-77.116876 39.050782)",
      "poi_name": "Starbucks",
      "osm_id": 3945112168,
      "amenity": "cafe",
      "cuisine": "coffee_shop",
      "opening_hours": "Mo-Fr 05:30-19:30; Sa 06:00-19:30; Su 06:00-19:00",
      "internet_access": "wlan",
      "phone": "+1 301-468-3403",
      "takeaway": "yes",
      "official_name": "Starbucks Coffee",
      "toilets": "yes",
      "addr_street": "Paseo Drive",
      "addr_housenumber": "17"
    },
    {
      "id": 150710,
      "geometry": "POINT (-77.116876 39.050782)",
      "poi_name": "Potter's House",
      "osm_id": 4064188255,
      "amenity": "cafe",
      "cuisine": "coffee_shop",
      "opening_hours": "Mo-Fr 07:00-21:00; Sa 08:00-22:00; Su 08:00-18:00",
      "website": "https://pottershousedc.org/",
      "internet_access": "wlan",
      "phone": "+1 202-232-5483",
      "outdoor_seating": "yes",
      "wikidata": "Q2589078"
    },
    {
      "id": 151042,
      "geometry": "POINT (-77.116876 39.050782)",
      "poi_name": "Cafe Cozy Corner",
      "osm_id": 4077550129,
      "amenity": "cafe"
    },
    {
      "id": 152751,
      "geometry": "POINT (-77.116876 39.050782)",
      "poi_name": "Starbucks",
      "osm_id": 4158541601,
      "amenity": "cafe",
      "cuisine": "coffee_shop",
      "website": "https://www.starbucks.com/store-locator/store/10740/safeway-washington-dc-2737-490-l-st-nw-washington-dc-200012545-us",
      "phone": "+1 202-719-2435",
      "takeaway": "yes",
      "official_name": "Starbucks Coffee",
      "addr_street": "L Street Northwest",
      "addr_housenumber": "490"
    },
    {
      "id": 155508,
      "geometry": "POINT (-77.116876 39.050782)",
      "poi_name": "BRBean cafe",
      "osm_id": 4288701293,
      "amenity": "cafe",
      "cuisine": "coffee_shop",
      "phone": "+1-301-405-4102"
    },
    {
      "id": 155138,
      "geometry": "POINT (-77.116876 39.050782)",
      "poi_name": "Compass Coffee",
      "osm_id": 4270802396,
      "amenity": "cafe",
      "cuisine": "coffee_shop",
      "website": "https://www.compasscoffee.com/",
      "internet_access": "wlan"
    },
    {
      "id": 155509,
      "geometry": "POINT (-77.116876 39.050782)",
      "poi_name": "Physics cafe",
      "osm_id": 4288701294,
      "amenity": "cafe",
      "cuisine": "coffee_shop",
      "phone": "+1-301-314-7466"
    },
    {
      "id": 155510,
      "geometry": "POINT (-77.116876 39.050782)",
      "poi_name": "Kim Kafe",
      "osm_id": 4288701296,
      "amenity": "cafe",
      "cuisine": "coffee_shop",
      "phone": "+1-301-314-8981"
    },
    {
      "id": 155511,
      "geometry": "POINT (-77.116876 39.050782)",
      "poi_name": "Sneaker's cafe",
      "osm_id": 4288701297,
      "amenity": "cafe",
      "cuisine": "smoothie",
      "opening_hours": "Tu-Fr 10:30-22:30; Mo 10:00-22:00; Sa 10:30-21:00; Su 12:00-21:00",
      "website": "https://dining.umd.edu/hours-locations/cafes",
      "phone": "+1-301-404-1460"
    },
    {
      "id": 155512,
      "geometry": "POINT (-77.116876 39.050782)",
      "poi_name": "Applause cafe",
      "osm_id": 4288701298,
      "amenity": "cafe",
      "cuisine": "coffee_shop",
      "phone": "+1-301-314-6592"
    },
    {
      "id": 155513,
      "geometry": "POINT (-77.116876 39.050782)",
      "poi_name": "Footnotes Cafe",
      "osm_id": 4288701299,
      "amenity": "cafe",
      "cuisine": "coffee_shop",
      "phone": "+1-301-314-0371"
    },
    {
      "id": 155514,
      "geometry": "POINT (-77.116876 39.050782)",
      "poi_name": "Off the Record",
      "osm_id": 4288701300,
      "amenity": "cafe",
      "cuisine": "coffee_shop",
      "phone": "+1-301-314-0412"
    },
    {
      "id": 155515,
      "geometry": "POINT (-77.116876 39.050782)",
      "poi_name": "Creative Commons cafe",
      "osm_id": 4288701301,
      "amenity": "cafe",
      "cuisine": "coffee_shop",
      "phone": "+1-301-314-2119"
    },
    {
      "id": 155516,
      "geometry": "POINT (-77.116876 39.050782)",
      "poi_name": "Rudy's Cafe",
      "osm_id": 4288701302,
      "amenity": "cafe",
      "cuisine": "coffee_shop",
      "phone": "+1-301-314-8181"
    },
    {
      "id": 158477,
      "geometry": "POINT (-77.116876 39.050782)",
      "poi_name": "M.E. Swing's",
      "osm_id": 4749803307,
      "amenity": "cafe",
      "cuisine": "coffee_shop"
    },
    {
      "id": 158391,
      "geometry": "POINT (-77.116876 39.050782)",
      "poi_name": "Starbucks",
      "osm_id": 4745962621,
      "amenity": "cafe",
      "cuisine": "coffee_shop",
      "opening_hours": "Mo-Su 05:30-19:30",
      "takeaway": "yes",
      "official_name": "Starbucks Coffee",
      "outdoor_seating": "yes"
    },
    {
      "id": 156249,
      "geometry": "POINT (-77.116876 39.050782)",
      "poi_name": "Peregrine Espresso",
      "osm_id": 4644746626,
      "amenity": "cafe",
      "wheelchair": "yes"
    },
    {
      "id": 159780,
      "geometry": "POINT (-77.116876 39.050782)",
      "poi_name": "La Colombe Coffee Roasters",
      "osm_id": 4806406342,
      "amenity": "cafe",
      "cuisine": "coffee_shop",
      "takeaway": "yes"
    },
    {
      "id": 160690,
      "geometry": "POINT (-77.116876 39.050782)",
      "poi_name": "Starbucks",
      "osm_id": 4842704023,
      "amenity": "cafe",
      "cuisine": "coffee_shop",
      "takeaway": "yes",
      "official_name": "Starbucks Coffee",
      "outdoor_seating": "yes"
    },
    {
      "id": 160372,
      "geometry": "POINT (-77.116876 39.050782)",
      "poi_name": "Three Fifty Bakery & Coffee Bar",
      "osm_id": 4831902733,
      "amenity": "cafe",
      "opening_hours": "Mo-Fr 07:00-19:00; Sa-Su 08:00-18:00",
      "website": "http://threefifty.com",
      "addr_state": "DC",
      "addr_city": "Washington",
      "addr_postcode": "20009",
      "addr_street": "17th Street Northwest",
      "addr_housenumber": "1926"
    },
    {
      "id": 165535,
      "geometry": "POINT (-77.116876 39.050782)",
      "poi_name": "Qualia Coffee",
      "osm_id": 9543698567,
      "amenity": "cafe"
    },
    {
      "id": 164585,
      "geometry": "POINT (-77.116876 39.050782)",
      "poi_name": "Adulis Store",
      "osm_id": 9486254340,
      "amenity": "cafe",
      "addr_street": "Eastern Avenue Northwest",
      "addr_housenumber": "7825"
    },
    {
      "id": 165026,
      "geometry": "POINT (-77.116876 39.050782)",
      "poi_name": "Black Lion Cafe",
      "osm_id": 9512604826,
      "amenity": "cafe",
      "cuisine": "coffee_shop",
      "website": "https://blacklioncafe.com/",
      "addr_state": "MD",
      "addr_city": "Silver Spring",
      "addr_postcode": "20910",
      "addr_street": "Fenton Street"
    },
    {
      "id": 161496,
      "geometry": "POINT (-77.116876 39.050782)",
      "poi_name": "Slipstream",
      "osm_id": 4884133170,
      "amenity": "cafe",
      "cuisine": "coffee_shop",
      "website": "http://slipstreamdc.com"
    },
    {
      "id": 169395,
      "geometry": "POINT (-77.116876 39.050782)",
      "poi_name": "Starbucks",
      "osm_id": 2299982815,
      "amenity": "cafe",
      "cuisine": "coffee_shop",
      "wheelchair": "yes",
      "opening_hours": "Mo-Fr 05:30-19:00; Sa-Su 06:00-18:30",
      "internet_access": "wlan",
      "takeaway": "yes",
      "drive_through": "no",
      "official_name": "Starbucks Coffee",
      "outdoor_seating": "no",
      "addr_city": "Washington",
      "addr_street": "14th Street Northwest",
      "addr_housenumber": "3107"
    },
    {
      "id": 170773,
      "geometry": "POINT (-77.116876 39.050782)",
      "poi_name": "Sylvan Cafe",
      "osm_id": 2348914810,
      "amenity": "cafe",
      "opening_hours": "Mo-Fr 07:00-14:00; Sa-Su 08:00-17:00",
      "website": "https://www.sylvancafe.com/",
      "phone": "+1-571-388-0035",
      "addr_state": "DC",
      "addr_city": "Washington",
      "addr_postcode": "20001",
      "addr_street": "Rhode Island Avenue Northwest",
      "addr_housenumber": "104"
    },
    {
      "id": 172079,
      "geometry": "POINT (-77.116876 39.050782)",
      "poi_name": "ETA Cafe",
      "osm_id": 2393490489,
      "amenity": "cafe",
      "cuisine": "ethiopian",
      "website": "https://www.3tadc.com/about",
      "addr_state": "DC",
      "addr_city": "Washington",
      "addr_postcode": "20011",
      "addr_street": "9th Street Northwest",
      "addr_housenumber": "4329"
    },
    {
      "id": 171039,
      "geometry": "POINT (-77.116876 39.050782)",
      "poi_name": "Mon Amour",
      "osm_id": 2357976893,
      "amenity": "cafe",
      "cuisine": "ice_cream",
      "addr_state": "DC",
      "addr_city": "Washington",
      "addr_street": "11th Street Northwest",
      "addr_housenumber": "431"
    },
    {
      "id": 171819,
      "geometry": "POINT (-77.116876 39.050782)",
      "poi_name": "Corner Bakery",
      "osm_id": 2387758798,
      "amenity": "cafe",
      "cuisine": "coffee_shop",
      "opening_hours": "Mo-Fr 06:30-18:00; Sa,Su 07:00-16:00",
      "phone": "+1 202-627-3139",
      "takeaway": "yes",
      "outdoor_seating": "no",
      "addr_state": "DC",
      "addr_city": "Washington",
      "addr_postcode": "20001",
      "addr_street": "North Capitol Street Northwest",
      "addr_housenumber": "500"
    },
    {
      "id": 172080,
      "geometry": "POINT (-77.116876 39.050782)",
      "poi_name": "Lulabelle\u2019s",
      "osm_id": 2393490691,
      "amenity": "cafe",
      "cuisine": "regional;coffee_shop;ice_cream",
      "description": "Coffee shop with ice cream, baked goods, sandwiches, gifts and other deli products.",
      "website": "https://lulabellesmarket.com/",
      "internet_access": "no",
      "addr_street": "Upshur Street Northwest",
      "addr_housenumber": "847"
    },
    {
      "id": 172917,
      "geometry": "POINT (-77.116876 39.050782)",
      "poi_name": "Pitango",
      "osm_id": 2419110698,
      "amenity": "cafe",
      "cuisine": "ice_cream",
      "wheelchair": "yes",
      "addr_state": "DC",
      "addr_city": "Washington",
      "addr_postcode": "20004",
      "addr_street": "7th Street Northwest",
      "addr_housenumber": "413"
    },
    {
      "id": 172112,
      "geometry": "POINT (-77.116876 39.050782)",
      "poi_name": "Highlands Cafe",
      "osm_id": 2395183427,
      "amenity": "cafe",
      "internet_access": "wlan"
    },
    {
      "id": 172432,
      "geometry": "POINT (-77.116876 39.050782)",
      "poi_name": "Le Bon Cafe",
      "osm_id": 2402684132,
      "amenity": "cafe",
      "outdoor_seating": "yes"
    },
    {
      "id": 174265,
      "geometry": "POINT (-77.116876 39.050782)",
      "poi_name": "Starbucks",
      "osm_id": 2473035116,
      "amenity": "cafe",
      "cuisine": "coffee_shop",
      "opening_hours": "Mo-Fr 04:30-18:30; Sa,Su 06:00-19:00",
      "internet_access": "wlan",
      "takeaway": "yes",
      "official_name": "Starbucks Coffee",
      "outdoor_seating": "yes"
    },
    {
      "id": 173819,
      "geometry": "POINT (-77.116876 39.050782)",
      "poi_name": "Kogod's New York Deli",
      "osm_id": 2456893811,
      "amenity": "cafe",
      "cuisine": "sandwich",
      "opening_hours": "Mo-Sa 08:00-21:00"
    },
    {
      "id": 177632,
      "geometry": "POINT (-77.116876 39.050782)",
      "poi_name": "Takoma Beverage Company",
      "osm_id": 2598575332,
      "amenity": "cafe",
      "cuisine": "coffee;beer",
      "wheelchair": "yes",
      "opening_hours": "Su-Th 07:00-22:00; Fr-Sa 07:00-24:00",
      "website": "https://takomabevco.com/",
      "internet_access": "wlan",
      "phone": "+1 240-641-5323",
      "outdoor_seating": "yes",
      "addr_state": "MD",
      "addr_city": "Takoma Park",
      "addr_postcode": "20912",
      "addr_street": "Laurel Avenue",
      "addr_housenumber": "6917"
    },
    {
      "id": 177265,
      "geometry": "POINT (-77.116876 39.050782)",
      "poi_name": "Starbucks",
      "osm_id": 2579665318,
      "amenity": "cafe",
      "cuisine": "coffee_shop",
      "wheelchair": "yes",
      "internet_access": "wlan",
      "takeaway": "yes",
      "official_name": "Starbucks Coffee",
      "outdoor_seating": "yes"
    },
    {
      "id": 178239,
      "geometry": "POINT (-77.116876 39.050782)",
      "poi_name": "Starbucks",
      "osm_id": 10718003330,
      "amenity": "cafe",
      "cuisine": "coffee_shop",
      "takeaway": "yes",
      "official_name": "Starbucks Coffee"
    },
    {
      "id": 178116,
      "geometry": "POINT (-77.116876 39.050782)",
      "poi_name": "Starbucks",
      "osm_id": 10712404318,
      "amenity": "cafe",
      "cuisine": "coffee_shop",
      "takeaway": "yes",
      "official_name": "Starbucks Coffee"
    },
    {
      "id": 178118,
      "geometry": "POINT (-77.116876 39.050782)",
      "poi_name": "Starbucks",
      "osm_id": 10712404328,
      "amenity": "cafe",
      "cuisine": "coffee_shop",
      "description": "Inside Target",
      "opening_hours": "08:00-20:00",
      "takeaway": "yes",
      "official_name": "Starbucks Coffee"
    },
    {
      "id": 178251,
      "geometry": "POINT (-77.116876 39.050782)",
      "poi_name": "Starbucks",
      "osm_id": 10718003360,
      "amenity": "cafe",
      "cuisine": "coffee_shop",
      "takeaway": "yes",
      "official_name": "Starbucks Coffee"
    },
    {
      "id": 180492,
      "geometry": "POINT (-77.116876 39.050782)",
      "poi_name": "Bamboo Cafe",
      "osm_id": 10803291467,
      "amenity": "cafe",
      "cuisine": "breakfast;mexican;burger;salad;sandwich",
      "opening_hours": "Mo-Sa 06:00-17:00",
      "website": "https://website--540932349384862782471-restaurant.business.site/",
      "phone": "+1 240 534 2112",
      "outdoor_seating": "no",
      "addr_state": "MD",
      "addr_city": "Kensington",
      "addr_postcode": "20895",
      "addr_street": "Howard Avenue",
      "addr_housenumber": "4222"
    },
    {
      "id": 197756,
      "geometry": "POINT (-77.116876 39.050782)",
      "poi_name": "Au Lait",
      "osm_id": 10673662109,
      "amenity": "cafe",
      "opening_hours": "Mo-Su 07:00-16:00",
      "website": "https://www.aulaitdc.com/"
    },
    {
      "id": 180820,
      "geometry": "POINT (-77.116876 39.050782)",
      "poi_name": "Joe & The Juice",
      "osm_id": 10820301784,
      "amenity": "cafe",
      "cuisine": "coffee_shop",
      "takeaway": "yes",
      "outdoor_seating": "yes"
    },
    {
      "id": 187540,
      "geometry": "POINT (-77.116876 39.050782)",
      "poi_name": "Starbucks",
      "osm_id": 1076971249,
      "amenity": "cafe",
      "cuisine": "coffee_shop",
      "opening_hours": "06:00-21:00",
      "internet_access": "wlan",
      "phone": "+1 301-587-3792",
      "takeaway": "yes",
      "official_name": "Starbucks Coffee",
      "addr_city": "Silver Spring",
      "addr_postcode": "20910",
      "addr_street": "Ellsworth Drive",
      "addr_housenumber": "915"
    },
    {
      "id": 190478,
      "geometry": "POINT (-77.116876 39.050782)",
      "poi_name": "Starbucks",
      "osm_id": 1297370503,
      "amenity": "cafe",
      "cuisine": "coffee_shop",
      "takeaway": "yes",
      "official_name": "Starbucks Coffee",
      "addr_state": "MD",
      "addr_city": "Bowie",
      "addr_postcode": "20720",
      "addr_street": "Martin Luther King Jr. Highway",
      "addr_housenumber": "10621"
    },
    {
      "id": 192163,
      "geometry": "POINT (-77.116876 39.050782)",
      "poi_name": "The Pretzel Bakery",
      "osm_id": 1425506224,
      "amenity": "cafe",
      "outdoor_seating": "yes",
      "addr_state": "DC",
      "addr_city": "Washington",
      "addr_postcode": "20003",
      "addr_street": "15th Street Southeast",
      "addr_housenumber": "257"
    },
    {
      "id": 192353,
      "geometry": "POINT (-77.116876 39.050782)",
      "poi_name": "Donut King Cafe & Deli",
      "osm_id": 1436476484,
      "amenity": "cafe",
      "cuisine": "donut;coffee;deli",
      "opening_hours": "Mo-Fr 05:00-19:00, Sa 06:00-18:00, Su 06:00-15:00",
      "website": "https://donutkingcafeanddeli.weebly.com/",
      "phone": "1-301-949-3464",
      "addr_state": "MD",
      "addr_city": "Kensington",
      "addr_postcode": "20895",
      "addr_street": "University Boulevard West",
      "addr_housenumber": "3727"
    },
    {
      "id": 195443,
      "geometry": "POINT (-77.116876 39.050782)",
      "poi_name": "Golden Flour",
      "osm_id": 10305036999,
      "amenity": "cafe",
      "opening_hours": "Mo-Fr 07:00-17:00; Sa-Su 08:00-14:00",
      "website": "https://www.goldenflourdc.com/",
      "phone": "+1-202-629-3148"
    },
    {
      "id": 196179,
      "geometry": "POINT (-77.116876 39.050782)",
      "poi_name": "Tatte Bakery & Cafe",
      "osm_id": 10566953217,
      "amenity": "cafe",
      "wheelchair": "yes",
      "website": "https://tattebakery.com/washington-dc/",
      "shop": "bakery",
      "internet_access": "wlan",
      "outdoor_seating": "yes"
    },
    {
      "id": 196741,
      "geometry": "POINT (-77.116876 39.050782)",
      "poi_name": "D Light",
      "osm_id": 10594798512,
      "amenity": "cafe"
    },
    {
      "id": 196943,
      "geometry": "POINT (-77.116876 39.050782)",
      "poi_name": "Tatte Bakery & Cafe",
      "osm_id": 10605209553,
      "amenity": "cafe",
      "shop": "bakery",
      "outdoor_seating": "yes"
    },
    {
      "id": 185154,
      "geometry": "POINT (-77.116876 39.050782)",
      "poi_name": "Lewi Cafe",
      "osm_id": 7836144903,
      "amenity": "cafe",
      "addr_state": "MD",
      "addr_city": "Silver Spring",
      "addr_postcode": "20910",
      "addr_street": "Bonifant Street",
      "addr_housenumber": "911"
    },
    {
      "id": 187417,
      "geometry": "POINT (-77.116876 39.050782)",
      "poi_name": "Turning Natural",
      "osm_id": 1066856899,
      "amenity": "cafe",
      "cuisine": "juice",
      "opening_hours": "Mo-Fr 09:00-17:00; Sa,Su 09:00-15:00",
      "outdoor_seating": "no",
      "addr_street": "4th Street Northwest",
      "addr_housenumber": "6837"
    },
    {
      "id": 187418,
      "geometry": "POINT (-77.116876 39.050782)",
      "poi_name": "Lost Sock",
      "osm_id": 1066861256,
      "amenity": "cafe",
      "opening_hours": "Tu-Fr 07:00-16:00; Sa,Su 08:00-17:00",
      "shop": "coffee",
      "outdoor_seating": "yes",
      "addr_street": "4th Street Northwest",
      "addr_housenumber": "6829"
    },
    {
      "id": 187945,
      "geometry": "POINT (-77.116876 39.050782)",
      "poi_name": "Peet's Coffee",
      "osm_id": 1115021850,
      "amenity": "cafe",
      "cuisine": "coffee_shop",
      "opening_hours": "Mo-Fr 06:00-18:00; Sa,Su 07:00-17:00",
      "operator": "Tynan Cafe",
      "takeaway": "yes",
      "outdoor_seating": "yes",
      "addr_state": "DC",
      "addr_city": "Washington",
      "addr_postcode": "20002",
      "addr_street": "1st Street Northeast",
      "addr_housenumber": "1275"
    },
    {
      "id": 192033,
      "geometry": "POINT (-77.116876 39.050782)",
      "poi_name": "Starbucks",
      "osm_id": 1416494713,
      "amenity": "cafe",
      "cuisine": "coffee_shop",
      "takeaway": "yes",
      "official_name": "Starbucks Coffee"
    },
    {
      "id": 198948,
      "geometry": "POINT (-77.116876 39.050782)",
      "poi_name": "Peregrine Espresso",
      "osm_id": 925567205,
      "amenity": "cafe",
      "internet_access": "wlan"
    },
    {
      "id": 198389,
      "geometry": "POINT (-77.116876 39.050782)",
      "poi_name": "Starbucks",
      "osm_id": 10702320196,
      "amenity": "cafe",
      "cuisine": "coffee_shop",
      "takeaway": "yes",
      "official_name": "Starbucks Coffee",
      "outdoor_seating": "no"
    },
    {
      "id": 207797,
      "geometry": "POINT (-77.116876 39.050782)",
      "poi_name": "Sunrise Cafe",
      "osm_id": 4960921126,
      "amenity": "cafe"
    },
    {
      "id": 199442,
      "geometry": "POINT (-77.116876 39.050782)",
      "poi_name": "Starbucks",
      "osm_id": 963731370,
      "amenity": "cafe",
      "cuisine": "coffee_shop",
      "takeaway": "yes",
      "official_name": "Starbucks Coffee"
    },
    {
      "id": 199643,
      "geometry": "POINT (-77.116876 39.050782)",
      "poi_name": "Peet's Coffee",
      "osm_id": 978051659,
      "amenity": "cafe",
      "cuisine": "coffee_shop",
      "takeaway": "yes",
      "outdoor_seating": "yes"
    },
    {
      "id": 201458,
      "geometry": "POINT (-77.116876 39.050782)",
      "poi_name": "Iz\u0113's Deli & Bagelry",
      "osm_id": 633588221,
      "amenity": "cafe",
      "cuisine": "sandwich",
      "opening_hours": "Mo-Fr 06:00-15:00; Sa-Su 07:00-15:00"
    },
    {
      "id": 203072,
      "geometry": "POINT (-77.116876 39.050782)",
      "poi_name": "Compass Coffee",
      "osm_id": 7061209609,
      "amenity": "cafe",
      "cuisine": "coffee_shop",
      "opening_hours": "Mo-Th 06:30-17:00; Fr 06:30-18:00; Sa-Su 06:45-18:00",
      "website": "https://www.compasscoffee.com/",
      "takeaway": "yes",
      "outdoor_seating": "yes",
      "delivery": "yes",
      "addr_state": "DC",
      "addr_city": "Washington",
      "addr_postcode": "20001",
      "addr_street": "7th Street Northwest",
      "addr_housenumber": "1535"
    },
    {
      "id": 203553,
      "geometry": "POINT (-77.116876 39.050782)",
      "poi_name": "Starbucks",
      "osm_id": 7092618828,
      "amenity": "cafe",
      "cuisine": "coffee_shop",
      "takeaway": "yes",
      "official_name": "Starbucks Coffee"
    },
    {
      "id": 199683,
      "geometry": "POINT (-77.116876 39.050782)",
      "poi_name": "Cafe Twelve",
      "osm_id": 982859838,
      "amenity": "cafe",
      "opening_hours": "Mo-Fr 06:30-15:30; Sa-Su off",
      "addr_state": "DC",
      "addr_city": "Washington",
      "addr_street": "12th Street Southwest",
      "addr_housenumber": "409"
    },
    {
      "id": 201073,
      "geometry": "POINT (-77.116876 39.050782)",
      "poi_name": "Starbucks",
      "osm_id": 611054693,
      "amenity": "cafe",
      "cuisine": "coffee_shop",
      "opening_hours": "Mo-Th 05:30-19:30; Fr 05:30-20:00; Sa 07:00-20:00; Su 07:00-19:30",
      "takeaway": "yes",
      "official_name": "Starbucks Coffee"
    },
    {
      "id": 209989,
      "geometry": "POINT (-77.116876 39.050782)",
      "poi_name": "Magic Gourd Restaurant - Chinese",
      "osm_id": 5070573822,
      "amenity": "cafe",
      "cuisine": "chinese",
      "website": "http://Asianamerican2.com",
      "phone": "+1 202-836-8266",
      "addr_state": "DC",
      "addr_city": "Washington",
      "addr_postcode": "20001",
      "addr_street": "11th St Northwest",
      "addr_housenumber": "1439"
    },
    {
      "id": 208110,
      "geometry": "POINT (-77.116876 39.050782)",
      "poi_name": "District Doughnut",
      "osm_id": 4974049323,
      "amenity": "cafe",
      "cuisine": "donut",
      "opening_hours": "Tu-Fr 07:00-16:00; Sa-Su 09:00-17:00; Mo off"
    },
    {
      "id": 208131,
      "geometry": "POINT (-77.116876 39.050782)",
      "poi_name": "Starbucks",
      "osm_id": 4974355669,
      "amenity": "cafe",
      "cuisine": "coffee_shop",
      "opening_hours": "Mo-Fr 05:30-21:00; Sa-Su 07:00-20:00",
      "internet_access": "wlan",
      "phone": "+1 202-807-8439",
      "takeaway": "yes",
      "official_name": "Starbucks Coffee",
      "outdoor_seating": "yes",
      "addr_state": "DC",
      "addr_city": "Washington",
      "addr_postcode": "20002",
      "addr_street": "H Street Northeast",
      "addr_housenumber": "625"
    },
    {
      "id": 213279,
      "geometry": "POINT (-77.116876 39.050782)",
      "poi_name": "Kung Fu Tea",
      "osm_id": 5244858729,
      "amenity": "cafe",
      "cuisine": "bubble_tea",
      "opening_hours": "12:00-19:00",
      "phone": "+1 240-308-8868",
      "takeaway": "yes",
      "outdoor_seating": "no",
      "addr_state": "MD",
      "addr_city": "Silver Spring",
      "addr_postcode": "20910",
      "addr_street": "Colesville Road",
      "addr_housenumber": "8661"
    },
    {
      "id": 209895,
      "geometry": "POINT (-77.116876 39.050782)",
      "poi_name": "Vigilante Coffee",
      "osm_id": 5064224122,
      "amenity": "cafe",
      "cuisine": "coffee_shop",
      "website": "https://www.vigilantecoffee.com/",
      "internet_access": "wlan",
      "phone": "+1-301-200-3110",
      "outdoor_seating": "yes",
      "addr_state": "MD",
      "addr_city": "Hyattsville",
      "addr_postcode": "20781",
      "addr_street": "Gallatin Street",
      "addr_housenumber": "4327"
    },
    {
      "id": 210057,
      "geometry": "POINT (-77.116876 39.050782)",
      "poi_name": "Bethesda Bagels",
      "osm_id": 5075273021,
      "amenity": "cafe",
      "opening_hours": "Mo-Su 06:30-16:00",
      "outdoor_seating": "no",
      "addr_street": "M Street Southeast",
      "addr_housenumber": "120"
    },
    {
      "id": 210892,
      "geometry": "POINT (-77.116876 39.050782)",
      "poi_name": "Le Pain Quotidien",
      "osm_id": 5126915140,
      "amenity": "cafe",
      "cuisine": "coffee_shop",
      "takeaway": "yes",
      "outdoor_seating": "no"
    },
    {
      "id": 214727,
      "geometry": "POINT (-77.116876 39.050782)",
      "poi_name": "Gregorys Coffee",
      "osm_id": 5278754921,
      "amenity": "cafe",
      "outdoor_seating": "yes",
      "wikidata": "Q16903529",
      "addr_postcode": "20005",
      "addr_street": "Vermont Avenue Northwest",
      "addr_housenumber": "1000"
    },
    {
      "id": 215238,
      "geometry": "POINT (-77.116876 39.050782)",
      "poi_name": "Java Corner",
      "osm_id": 5292485466,
      "amenity": "cafe",
      "cuisine": "coffee_shop"
    },
    {
      "id": 220608,
      "geometry": "POINT (-77.116876 39.050782)",
      "poi_name": "Joe & The Juice",
      "osm_id": 9379788942,
      "amenity": "cafe",
      "cuisine": "coffee_shop",
      "takeaway": "yes",
      "outdoor_seating": "yes"
    },
    {
      "id": 222855,
      "geometry": "POINT (-77.116876 39.050782)",
      "poi_name": "Tatte",
      "osm_id": 11038073146,
      "amenity": "cafe",
      "addr_state": "DC",
      "addr_city": "Washington",
      "addr_postcode": "20009",
      "addr_street": "W Street Northwest",
      "addr_housenumber": "1400"
    },
    {
      "id": 223472,
      "geometry": "POINT (-77.116876 39.050782)",
      "poi_name": "eTea",
      "osm_id": 11054948489,
      "amenity": "cafe",
      "cuisine": "bubble_tea"
    },
    {
      "id": 225741,
      "geometry": "POINT (-77.116876 39.050782)",
      "poi_name": "Kung Fu Tea",
      "osm_id": 11137620208,
      "amenity": "cafe",
      "cuisine": "bubble_tea",
      "takeaway": "yes"
    },
    {
      "id": 228313,
      "geometry": "POINT (-77.116876 39.050782)",
      "poi_name": "Starbucks",
      "osm_id": 4338649340,
      "amenity": "cafe",
      "cuisine": "coffee_shop",
      "opening_hours": "Mo-Su 06:30-16:00",
      "phone": "+1 202-824-9200",
      "takeaway": "yes",
      "official_name": "Starbucks Coffee",
      "addr_postcode": "20001",
      "addr_street": "Massachusetts Avenue Northwest",
      "addr_housenumber": "901"
    },
    {
      "id": 226291,
      "geometry": "POINT (-77.116876 39.050782)",
      "poi_name": "Brij",
      "osm_id": 11155075189,
      "amenity": "cafe",
      "opening_hours": "off",
      "website": "https://www.brijcoffee.com/",
      "addr_street": "9th Street Northwest",
      "addr_housenumber": "1123"
    },
    {
      "id": 226400,
      "geometry": "POINT (-77.116876 39.050782)",
      "poi_name": "Oak Berry",
      "osm_id": 11158849989,
      "amenity": "cafe",
      "opening_hours": "off",
      "addr_street": "9th Street Northwest",
      "addr_housenumber": "1119"
    },
    {
      "id": 226419,
      "geometry": "POINT (-77.116876 39.050782)",
      "poi_name": "The Real Milk & Honey Eatery & Bar",
      "osm_id": 11159907850,
      "amenity": "cafe"
    },
    {
      "id": 226776,
      "geometry": "POINT (-77.116876 39.050782)",
      "poi_name": "Dasha cafe",
      "osm_id": 11168134726,
      "amenity": "cafe",
      "opening_hours": "08:00-15:00",
      "website": "https://www.dachabeergarden.com/shaw/",
      "addr_street": "7th Street Northwest",
      "addr_housenumber": "1602"
    },
    {
      "id": 230625,
      "geometry": "POINT (-77.116876 39.050782)",
      "poi_name": "La Colombe Coffee Roasters",
      "osm_id": 4433431823,
      "amenity": "cafe",
      "cuisine": "coffee_shop",
      "opening_hours": "Mo-Fr 07:00-19:00; Sa-Su 08:00-19:00",
      "website": "https://www.lacolombe.com/pages/cafes",
      "internet_access": "wlan",
      "phone": "+1 202-795-7909",
      "takeaway": "yes",
      "drive_through": "no",
      "addr_state": "DC",
      "addr_city": "Washington",
      "addr_postcode": "20009",
      "addr_street": "Florida Avenue Northwest",
      "addr_housenumber": "1346"
    },
    {
      "id": 233548,
      "geometry": "POINT (-77.116876 39.050782)",
      "poi_name": "Cafe du Parc",
      "osm_id": 4578523132,
      "amenity": "cafe",
      "outdoor_seating": "yes"
    },
    {
      "id": 236356,
      "geometry": "POINT (-77.116876 39.050782)",
      "poi_name": "Blue Bottle Coffee",
      "osm_id": 5790965454,
      "amenity": "cafe",
      "cuisine": "coffee_shop",
      "opening_hours": "Mo-Su 07:00-17:00",
      "website": "https://bluebottlecoffee.com",
      "takeaway": "yes"
    },
    {
      "id": 235045,
      "geometry": "POINT (-77.116876 39.050782)",
      "poi_name": "Bump \u2018n Grind",
      "osm_id": 5744147021,
      "amenity": "cafe",
      "opening_hours": "Mo-Su 08:00-21:00",
      "addr_state": "MD",
      "addr_city": "Silver Spring",
      "addr_postcode": "20910",
      "addr_street": "Georgia Avenue",
      "addr_housenumber": "8030"
    },
    {
      "id": 236842,
      "geometry": "POINT (-77.116876 39.050782)",
      "poi_name": "Kaldi\u2019s Social House",
      "osm_id": 5809054854,
      "amenity": "cafe",
      "cuisine": "coffee_shop;tea",
      "addr_postcode": "20910",
      "addr_street": "Silver Spring Avenue",
      "addr_housenumber": "918"
    },
    {
      "id": 239357,
      "geometry": "POINT (-77.116876 39.050782)",
      "poi_name": "Culture Coffee Too",
      "osm_id": 5918548111,
      "amenity": "cafe",
      "addr_state": "DC",
      "addr_city": "Washington",
      "addr_postcode": "20011",
      "addr_street": "Riggs Road Northeast",
      "addr_housenumber": "300"
    },
    {
      "id": 239253,
      "geometry": "POINT (-77.116876 39.050782)",
      "poi_name": "South Block",
      "osm_id": 5912994000,
      "amenity": "cafe",
      "cuisine": "juice;smoothie;coffee;a\u00e7a\u00ed",
      "outdoor_seating": "yes",
      "addr_state": "DC",
      "addr_city": "Washington",
      "addr_postcode": "20002",
      "addr_street": "5th Street Northeast",
      "addr_housenumber": "1309"
    },
    {
      "id": 241708,
      "geometry": "POINT (-77.116876 39.050782)",
      "poi_name": "Starbucks",
      "osm_id": 6035726816,
      "amenity": "cafe",
      "cuisine": "coffee_shop",
      "takeaway": "yes",
      "official_name": "Starbucks Coffee"
    },
    {
      "id": 241484,
      "geometry": "POINT (-77.116876 39.050782)",
      "poi_name": "Oxford Cafe",
      "osm_id": 6026128300,
      "amenity": "cafe"
    }
  ],
  "answer_type": "name",
  "question_entities": {
    "[1]": {
      "main_category": "amenity",
      "sub_category": "cafe"
    },
    "[2]": {
      "distance": 40000,
      "text": "40 kilometers"
    },
    "[3]": {
      "main_category": "tourism",
      "sub_category": "hotel",
      "display_name": "Canopy by Hilton Washington DC Bethesda North, North Bethesda, MD",
      "geo_wkt": "POINT (-77.116876 39.050782)",
      "poi": {
        "id": 2993,
        "geometry": "POINT (-77.116876 39.050782)",
        "poi_name": "Canopy by Hilton Washington DC Bethesda North",
        "osm_id": 10120025919,
        "tourism": "hotel",
        "website": "https://www.hilton.com/en/hotels/dcabnpy-canopy-washington-dc-bethesda-north/",
        "internet_access": "wlan",
        "official_name": "Canopy by Hilton",
        "addr_state": "MD",
        "addr_city": "North Bethesda",
        "addr_postcode": "20852",
        "addr_street": "Rose Avenue",
        "addr_housenumber": "940"
      }
    },
    "[4]": {
      "direction_desc": "southeast",
      "direction_predicate": "degrees(ST_Azimuth(origin.geometry, pois.geometry)) BETWEEN 112.5 AND 157.5"
    }
  },
  "id": 2626,
  "type": "range:direction+name"
}